{"type":"FeatureCollection","features":[{"type": "Feature", "id": "r82oyDLH5py92RoRWFoKsfJonzs=", "properties": {"ref": "\u0410\u0412159", "@spider": "av_dac", "addr:full": "\u041c\u043e\u0441\u043a\u0432\u0430, 1-\u044f \u0422\u0432\u0435\u0440\u0441\u043a\u0430\u044f-\u042f\u043c\u0441\u043a\u0430\u044f \u0443\u043b\u0438\u0446\u0430, 21", "addr:country": "Russia", "phone": "74955043487|74952230200", "website": "https://av.ru/", "brand": "Azbuka Vkusa"}, "geometry": {"type": "Point", "coordinates": [37.587477, 55.774878]}},
{"type": "Feature", "id": "gYqhDty5EZGTJjQIZ8x5ep4FL1c=", "properties": {"ref": "\u0410\u0412084", "@spider": "av_dac", "addr:full": "\u041c\u043e\u0441\u043a\u0432\u0430, 2-\u044f \u0422\u0432\u0435\u0440\u0441\u043a\u0430\u044f-\u042f\u043c\u0441\u043a\u0430\u044f \u0443\u043b\u0438\u0446\u0430, 54", "addr:country": "Russia", "phone": "74955043487|74952230200", "website": "https://av.ru/", "brand": "Azbuka Vkusa"}, "geometry": {"type": "Point", "coordinates": [37.589079, 55.775299]}},
{"type": "Feature", "id": "5OtXTkpT21zlH5BXfdB2zeKMA7I=", "properties": {"ref": "AVDAILY016", "@spider": "av_dac", "addr:full": "\u041c\u043e\u0441\u043a\u0432\u0430, 2-\u044f \u0424\u0440\u0443\u043d\u0437\u0435\u043d\u0441\u043a\u0430\u044f \u0443\u043b\u0438\u0446\u0430, 10\u043a1", "addr:country": "Russia", "phone": "74955043487|74952230200", "website": "https://av.ru/", "brand": "Azbuka Vkusa"}, "geometry": {"type": "Point", "coordinates": [37.581395, 55.723537]}},
{"type": "Feature", "id": "X-6GP6CWslqRMP3njQHSEn46I1E=", "properties": {"ref": "\u0410\u0412\u041f\u041a68_\u0422", "@spider": "av_dac", "addr:full": "\u041c\u043e\u0441\u043a\u043e\u0432\u0441\u043a\u0430\u044f \u043e\u0431\u043b\u0430\u0441\u0442\u044c, \u0433\u043e\u0440\u043e\u0434\u0441\u043a\u043e\u0439 \u043e\u043a\u0440\u0443\u0433 \u0418\u0441\u0442\u0440\u0430, \u0434\u0435\u0440\u0435\u0432\u043d\u044f \u041f\u043e\u043a\u0440\u043e\u0432\u0441\u043a\u043e\u0435, \u0426\u0435\u043d\u0442\u0440\u0430\u043b\u044c\u043d\u0430\u044f \u0443\u043b\u0438\u0446\u0430, 33\u043a6", "addr:country": "Russia", "phone": "74955043487|74952230200", "website": "https://av.ru/", "brand": "Azbuka Vkusa"}, "geometry": {"type": "Point", "coordinates": [37.0243, 55.8094]}},
{"type": "Feature", "id": "_VccQtuzbt5zpfA-FCyncMJT7r8=", "properties": {"ref": "\u0410\u0412115", "@spider": "av_dac", "addr:full": "\u041c\u043e\u0441\u043a\u0432\u0430, \u0410\u0432\u0438\u0430\u0446\u0438\u043e\u043d\u043d\u0430\u044f \u0443\u043b\u0438\u0446\u0430, 77\u043a2", "addr:country": "Russia", "phone": "74955043487|74952230200", "website": "https://av.ru/", "brand": "Azbuka Vkusa"}, "geometry": {"type": "Point", "coordinates": [37.451519, 55.809064]}},
{"type": "Feature", "id": "uEv8dr1m2-kbEM6ZomTHN2IpQQ0=", "properties": {"ref": "AB001", "@spider": "av_dac", "addr:full": "\u041c\u043e\u0441\u043a\u0432\u0430, \u0443\u043b\u0438\u0446\u0430 \u0410\u043b\u0430\u0431\u044f\u043d\u0430, 7", "addr:country": "Russia", "phone": "74955043487|74952230200", "website": "https://av.ru/", "brand": "Azbuka Vkusa"}, "geometry": {"type": "Point", "coordinates": [37.507857, 55.80183]}},
{"type": "Feature", "id": "CHu1TsivIR36XLAKLUyBrNDvMiM=", "properties": {"ref": "\u0410\u0412108", "@spider": "av_dac", "addr:full": "\u041c\u043e\u0441\u043a\u0432\u0430, \u0443\u043b\u0438\u0446\u0430 \u0410\u0440\u0431\u0430\u0442, 54/2\u04411", "addr:country": "Russia", "phone": "74955043487|74952230200", "website": "https://av.ru/", "brand": "Azbuka Vkusa"}, "geometry": {"type": "Point", "coordinates": [37.582933, 55.747149]}},
{"type": "Feature", "id": "JUfjK7nAn99daD33aDehwPQw5cE=", "properties": {"ref": "\u0410\u0412104", "@spider": "av_dac", "addr:full": "\u041c\u043e\u0441\u043a\u0432\u0430, \u0443\u043b\u0438\u0446\u0430 \u0410\u0440\u0431\u0430\u0442, 54/2\u04411", "addr:country": "Russia", "phone": "74955043487|74952230200", "website": "https://av.ru/", "brand": "Azbuka Vkusa"}, "geometry": {"type": "Point", "coordinates": [37.583338, 55.747137]}},
{"type": "Feature", "id": "-OasoKTwy9-yMxA4sStnMUO2mSw=", "properties": {"ref": "\u0410\u0412154", "@spider": "av_dac", "addr:full": "\u041c\u043e\u0441\u043a\u0432\u0430, \u043f\u043e\u0441\u0435\u043b\u0435\u043d\u0438\u0435 \u0414\u0435\u0441\u0435\u043d\u043e\u0432\u0441\u043a\u043e\u0435, \u0410\u0440\u043c\u0435\u0439\u0441\u043a\u0430\u044f \u0443\u043b\u0438\u0446\u0430, 1", "addr:country": "Russia", "phone": "74955043487|74952230200", "website": "https://av.ru/", "brand": "Azbuka Vkusa"}, "geometry": {"type": "Point", "coordinates": [37.361622, 55.509615]}},
{"type": "Feature", "id": "cQdczTz-K4cVfxh568T37_Dlf9A=", "properties": {"ref": "\u0410\u0412093", "@spider": "av_dac", "addr:full": "\u041c\u043e\u0441\u043a\u0432\u0430, \u0411\u0430\u043a\u0443\u043d\u0438\u043d\u0441\u043a\u0430\u044f \u0443\u043b\u0438\u0446\u0430, 26-30\u04411", "addr:country": "Russia", "phone": "74955043487|74952230200", "website": "https://av.ru/", "brand": "Azbuka Vkusa"}, "geometry": {"type": "Point", "coordinates": [37.685237, 55.775273]}},
{"type": "Feature", "id": "fsFZHBfXutkZtwZOyxgcoURyrXY=", "properties": {"ref": "AVDAILY022", "@spider": "av_dac", "addr:full": "\u041c\u043e\u0441\u043a\u0432\u0430, \u0411\u0430\u0443\u043c\u0430\u043d\u0441\u043a\u0430\u044f \u0443\u043b\u0438\u0446\u0430, 32", "addr:country": "Russia", "phone": "74955043487|74952230200", "website": "https://av.ru/", "brand": "Azbuka Vkusa"}, "geometry": {"type": "Point", "coordinates": [37.678133, 55.772421]}},
{"type": "Feature", "id": "7IP58aNlAHH-PDmA47ipDiuLyug=", "properties": {"ref": "\u0410\u0412142", "@spider": "av_dac", "addr:full": "\u041c\u043e\u0441\u043a\u0432\u0430, \u0411\u043e\u043b\u044c\u0448\u0430\u044f \u0413\u0440\u0443\u0437\u0438\u043d\u0441\u043a\u0430\u044f \u0443\u043b\u0438\u0446\u0430, 16", "addr:country": "Russia", "phone": "74955043487|74952230200", "website": "https://av.ru/", "brand": "Azbuka Vkusa"}, "geometry": {"type": "Point", "coordinates": [37.578788, 55.764768]}},
{"type": "Feature", "id": "b8gOEiopKSsJUSB-XQRGqR1KIHI=", "properties": {"ref": "AB003", "@spider": "av_dac", "addr:full": "\u041c\u043e\u0441\u043a\u0432\u0430, \u0411\u043e\u043b\u044c\u0448\u0430\u044f \u0413\u0440\u0443\u0437\u0438\u043d\u0441\u043a\u0430\u044f \u0443\u043b\u0438\u0446\u0430, 42", "addr:country": "Russia", "phone": "74955043487|74952230200", "website": "https://av.ru/", "brand": "Azbuka Vkusa"}, "geometry": {"type": "Point", "coordinates": [37.580929, 55.768815]}},
{"type": "Feature", "id": "bVerss-PBtpTeYx22uR1bfWqU0o=", "properties": {"ref": "\u0410\u0412122", "@spider": "av_dac", "addr:full": "\u041c\u043e\u0441\u043a\u0432\u0430, \u0411\u043e\u043b\u044c\u0448\u0430\u044f \u0413\u0440\u0443\u0437\u0438\u043d\u0441\u043a\u0430\u044f \u0443\u043b\u0438\u0446\u0430, 63\u04411", "addr:country": "Russia", "phone": "74955043487|74952230200", "website": "https://av.ru/", "brand": "Azbuka Vkusa"}, "geometry": {"type": "Point", "coordinates": [37.585058, 55.772937]}},
{"type": "Feature", "id": "cgqBxL_r5ghVPU8r9hOiBxVCuSE=", "properties": {"ref": "\u0410\u0412105", "@spider": "av_dac", "addr:full": "\u041c\u043e\u0441\u043a\u0432\u0430, \u0443\u043b\u0438\u0446\u0430 \u0411\u043e\u043b\u044c\u0448\u0430\u044f \u0414\u043c\u0438\u0442\u0440\u043e\u0432\u043a\u0430, 5/6\u04413", "addr:country": "Russia", "phone": "74955043487|74952230200", "website": "https://av.ru/", "brand": "Azbuka Vkusa"}, "geometry": {"type": "Point", "coordinates": [37.613615, 55.759838]}},
{"type": "Feature", "id": "QAE-SUQL9HcUvvwdakbAfickoag=", "properties": {"ref": "AB004", "@spider": "av_dac", "addr:full": "\u041c\u043e\u0441\u043a\u0432\u0430, \u0411\u043e\u043b\u044c\u0448\u0430\u044f \u0414\u043e\u0440\u043e\u0433\u043e\u043c\u0438\u043b\u043e\u0432\u0441\u043a\u0430\u044f \u0443\u043b\u0438\u0446\u0430, 16", "addr:country": "Russia", "phone": "74955043487|74952230200", "website": "https://av.ru/", "brand": "Azbuka Vkusa"}, "geometry": {"type": "Point", "coordinates": [37.557222, 55.746671]}},
{"type": "Feature", "id": "K4g1EtpzIUkWW-JKomrGQ1bsxRQ=", "properties": {"ref": "\u0410\u0412145", "@spider": "av_dac", "addr:full": "\u041c\u043e\u0441\u043a\u0432\u0430, \u0411\u043e\u043b\u044c\u0448\u0430\u044f \u0421\u0430\u0434\u043e\u0432\u0430\u044f \u0443\u043b\u0438\u0446\u0430, 5\u043a1", "addr:country": "Russia", "phone": "74955043487|74952230200", "website": "https://av.ru/", "brand": "Azbuka Vkusa"}, "geometry": {"type": "Point", "coordinates": [37.591604, 55.769638]}},
{"type": "Feature", "id": "xc_82JZbLphqgCq7A8ZolB_9xIY=", "properties": {"ref": "\u0410\u0412127", "@spider": "av_dac", "addr:full": "\u041c\u043e\u0441\u043a\u0432\u0430, \u0411\u043e\u043b\u044c\u0448\u0430\u044f \u0422\u0430\u0442\u0430\u0440\u0441\u043a\u0430\u044f \u0443\u043b\u0438\u0446\u0430, 30\u04418", "addr:country": "Russia", "phone": "74955043487|74952230200", "website": "https://av.ru/", "brand": "Azbuka Vkusa"}, "geometry": {"type": "Point", "coordinates": [37.633853, 55.738733]}},
{"type": "Feature", "id": "M4ylmWkeOt8xilODdcNdTD-p1_s=", "properties": {"ref": "AB005", "@spider": "av_dac", "addr:full": "\u041c\u043e\u0441\u043a\u0432\u0430, \u0411\u043e\u043b\u044c\u0448\u0430\u044f \u0422\u0443\u043b\u044c\u0441\u043a\u0430\u044f \u0443\u043b\u0438\u0446\u0430, 13", "addr:country": "Russia", "phone": "74955043487|74952230200", "website": "https://av.ru/", "brand": "Azbuka Vkusa"}, "geometry": {"type": "Point", "coordinates": [37.621707, 55.708694]}},
{"type": "Feature", "id": "pLqDMbu9Y2vesIvdcDa7DJZIQLI=", "properties": {"ref": "AB006", "@spider": "av_dac", "addr:full": "\u041c\u043e\u0441\u043a\u0432\u0430, \u0443\u043b\u0438\u0446\u0430 \u0411\u043e\u043b\u044c\u0448\u0430\u044f \u042f\u043a\u0438\u043c\u0430\u043d\u043a\u0430, 28/30", "addr:country": "Russia", "phone": "74955043487|74952230200", "website": "https://av.ru/", "brand": "Azbuka Vkusa"}, "geometry": {"type": "Point", "coordinates": [37.612922, 55.735363]}},
{"type": "Feature", "id": "XW7aMgt3UddHQC6eVL_A6PSeSgY=", "properties": {"ref": "\u0410\u0412125", "@spider": "av_dac", "addr:full": "\u041c\u043e\u0441\u043a\u0432\u0430, \u0411\u043e\u0440\u043e\u0432\u0441\u043a\u043e\u0435 \u0448\u043e\u0441\u0441\u0435, 56", "addr:country": "Russia", "phone": "74955043487|74952230200", "website": "https://av.ru/", "brand": "Azbuka Vkusa"}, "geometry": {"type": "Point", "coordinates": [37.346549, 55.635119]}},
{"type": "Feature", "id": "w1OAnf54DH0tMpveHgOsRtrsJCc=", "properties": {"ref": "AVDAILY001", "@spider": "av_dac", "addr:full": "\u041c\u043e\u0441\u043a\u0432\u0430, \u0443\u043b\u0438\u0446\u0430 \u0411\u0443\u0442\u044b\u0440\u0441\u043a\u0438\u0439 \u0412\u0430\u043b, 10", "addr:country": "Russia", "phone": "74955043487|74952230200", "website": "https://av.ru/", "brand": "Azbuka Vkusa"}, "geometry": {"type": "Point", "coordinates": [37.585589, 55.778546]}},
{"type": "Feature", "id": "vnDOuEiQEJlOrPFBfj7CR9OJDsY=", "properties": {"ref": "AB007", "@spider": "av_dac", "addr:full": "\u041c\u043e\u0441\u043a\u0432\u0430, \u0412\u0430\u043b\u043e\u0432\u0430\u044f \u0443\u043b\u0438\u0446\u0430, 18", "addr:country": "Russia", "phone": "74955043487|74952230200", "website": "https://av.ru/", "brand": "Azbuka Vkusa"}, "geometry": {"type": "Point", "coordinates": [37.631221, 55.730798]}},
{"type": "Feature", "id": "QP22RlJEEh1WalmHbLbz59dR3Zs=", "properties": {"ref": "AB008", "@spider": "av_dac", "addr:full": "\u041c\u043e\u0441\u043a\u0432\u0430, \u0412\u0430\u0440\u0448\u0430\u0432\u0441\u043a\u043e\u0435 \u0448\u043e\u0441\u0441\u0435, 34", "addr:country": "Russia", "phone": "74955043487|74952230200", "website": "https://av.ru/", "brand": "Azbuka Vkusa"}, "geometry": {"type": "Point", "coordinates": [37.623811, 55.680167]}},
{"type": "Feature", "id": "uyK50AQokVnEVlSD67Wg_RtlmBU=", "properties": {"ref": "\u041c\u0424\u0412\u0415\u0420\u042520_\u0422", "@spider": "av_dac", "addr:full": "\u041c\u043e\u0441\u043a\u0432\u0430, \u0412\u0435\u0440\u0445\u043d\u044f\u044f \u0443\u043b\u0438\u0446\u0430, 20\u043a1", "addr:country": "Russia", "phone": "74955043487|74952230200", "website": "https://av.ru/", "brand": "Azbuka Vkusa"}, "geometry": {"type": "Point", "coordinates": [37.5744, 55.7793]}},
{"type": "Feature", "id": "2cqWLcV8nJl9421iHVE_qygXf6A=", "properties": {"ref": "MAR005", "@spider": "av_dac", "addr:full": "\u041c\u043e\u0441\u043a\u043e\u0432\u0441\u043a\u0430\u044f \u043e\u0431\u043b\u0430\u0441\u0442\u044c, \u0412\u043e\u0441\u043a\u0440\u0435\u0441\u0435\u043d\u0441\u043a, \u043c\u0438\u043a\u0440\u043e\u0440\u0430\u0439\u043e\u043d \u0426\u0435\u043d\u0442\u0440\u0430\u043b\u044c\u043d\u044b\u0439", "addr:country": "Russia", "phone": "74955043487|74952230200", "website": "https://av.ru/", "brand": "Azbuka Vkusa"}, "geometry": {"type": "Point", "coordinates": [38.6722, 55.3214]}},
{"type": "Feature", "id": "XG3v3yiNbI-5yioA6_5MgAfVlXA=", "properties": {"ref": "\u0410\u0412157", "@spider": "av_dac", "addr:full": "\u041c\u043e\u0441\u043a\u0432\u0430, \u0443\u043b\u0438\u0446\u0430 \u0413\u0435\u043d\u0435\u0440\u0430\u043b\u0430 \u0413\u043b\u0430\u0433\u043e\u043b\u0435\u0432\u0430, 14", "addr:country": "Russia", "phone": "74955043487|74952230200", "website": "https://av.ru/", "brand": "Azbuka Vkusa"}, "geometry": {"type": "Point", "coordinates": [37.462615, 55.782216]}},
{"type": "Feature", "id": "Jlayv8A43N7IcpCnhyNZQI4YG2g=", "properties": {"ref": "AB009", "@spider": "av_dac", "addr:full": "\u041c\u043e\u0441\u043a\u043e\u0432\u0441\u043a\u0430\u044f \u043e\u0431\u043b\u0430\u0441\u0442\u044c, \u041e\u0434\u0438\u043d\u0446\u043e\u0432\u0441\u043a\u0438\u0439 \u0433\u043e\u0440\u043e\u0434\u0441\u043a\u043e\u0439 \u043e\u043a\u0440\u0443\u0433, \u043f\u043e\u0441\u0451\u043b\u043e\u043a \u0413\u043e\u0440\u043a\u0438-2, 11", "addr:country": "Russia", "phone": "74955043487|74952230200", "website": "https://av.ru/", "brand": "Azbuka Vkusa"}, "geometry": {"type": "Point", "coordinates": [37.15906, 55.724575]}},
{"type": "Feature", "id": "ogQbYX0ax_OdHXbJfJJggNj2gho=", "properties": {"ref": "AB010", "@spider": "av_dac", "addr:full": "\u041c\u043e\u0441\u043a\u0432\u0430, \u0443\u043b\u0438\u0446\u0430 \u0413\u0440\u0438\u0437\u043e\u0434\u0443\u0431\u043e\u0432\u043e\u0439, 1\u0410", "addr:country": "Russia", "phone": "74955043487|74952230200", "website": "https://av.ru/", "brand": "Azbuka Vkusa"}, "geometry": {"type": "Point", "coordinates": [37.534315, 55.781987]}},
{"type": "Feature", "id": "FD0Efm6cW-0DhrNjNxrQq8QFVSg=", "properties": {"ref": "AB021", "@spider": "av_dac", "addr:full": "\u041c\u043e\u0441\u043a\u0432\u0430, \u043f\u043e\u0441\u0435\u043b\u0435\u043d\u0438\u0435 \u041c\u043e\u0441\u043a\u043e\u0432\u0441\u043a\u0438\u0439, \u0434\u0435\u0440\u0435\u0432\u043d\u044f \u041b\u0430\u043f\u0448\u0438\u043d\u043a\u0430, \u0432\u043b8\u043a20", "addr:country": "Russia", "phone": "74955043487|74952230200", "website": "https://av.ru/", "brand": "Azbuka Vkusa"}, "geometry": {"type": "Point", "coordinates": [37.332573, 55.608917]}},
{"type": "Feature", "id": "fMxxnEnwN3jqfvnL8EvXnmxLt1A=", "properties": {"ref": "\u0410\u0412133", "@spider": "av_dac", "addr:full": "\u041c\u043e\u0441\u043a\u0432\u0430, \u0414\u0435\u043b\u0435\u0433\u0430\u0442\u0441\u043a\u0430\u044f \u0443\u043b\u0438\u0446\u0430, 9\u04411", "addr:country": "Russia", "phone": "74955043487|74952230200", "website": "https://av.ru/", "brand": "Azbuka Vkusa"}, "geometry": {"type": "Point", "coordinates": [37.613677, 55.775705]}},
{"type": "Feature", "id": "MS4VBu8xM49RW4sFUZ5qWZ-Dyas=", "properties": {"ref": "\u0410\u0412158", "@spider": "av_dac", "addr:full": "\u041c\u043e\u0441\u043a\u043e\u0432\u0441\u043a\u0430\u044f \u043e\u0431\u043b\u0430\u0441\u0442\u044c, \u0433\u043e\u0440\u043e\u0434\u0441\u043a\u043e\u0439 \u043e\u043a\u0440\u0443\u0433 \u0418\u0441\u0442\u0440\u0430, \u0434\u0435\u0440\u0435\u0432\u043d\u044f \u0411\u043e\u0440\u0437\u044b\u0435, \u041d\u0435\u0432\u0441\u043a\u0430\u044f \u0443\u043b\u0438\u0446\u0430, 704\u0410", "addr:country": "Russia", "phone": "74955043487|74952230200", "website": "https://av.ru/", "brand": "Azbuka Vkusa"}, "geometry": {"type": "Point", "coordinates": [37.042091, 55.812182]}},
{"type": "Feature", "id": "IRX9yFGzK4R_EHul67-BIBWfGgQ=", "properties": {"ref": "\u0410\u0412102", "@spider": "av_dac", "addr:full": "\u041c\u043e\u0441\u043a\u043e\u0432\u0441\u043a\u0430\u044f \u043e\u0431\u043b\u0430\u0441\u0442\u044c, \u041e\u0434\u0438\u043d\u0446\u043e\u0432\u0441\u043a\u0438\u0439 \u0433\u043e\u0440\u043e\u0434\u0441\u043a\u043e\u0439 \u043e\u043a\u0440\u0443\u0433, \u0434\u0435\u0440\u0435\u0432\u043d\u044f \u041b\u0430\u043f\u0438\u043d\u043e, \u043a\u043e\u0442\u0442\u0435\u0434\u0436\u043d\u044b\u0439 \u043f\u043e\u0441\u0451\u043b\u043e\u043a \u041d\u043e\u0432\u043e\u0435 \u041b\u0430\u043f\u0438\u043d\u043e, \u044170", "addr:country": "Russia", "phone": "74955043487|74952230200", "website": "https://av.ru/", "brand": "Azbuka Vkusa"}, "geometry": {"type": "Point", "coordinates": [37.136309, 55.684234]}},
{"type": "Feature", "id": "BgRqZJLiflF-7BlC--lh9se8wsU=", "properties": {"ref": "MAR007", "@spider": "av_dac", "addr:full": "\u041c\u043e\u0441\u043a\u043e\u0432\u0441\u043a\u0430\u044f \u043e\u0431\u043b\u0430\u0441\u0442\u044c, \u0414\u043c\u0438\u0442\u0440\u043e\u0432, \u041f\u0440\u043e\u0444\u0435\u0441\u0441\u0438\u043e\u043d\u0430\u043b\u044c\u043d\u0430\u044f \u0443\u043b\u0438\u0446\u0430, 7", "addr:country": "Russia", "phone": "74955043487|74952230200", "website": "https://av.ru/", "brand": "Azbuka Vkusa"}, "geometry": {"type": "Point", "coordinates": [37.520913, 56.352547]}},
{"type": "Feature", "id": "oQJAkYNm3fl4Fo9Q07D0aaBZwJI=", "properties": {"ref": "AB012", "@spider": "av_dac", "addr:full": "\u041c\u043e\u0441\u043a\u0432\u0430, \u0414\u043c\u0438\u0442\u0440\u043e\u0432\u0441\u043a\u043e\u0435 \u0448\u043e\u0441\u0441\u0435, 108\u0411\u04411", "addr:country": "Russia", "phone": "74955043487|74952230200", "website": "https://av.ru/", "brand": "Azbuka Vkusa"}, "geometry": {"type": "Point", "coordinates": [37.543563, 55.886337]}},
{"type": "Feature", "id": "Sys3DWP3BmZehplN7b4ngKY0ivs=", "properties": {"ref": "AB011", "@spider": "av_dac", "addr:full": "\u041c\u043e\u0441\u043a\u043e\u0432\u0441\u043a\u0430\u044f \u043e\u0431\u043b\u0430\u0441\u0442\u044c, \u0433\u043e\u0440\u043e\u0434\u0441\u043a\u043e\u0439 \u043e\u043a\u0440\u0443\u0433 \u041c\u044b\u0442\u0438\u0449\u0438, \u0434\u0435\u0440\u0435\u0432\u043d\u044f \u0428\u043e\u043b\u043e\u0445\u043e\u0432\u043e, \u0414\u043c\u0438\u0442\u0440\u043e\u0432\u0441\u043a\u043e\u0435 \u0448\u043e\u0441\u0441\u0435, 2\u0411\u04411", "addr:country": "Russia", "phone": "74955043487|74952230200", "website": "https://av.ru/", "brand": "Azbuka Vkusa"}, "geometry": {"type": "Point", "coordinates": [37.53082, 56.056088]}},
{"type": "Feature", "id": "p9NcMRqGGQqZI6CePFNbOzxJqiI=", "properties": {"ref": "\u0410\u0412146", "@spider": "av_dac", "addr:full": "\u041c\u043e\u0441\u043a\u0432\u0430, \u0414\u043e\u043b\u0433\u043e\u0440\u0443\u043a\u043e\u0432\u0441\u043a\u0430\u044f \u0443\u043b\u0438\u0446\u0430, 40", "addr:country": "Russia", "phone": "74955043487|74952230200", "website": "https://av.ru/", "brand": "Azbuka Vkusa"}, "geometry": {"type": "Point", "coordinates": [37.602751, 55.779317]}},
{"type": "Feature", "id": "cCy02iW6JjdxX3Zb5HHDg_4vGY0=", "properties": {"ref": "MAR004", "@spider": "av_dac", "addr:full": "\u041c\u043e\u0441\u043a\u043e\u0432\u0441\u043a\u0430\u044f \u043e\u0431\u043b\u0430\u0441\u0442\u044c, \u0416\u0443\u043a\u043e\u0432\u0441\u043a\u0438\u0439, \u0443\u043b\u0438\u0446\u0430 \u0414\u0437\u0435\u0440\u0436\u0438\u043d\u0441\u043a\u043e\u0433\u043e, 3", "addr:country": "Russia", "phone": "74955043487|74952230200", "website": "https://av.ru/", "brand": "Azbuka Vkusa"}, "geometry": {"type": "Point", "coordinates": [38.13343, 55.597483]}},
{"type": "Feature", "id": "dO9NzpVmiQVuFOMHO-0b2zhXjTE=", "properties": {"ref": "AB015", "@spider": "av_dac", "addr:full": "\u041c\u043e\u0441\u043a\u0432\u0430, \u0416\u0443\u043b\u0435\u0431\u0438\u043d\u0441\u043a\u0438\u0439 \u0431\u0443\u043b\u044c\u0432\u0430\u0440, 16", "addr:country": "Russia", "phone": "74955043487|74952230200", "website": "https://av.ru/", "brand": "Azbuka Vkusa"}, "geometry": {"type": "Point", "coordinates": [37.852908, 55.69643]}},
{"type": "Feature", "id": "QCNqxnBu_C6SGk9zmTSKWYQPEm8=", "properties": {"ref": "AB037", "@spider": "av_dac", "addr:full": "\u041c\u043e\u0441\u043a\u043e\u0432\u0441\u043a\u0430\u044f \u043e\u0431\u043b\u0430\u0441\u0442\u044c, \u041e\u0434\u0438\u043d\u0446\u043e\u0432\u0441\u043a\u0438\u0439 \u0433\u043e\u0440\u043e\u0434\u0441\u043a\u043e\u0439 \u043e\u043a\u0440\u0443\u0433, \u0440\u0430\u0431\u043e\u0447\u0438\u0439 \u043f\u043e\u0441\u0451\u043b\u043e\u043a \u0417\u0430\u0440\u0435\u0447\u044c\u0435, \u0417\u0430\u0440\u0435\u0447\u043d\u0430\u044f \u0443\u043b\u0438\u0446\u0430, 2", "addr:country": "Russia", "phone": "74955043487|74952230200", "website": "https://av.ru/", "brand": "Azbuka Vkusa"}, "geometry": {"type": "Point", "coordinates": [37.394791, 55.688489]}},
{"type": "Feature", "id": "4r2WHwnL9xXp_jjoUJLNr8iWa3U=", "properties": {"ref": "AB017", "@spider": "av_dac", "addr:full": "\u041c\u043e\u0441\u043a\u0432\u0430, \u0417\u0435\u043b\u0435\u043d\u043e\u0433\u0440\u0430\u0434, \u043a514\u04411", "addr:country": "Russia", "phone": "74955043487|74952230200", "website": "https://av.ru/", "brand": "Azbuka Vkusa"}, "geometry": {"type": "Point", "coordinates": [37.236738, 55.99755]}},
{"type": "Feature", "id": "AlSnR0xf0SsM0gYVkVJYX4mIno8=", "properties": {"ref": "\u0410\u0412094", "@spider": "av_dac", "addr:full": "\u041c\u043e\u0441\u043a\u0432\u0430, \u0443\u043b\u0438\u0446\u0430 \u0418\u0441\u0430\u043a\u043e\u0432\u0441\u043a\u043e\u0433\u043e, 33", "addr:country": "Russia", "phone": "74955043487|74952230200", "website": "https://av.ru/", "brand": "Azbuka Vkusa"}, "geometry": {"type": "Point", "coordinates": [37.419132, 55.804888]}},
{"type": "Feature", "id": "0u5rWd3S3Zskz60I7PD485CIuVg=", "properties": {"ref": "AB019", "@spider": "av_dac", "addr:full": "\u041c\u043e\u0441\u043a\u0432\u0430, \u043f\u043e\u0441\u0435\u043b\u0435\u043d\u0438\u0435 \u0421\u043e\u0441\u0435\u043d\u0441\u043a\u043e\u0435, \u041a\u0430\u043b\u0443\u0436\u0441\u043a\u043e\u0435 \u0448\u043e\u0441\u0441\u0435, 1-\u0439 \u043a\u0438\u043b\u043e\u043c\u0435\u0442\u0440, 8\u0411", "addr:country": "Russia", "phone": "74955043487|74952230200", "website": "https://av.ru/", "brand": "Azbuka Vkusa"}, "geometry": {"type": "Point", "coordinates": [37.482895, 55.601757]}},
{"type": "Feature", "id": "T-k5w8-Z_rZlL0tdr4avuACz714=", "properties": {"ref": "AB020", "@spider": "av_dac", "addr:full": "\u041c\u043e\u0441\u043a\u0432\u0430, \u041a\u0430\u0448\u0438\u0440\u0441\u043a\u043e\u0435 \u0448\u043e\u0441\u0441\u0435, 78\u043a1\u0410", "addr:country": "Russia", "phone": "74955043487|74952230200", "website": "https://av.ru/", "brand": "Azbuka Vkusa"}, "geometry": {"type": "Point", "coordinates": [37.682486, 55.641134]}},
{"type": "Feature", "id": "ixcqCyB8GI-Cuc29-7N9ZcUcsb0=", "properties": {"ref": "AB022", "@spider": "av_dac", "addr:full": "\u041c\u043e\u0441\u043a\u0432\u0430, \u041a\u043e\u043c\u0441\u043e\u043c\u043e\u043b\u044c\u0441\u043a\u0438\u0439 \u043f\u0440\u043e\u0441\u043f\u0435\u043a\u0442, 34", "addr:country": "Russia", "phone": "74955043487|74952230200", "website": "https://av.ru/", "brand": "Azbuka Vkusa"}, "geometry": {"type": "Point", "coordinates": [37.577651, 55.724569]}},
{"type": "Feature", "id": "yN02MaC7X9BDBW48yuQcRpipe0c=", "properties": {"ref": "\u0410\u0412129", "@spider": "av_dac", "addr:full": "\u041c\u043e\u0441\u043a\u0432\u0430, \u041a\u043e\u043c\u0441\u043e\u043c\u043e\u043b\u044c\u0441\u043a\u0438\u0439 \u043f\u0440\u043e\u0441\u043f\u0435\u043a\u0442, 34", "addr:country": "Russia", "phone": "74955043487|74952230200", "website": "https://av.ru/", "brand": "Azbuka Vkusa"}, "geometry": {"type": "Point", "coordinates": [37.577, 55.7241]}},
{"type": "Feature", "id": "iwBcuSJ7RgBYk-g-gI2utCCksus=", "properties": {"ref": "AB023", "@spider": "av_dac", "addr:full": "\u041c\u043e\u0441\u043a\u0432\u0430, \u041a\u043e\u043c\u0441\u043e\u043c\u043e\u043b\u044c\u0441\u043a\u0438\u0439 \u043f\u0440\u043e\u0441\u043f\u0435\u043a\u0442, 4", "addr:country": "Russia", "phone": "74955043487|74952230200", "website": "https://av.ru/", "brand": "Azbuka Vkusa"}, "geometry": {"type": "Point", "coordinates": [37.592385, 55.733117]}},
{"type": "Feature", "id": "kl1j1lG8SiNZKRZVOXnK7icrSa4=", "properties": {"ref": "AB024", "@spider": "av_dac", "addr:full": "\u041c\u043e\u0441\u043a\u043e\u0432\u0441\u043a\u0430\u044f \u043e\u0431\u043b\u0430\u0441\u0442\u044c, \u041a\u043e\u0440\u043e\u043b\u0451\u0432, \u043f\u0440\u043e\u0441\u043f\u0435\u043a\u0442 \u041a\u043e\u0441\u043c\u043e\u043d\u0430\u0432\u0442\u043e\u0432, 4\u0412", "addr:country": "Russia", "phone": "74955043487|74952230200", "website": "https://av.ru/", "brand": "Azbuka Vkusa"}, "geometry": {"type": "Point", "coordinates": [37.867866, 55.920457]}},
{"type": "Feature", "id": "IEjLL--4gVAPjCUWSFB6RA4N0Pg=", "properties": {"ref": "\u0410\u0412123", "@spider": "av_dac", "addr:full": "\u041c\u043e\u0441\u043a\u0432\u0430, \u0443\u043b\u0438\u0446\u0430 \u041a\u043e\u0441\u043c\u043e\u043d\u0430\u0432\u0442\u043e\u0432, 4", "addr:country": "Russia", "phone": "74955043487|74952230200", "website": "https://av.ru/", "brand": "Azbuka Vkusa"}, "geometry": {"type": "Point", "coordinates": [37.645801, 55.820981]}},
{"type": "Feature", "id": "A2ZgZOBCWhMRaWLpJ3G4PtmZXrY=", "properties": {"ref": "\u0410\u0412219", "@spider": "av_dac", "addr:full": "\u041c\u043e\u0441\u043a\u0432\u0430, \u043f\u043e\u0441\u0435\u043b\u0435\u043d\u0438\u0435 \u0421\u043e\u0441\u0435\u043d\u0441\u043a\u043e\u0435, \u0434\u0435\u0440\u0435\u0432\u043d\u044f \u0417\u0438\u043c\u0451\u043d\u043a\u0438, \u043a\u043e\u0442\u0442\u0435\u0434\u0436\u043d\u044b\u0439 \u043f\u043e\u0441\u0451\u043b\u043e\u043a \u0410\u043d\u0442\u043e\u043d\u043e\u0432\u043a\u0430, \u0421\u0430\u0434\u043e\u0432\u0430\u044f \u0443\u043b\u0438\u0446\u0430, 1\u043a1", "addr:country": "Russia", "phone": "74955043487|74952230200", "website": "https://av.ru/", "brand": "Azbuka Vkusa"}, "geometry": {"type": "Point", "coordinates": [37.392, 55.5731]}},
{"type": "Feature", "id": "73VoRD5gu3B7U6D4Xm5LVAdTDHA=", "properties": {"ref": "\u0410\u0412092", "@spider": "av_dac", "addr:full": "\u041c\u043e\u0441\u043a\u0432\u0430, \u0443\u043b\u0438\u0446\u0430 \u041a\u0440\u0430\u0441\u043d\u0430\u044f \u041f\u0440\u0435\u0441\u043d\u044f, 14", "addr:country": "Russia", "phone": "74955043487|74952230200", "website": "https://av.ru/", "brand": "Azbuka Vkusa"}, "geometry": {"type": "Point", "coordinates": [37.572199, 55.761701]}},
{"type": "Feature", "id": "UECD2xUtAy6wJ0H9NbwmC0YUXu8=", "properties": {"ref": "AB025", "@spider": "av_dac", "addr:full": "\u041c\u043e\u0441\u043a\u043e\u0432\u0441\u043a\u0430\u044f \u043e\u0431\u043b\u0430\u0441\u0442\u044c, \u041a\u0440\u0430\u0441\u043d\u043e\u0433\u043e\u0440\u0441\u043a, \u0443\u043b\u0438\u0446\u0430 \u041b\u0435\u043d\u0438\u043d\u0430, 35\u0410", "addr:country": "Russia", "phone": "74955043487|74952230200", "website": "https://av.ru/", "brand": "Azbuka Vkusa"}, "geometry": {"type": "Point", "coordinates": [37.307689, 55.82956]}},
{"type": "Feature", "id": "GNzLUuVLpkv6zD37us0VcUshT00=", "properties": {"ref": "\u0410\u0412128", "@spider": "av_dac", "addr:full": "\u041c\u043e\u0441\u043a\u0432\u0430, \u041a\u0443\u0442\u0443\u0437\u043e\u0432\u0441\u043a\u0438\u0439 \u043f\u0440\u043e\u0441\u043f\u0435\u043a\u0442, 18", "addr:country": "Russia", "phone": "74955043487|74952230200", "website": "https://av.ru/", "brand": "Azbuka Vkusa"}, "geometry": {"type": "Point", "coordinates": [37.552837, 55.746953]}},
{"type": "Feature", "id": "7yUg7fjaEtiQDjfj49FYzappDno=", "properties": {"ref": "ENO002", "@spider": "av_dac", "addr:full": "\u041c\u043e\u0441\u043a\u0432\u0430, \u041a\u0443\u0442\u0443\u0437\u043e\u0432\u0441\u043a\u0438\u0439 \u043f\u0440\u043e\u0441\u043f\u0435\u043a\u0442, 18", "addr:country": "Russia", "phone": "74955043487|74952230200", "website": "https://av.ru/", "brand": "Azbuka Vkusa"}, "geometry": {"type": "Point", "coordinates": [37.552184, 55.746785]}},
{"type": "Feature", "id": "wfhn_8LwiM2hyaTy8B-rKIr0grs=", "properties": {"ref": "AVDAILY018", "@spider": "av_dac", "addr:full": "\u041c\u043e\u0441\u043a\u0432\u0430, \u041a\u0443\u0442\u0443\u0437\u043e\u0432\u0441\u043a\u0438\u0439 \u043f\u0440\u043e\u0441\u043f\u0435\u043a\u0442, 36\u0410", "addr:country": "Russia", "phone": "74955043487|74952230200", "website": "https://av.ru/", "brand": "Azbuka Vkusa"}, "geometry": {"type": "Point", "coordinates": [37.526244, 55.738682]}},
{"type": "Feature", "id": "f5rILr5JX6DUrDAAZ5yXOzmHFZg=", "properties": {"ref": "AB026", "@spider": "av_dac", "addr:full": "\u041c\u043e\u0441\u043a\u0432\u0430, \u041a\u0443\u0442\u0443\u0437\u043e\u0432\u0441\u043a\u0438\u0439 \u043f\u0440\u043e\u0441\u043f\u0435\u043a\u0442, 8", "addr:country": "Russia", "phone": "74955043487|74952230200", "website": "https://av.ru/", "brand": "Azbuka Vkusa"}, "geometry": {"type": "Point", "coordinates": [37.560174, 55.749035]}},
{"type": "Feature", "id": "dwkI1XfmFwtGK150-hM_OwrSHLs=", "properties": {"ref": "\u041c\u0424\u041b\u041f36_\u0422", "@spider": "av_dac", "addr:full": "\u041c\u043e\u0441\u043a\u0432\u0430, \u041b\u0435\u043d\u0438\u043d\u0433\u0440\u0430\u0434\u0441\u043a\u0438\u0439 \u043f\u0440\u043e\u0441\u043f\u0435\u043a\u0442, 36\u044136", "addr:country": "Russia", "phone": "74955043487|74952230200", "website": "https://av.ru/", "brand": "Azbuka Vkusa"}, "geometry": {"type": "Point", "coordinates": [37.5688, 55.7889]}},
{"type": "Feature", "id": "oy3UNCZxvfHvl__nZju7xudoEuk=", "properties": {"ref": "AB027", "@spider": "av_dac", "addr:full": "\u041c\u043e\u0441\u043a\u0432\u0430, \u041b\u0435\u043d\u0438\u043d\u0433\u0440\u0430\u0434\u0441\u043a\u0438\u0439 \u043f\u0440\u043e\u0441\u043f\u0435\u043a\u0442, 52", "addr:country": "Russia", "phone": "74955043487|74952230200", "website": "https://av.ru/", "brand": "Azbuka Vkusa"}, "geometry": {"type": "Point", "coordinates": [37.541274, 55.797101]}},
{"type": "Feature", "id": "TFo9nr1MY5JFtk5SYLy4sY0IkTM=", "properties": {"ref": "AVDAILY020", "@spider": "av_dac", "addr:full": "\u041c\u043e\u0441\u043a\u0432\u0430, \u041b\u0435\u043d\u0438\u043d\u0433\u0440\u0430\u0434\u0441\u043a\u0438\u0439 \u043f\u0440\u043e\u0441\u043f\u0435\u043a\u0442, 69\u04411", "addr:country": "Russia", "phone": "74955043487|74952230200", "website": "https://av.ru/", "brand": "Azbuka Vkusa"}, "geometry": {"type": "Point", "coordinates": [37.518, 55.8033]}},
{"type": "Feature", "id": "L22R6aujVuToQGsaa9dNCu-VFw4=", "properties": {"ref": "\u0410\u0412132", "@spider": "av_dac", "addr:full": "\u041c\u043e\u0441\u043a\u0432\u0430, \u041b\u0435\u043d\u0438\u043d\u0433\u0440\u0430\u0434\u0441\u043a\u043e\u0435 \u0448\u043e\u0441\u0441\u0435, 112/1", "addr:country": "Russia", "phone": "74955043487|74952230200", "website": "https://av.ru/", "brand": "Azbuka Vkusa"}, "geometry": {"type": "Point", "coordinates": [37.465432, 55.863648]}},
{"type": "Feature", "id": "Vqqdsph8MVTqHKLRd6asCdurGCg=", "properties": {"ref": "AB028", "@spider": "av_dac", "addr:full": "\u041c\u043e\u0441\u043a\u0432\u0430, \u0412\u044b\u0431\u043e\u0440\u0433\u0441\u043a\u0430\u044f \u0443\u043b\u0438\u0446\u0430, 1", "addr:country": "Russia", "phone": "74955043487|74952230200", "website": "https://av.ru/", "brand": "Azbuka Vkusa"}, "geometry": {"type": "Point", "coordinates": [37.486709, 55.833346]}},
{"type": "Feature", "id": "6-o0lVrW5h8p-iyT4gw83lSydGI=", "properties": {"ref": "\u0410\u0412124", "@spider": "av_dac", "addr:full": "\u041c\u043e\u0441\u043a\u0432\u0430, \u041b\u0435\u043d\u0438\u043d\u0433\u0440\u0430\u0434\u0441\u043a\u043e\u0435 \u0448\u043e\u0441\u0441\u0435, 68", "addr:country": "Russia", "phone": "74955043487|74952230200", "website": "https://av.ru/", "brand": "Azbuka Vkusa"}, "geometry": {"type": "Point", "coordinates": [37.477595, 55.845602]}},
{"type": "Feature", "id": "NGaC_jWtB1SnG5wLxTGMHfI-alU=", "properties": {"ref": "ENO003", "@spider": "av_dac", "addr:full": "\u041c\u043e\u0441\u043a\u0432\u0430, \u041b\u0435\u043d\u0438\u043d\u0441\u043a\u0438\u0439 \u043f\u0440\u043e\u0441\u043f\u0435\u043a\u0442, 16", "addr:country": "Russia", "phone": "74955043487|74952230200", "website": "https://av.ru/", "brand": "Azbuka Vkusa"}, "geometry": {"type": "Point", "coordinates": [37.595187, 55.718396]}},
{"type": "Feature", "id": "al_lmHpjpLpGM--8knSBjrgOcjs=", "properties": {"ref": "AB029", "@spider": "av_dac", "addr:full": "\u041c\u043e\u0441\u043a\u0432\u0430, \u041b\u0435\u043d\u0438\u043d\u0441\u043a\u0438\u0439 \u043f\u0440\u043e\u0441\u043f\u0435\u043a\u0442, 21", "addr:country": "Russia", "phone": "74955043487|74952230200", "website": "https://av.ru/", "brand": "Azbuka Vkusa"}, "geometry": {"type": "Point", "coordinates": [37.596166, 55.718158]}},
{"type": "Feature", "id": "-I0vd-vKtFXmOIvqJfbp3FJkOSY=", "properties": {"ref": "AB030", "@spider": "av_dac", "addr:full": "\u041c\u043e\u0441\u043a\u0432\u0430, \u041b\u0435\u043d\u0438\u043d\u0441\u043a\u0438\u0439 \u043f\u0440\u043e\u0441\u043f\u0435\u043a\u0442, 34/1", "addr:country": "Russia", "phone": "74955043487|74952230200", "website": "https://av.ru/", "brand": "Azbuka Vkusa"}, "geometry": {"type": "Point", "coordinates": [37.578027, 55.707187]}},
{"type": "Feature", "id": "FGnV8uQAgXQVqmasgNGvbIWSGns=", "properties": {"ref": "AB031", "@spider": "av_dac", "addr:full": "\u041c\u043e\u0441\u043a\u0432\u0430, \u041b\u0435\u043d\u0438\u043d\u0441\u043a\u0438\u0439 \u043f\u0440\u043e\u0441\u043f\u0435\u043a\u0442, 54", "addr:country": "Russia", "phone": "74955043487|74952230200", "website": "https://av.ru/", "brand": "Azbuka Vkusa"}, "geometry": {"type": "Point", "coordinates": [37.560746, 55.697842]}},
{"type": "Feature", "id": "90VUquz1jvfRkj_R7VelV3Jweds=", "properties": {"ref": "AB032", "@spider": "av_dac", "addr:full": "\u041c\u043e\u0441\u043a\u0432\u0430, \u041b\u0435\u043d\u0438\u043d\u0441\u043a\u0438\u0439 \u043f\u0440\u043e\u0441\u043f\u0435\u043a\u0442, 64/2", "addr:country": "Russia", "phone": "74955043487|74952230200", "website": "https://av.ru/", "brand": "Azbuka Vkusa"}, "geometry": {"type": "Point", "coordinates": [37.551772, 55.692432]}},
{"type": "Feature", "id": "-qfI7khDRbsh5xgYCezzW7_r9w4=", "properties": {"ref": "\u0410\u0412143", "@spider": "av_dac", "addr:full": "\u041c\u043e\u0441\u043a\u0432\u0430, \u041b\u0435\u043d\u0438\u043d\u0441\u043a\u0438\u0439 \u043f\u0440\u043e\u0441\u043f\u0435\u043a\u0442, 77\u043a1", "addr:country": "Russia", "phone": "74955043487|74952230200", "website": "https://av.ru/", "brand": "Azbuka Vkusa"}, "geometry": {"type": "Point", "coordinates": [37.542583, 55.685521]}},
{"type": "Feature", "id": "Gk5yOVM6mXdBD-KrQc2Z8Yu9WFI=", "properties": {"ref": "AVDAILY009", "@spider": "av_dac", "addr:full": "\u041c\u043e\u0441\u043a\u0432\u0430, \u041b\u0435\u043d\u0438\u043d\u0441\u043a\u0438\u0439 \u043f\u0440\u043e\u0441\u043f\u0435\u043a\u0442, 82", "addr:country": "Russia", "phone": "74955043487|74952230200", "website": "https://av.ru/", "brand": "Azbuka Vkusa"}, "geometry": {"type": "Point", "coordinates": [37.5345, 55.681428]}},
{"type": "Feature", "id": "X4dy8aHHxvElWpcuzKiaq0sO07U=", "properties": {"ref": "AVDAILY002", "@spider": "av_dac", "addr:full": "\u041c\u043e\u0441\u043a\u0432\u0430, \u041b\u0435\u043d\u0438\u043d\u0441\u043a\u0438\u0439 \u043f\u0440\u043e\u0441\u043f\u0435\u043a\u0442, 91", "addr:country": "Russia", "phone": "74955043487|74952230200", "website": "https://av.ru/", "brand": "Azbuka Vkusa"}, "geometry": {"type": "Point", "coordinates": [37.529255, 55.676481]}},
{"type": "Feature", "id": "fYLUXXJRbfm9fOhKw54PLg_hbk4=", "properties": {"ref": "\u0410\u0412\u041b\u041196", "@spider": "av_dac", "addr:full": "\u041c\u043e\u0441\u043a\u0432\u0430, \u041b\u044e\u0431\u043b\u0438\u043d\u0441\u043a\u0430\u044f \u0443\u043b\u0438\u0446\u0430, 96", "addr:country": "Russia", "phone": "74955043487|74952230200", "website": "https://av.ru/", "brand": "Azbuka Vkusa"}, "geometry": {"type": "Point", "coordinates": [37.7396, 55.657]}},
{"type": "Feature", "id": "t4n90J1C3nED5JoV8IkbgGGemH4=", "properties": {"ref": "AB033", "@spider": "av_dac", "addr:full": "\u041c\u043e\u0441\u043a\u0432\u0430, \u041b\u044e\u0441\u0438\u043d\u043e\u0432\u0441\u043a\u0430\u044f \u0443\u043b\u0438\u0446\u0430, 60", "addr:country": "Russia", "phone": "74955043487|74952230200", "website": "https://av.ru/", "brand": "Azbuka Vkusa"}, "geometry": {"type": "Point", "coordinates": [37.62207, 55.718371]}},
{"type": "Feature", "id": "3fu00ai8QvZBUGCWfZd6x7h3r4s=", "properties": {"ref": "\u041c\u0424\u041b\u042f\u041b11_\u0422", "@spider": "av_dac", "addr:full": "\u041c\u043e\u0441\u043a\u0432\u0430, \u041b\u044f\u043b\u0438\u043d \u043f\u0435\u0440\u0435\u0443\u043b\u043e\u043a, 11-13/1\u04412", "addr:country": "Russia", "phone": "74955043487|74952230200", "website": "https://av.ru/", "brand": "Azbuka Vkusa"}, "geometry": {"type": "Point", "coordinates": [37.6526, 55.7584]}},
{"type": "Feature", "id": "fru6-zseAwAfl6DqHRUA_Fdooqs=", "properties": {"ref": "\u0410\u0412148", "@spider": "av_dac", "addr:full": "\u041c\u043e\u0441\u043a\u0432\u0430, \u0423\u0441\u0430\u0447\u0451\u0432\u0441\u043a\u0438\u0439 \u043f\u0435\u0440\u0435\u0443\u043b\u043e\u043a", "addr:country": "Russia", "phone": "74955043487|74952230200", "website": "https://av.ru/", "brand": "Azbuka Vkusa"}, "geometry": {"type": "Point", "coordinates": [37.566922, 55.727262]}},
{"type": "Feature", "id": "2yPRPobP-QetbeRwD8lNqCoaceg=", "properties": {"ref": "AB034", "@spider": "av_dac", "addr:full": "\u041c\u043e\u0441\u043a\u0432\u0430, \u043f\u0440\u043e\u0441\u043f\u0435\u043a\u0442 \u041c\u0430\u0440\u0448\u0430\u043b\u0430 \u0416\u0443\u043a\u043e\u0432\u0430, 41\u043a1", "addr:country": "Russia", "phone": "74955043487|74952230200", "website": "https://av.ru/", "brand": "Azbuka Vkusa"}, "geometry": {"type": "Point", "coordinates": [37.469889, 55.775593]}},
{"type": "Feature", "id": "w9NsgQ6-7N3zNMGr4AFR-oT29g4=", "properties": {"ref": "\u0410\u0412149", "@spider": "av_dac", "addr:full": "\u041c\u043e\u0441\u043a\u0432\u0430, \u0443\u043b\u0438\u0446\u0430 \u041c\u0430\u0440\u0448\u0430\u043b\u0430 \u0420\u044b\u0431\u0430\u043b\u043a\u043e, 2\u043a6", "addr:country": "Russia", "phone": "74955043487|74952230200", "website": "https://av.ru/", "brand": "Azbuka Vkusa"}, "geometry": {"type": "Point", "coordinates": [37.496265, 55.797339]}},
{"type": "Feature", "id": "rC7FRxKECyHKwFSaoHSq4Z8-szk=", "properties": {"ref": "\u0410\u0412160", "@spider": "av_dac", "addr:full": "\u041c\u043e\u0441\u043a\u0432\u0430, \u041c\u0438\u043d\u0441\u043a\u0430\u044f \u0443\u043b\u0438\u0446\u0430, 14\u043a1", "addr:country": "Russia", "phone": "74955043487|74952230200", "website": "https://av.ru/", "brand": "Azbuka Vkusa"}, "geometry": {"type": "Point", "coordinates": [37.485725, 55.737784]}},
{"type": "Feature", "id": "0TQVS42wVWNnOomCM8voN-IeHXM=", "properties": {"ref": "AB035", "@spider": "av_dac", "addr:full": "\u041c\u043e\u0441\u043a\u0432\u0430, \u041c\u0438\u0447\u0443\u0440\u0438\u043d\u0441\u043a\u0438\u0439 \u043f\u0440\u043e\u0441\u043f\u0435\u043a\u0442, 22\u043a1\u04412", "addr:country": "Russia", "phone": "74955043487|74952230200", "website": "https://av.ru/", "brand": "Azbuka Vkusa"}, "geometry": {"type": "Point", "coordinates": [37.503439, 55.700959]}},
{"type": "Feature", "id": "cWbeDH83-suFyydgEP87JiIIB-0=", "properties": {"ref": "AB036", "@spider": "av_dac", "addr:full": "\u041c\u043e\u0441\u043a\u0432\u0430, \u041c\u0438\u0447\u0443\u0440\u0438\u043d\u0441\u043a\u0438\u0439 \u043f\u0440\u043e\u0441\u043f\u0435\u043a\u0442, 58\u043a1", "addr:country": "Russia", "phone": "74955043487|74952230200", "website": "https://av.ru/", "brand": "Azbuka Vkusa"}, "geometry": {"type": "Point", "coordinates": [37.486566, 55.691266]}},
{"type": "Feature", "id": "RvMW39ITUckulDtxomeqP-TWHVQ=", "properties": {"ref": "\u0410\u0412213", "@spider": "av_dac", "addr:full": "\u041c\u043e\u0441\u043a\u0432\u0430, \u041c\u0438\u0447\u0443\u0440\u0438\u043d\u0441\u043a\u0438\u0439 \u043f\u0440\u043e\u0441\u043f\u0435\u043a\u0442, 3", "addr:country": "Russia", "phone": "74955043487|74952230200", "website": "https://av.ru/", "brand": "Azbuka Vkusa"}, "geometry": {"type": "Point", "coordinates": [37.5127, 55.7045]}},
{"type": "Feature", "id": "LW-RU6OiBBgaeuN6mtbKkTcnSok=", "properties": {"ref": "AB038", "@spider": "av_dac", "addr:full": "\u041c\u043e\u0441\u043a\u0432\u0430, \u041c\u043e\u0436\u0430\u0439\u0441\u043a\u043e\u0435 \u0448\u043e\u0441\u0441\u0435, 32", "addr:country": "Russia", "phone": "74955043487|74952230200", "website": "https://av.ru/", "brand": "Azbuka Vkusa"}, "geometry": {"type": "Point", "coordinates": [37.419112, 55.719792]}},
{"type": "Feature", "id": "XkdPWfbpFiqRXq6H8lwPP42FxGo=", "properties": {"ref": "\u041c\u0424\u041c\u041e\u0421\u042470_\u0422", "@spider": "av_dac", "addr:full": "\u041c\u043e\u0441\u043a\u0432\u0430, \u041c\u043e\u0441\u0444\u0438\u043b\u044c\u043c\u043e\u0432\u0441\u043a\u0430\u044f \u0443\u043b\u0438\u0446\u0430, \u043a7", "addr:country": "Russia", "phone": "74955043487|74952230200", "website": "https://av.ru/", "brand": "Azbuka Vkusa"}, "geometry": {"type": "Point", "coordinates": [37.5091, 55.7167]}},
{"type": "Feature", "id": "IBXxTSsVGQDcbIS88-COO0QM5lI=", "properties": {"ref": "\u0410\u0412113", "@spider": "av_dac", "addr:full": "\u041c\u043e\u0441\u043a\u0432\u0430, \u041c\u043e\u0441\u0444\u0438\u043b\u044c\u043c\u043e\u0432\u0441\u043a\u0430\u044f \u0443\u043b\u0438\u0446\u0430, 88\u043a2\u04414", "addr:country": "Russia", "phone": "74955043487|74952230200", "website": "https://av.ru/", "brand": "Azbuka Vkusa"}, "geometry": {"type": "Point", "coordinates": [37.49345, 55.704167]}},
{"type": "Feature", "id": "QCauWQtf0QCIciTOIuWiOxZc-e8=", "properties": {"ref": "AB039", "@spider": "av_dac", "addr:full": "\u041c\u043e\u0441\u043a\u043e\u0432\u0441\u043a\u0430\u044f \u043e\u0431\u043b\u0430\u0441\u0442\u044c, \u041c\u044b\u0442\u0438\u0449\u0438, \u041a\u043e\u043c\u043c\u0443\u043d\u0438\u0441\u0442\u0438\u0447\u0435\u0441\u043a\u0430\u044f \u0443\u043b\u0438\u0446\u0430, 10\u043a1", "addr:country": "Russia", "phone": "74955043487|74952230200", "website": "https://av.ru/", "brand": "Azbuka Vkusa"}, "geometry": {"type": "Point", "coordinates": [37.745123, 55.891928]}},
{"type": "Feature", "id": "8CQuddKBlwC3kep0iGN-aHcq6G0=", "properties": {"ref": "AB046", "@spider": "av_dac", "addr:full": "\u041c\u043e\u0441\u043a\u043e\u0432\u0441\u043a\u0430\u044f \u043e\u0431\u043b\u0430\u0441\u0442\u044c, \u0433\u043e\u0440\u043e\u0434\u0441\u043a\u043e\u0439 \u043e\u043a\u0440\u0443\u0433 \u041c\u044b\u0442\u0438\u0449\u0438, \u0434\u0435\u0440\u0435\u0432\u043d\u044f \u0411\u043e\u0440\u043e\u0434\u0438\u043d\u043e, \u041e\u0441\u0442\u0430\u0448\u043a\u043e\u0432\u0441\u043a\u043e\u0435 \u0448\u043e\u0441\u0441\u0435, 59", "addr:country": "Russia", "phone": "74955043487|74952230200", "website": "https://av.ru/", "brand": "Azbuka Vkusa"}, "geometry": {"type": "Point", "coordinates": [37.664471, 55.921723]}},
{"type": "Feature", "id": "9opUwkAsE_a_S_yZv_qLPqcI3GA=", "properties": {"ref": "\u0410\u0412141", "@spider": "av_dac", "addr:full": "\u041c\u043e\u0441\u043a\u0432\u0430, \u041c\u044b\u0442\u043d\u0430\u044f \u0443\u043b\u0438\u0446\u0430, 7\u04411", "addr:country": "Russia", "phone": "74955043487|74952230200", "website": "https://av.ru/", "brand": "Azbuka Vkusa"}, "geometry": {"type": "Point", "coordinates": [37.617467, 55.721957]}},
{"type": "Feature", "id": "SE3vo-ystbRgKyEUCTVAhi3wxrs=", "properties": {"ref": "\u0410\u0412150", "@spider": "av_dac", "addr:full": "\u041c\u043e\u0441\u043a\u0432\u0430, \u0443\u043b\u0438\u0446\u0430 \u041d\u0430\u0440\u043e\u0434\u043d\u043e\u0433\u043e \u041e\u043f\u043e\u043b\u0447\u0435\u043d\u0438\u044f, 46\u043a1", "addr:country": "Russia", "phone": "74955043487|74952230200", "website": "https://av.ru/", "brand": "Azbuka Vkusa"}, "geometry": {"type": "Point", "coordinates": [37.493403, 55.792974]}},
{"type": "Feature", "id": "GxeT9n5FK6Sq8nED7wnPay27-UA=", "properties": {"ref": "AB040", "@spider": "av_dac", "addr:full": "\u041c\u043e\u0441\u043a\u0432\u0430, \u041d\u0430\u0445\u0438\u043c\u043e\u0432\u0441\u043a\u0438\u0439 \u043f\u0440\u043e\u0441\u043f\u0435\u043a\u0442, 61", "addr:country": "Russia", "phone": "74955043487|74952230200", "website": "https://av.ru/", "brand": "Azbuka Vkusa"}, "geometry": {"type": "Point", "coordinates": [37.559868, 55.679164]}},
{"type": "Feature", "id": "QRCWG0wVADlzIQie5ESLFvqyTzE=", "properties": {"ref": "AB041", "@spider": "av_dac", "addr:full": "\u041c\u043e\u0441\u043a\u0432\u0430, \u041d\u0438\u0436\u0435\u0433\u043e\u0440\u043e\u0434\u0441\u043a\u0430\u044f \u0443\u043b\u0438\u0446\u0430, 16\u04411", "addr:country": "Russia", "phone": "74955043487|74952230200", "website": "https://av.ru/", "brand": "Azbuka Vkusa"}, "geometry": {"type": "Point", "coordinates": [37.683458, 55.737688]}},
{"type": "Feature", "id": "-19QdJKJNHmsfZ2zLVmBfvRzlrI=", "properties": {"ref": "AB042", "@spider": "av_dac", "addr:full": "\u041c\u043e\u0441\u043a\u0432\u0430, \u041d\u0438\u043a\u043e\u043b\u043e\u044f\u043c\u0441\u043a\u0438\u0439 \u043f\u0435\u0440\u0435\u0443\u043b\u043e\u043a, 2", "addr:country": "Russia", "phone": "74955043487|74952230200", "website": "https://av.ru/", "brand": "Azbuka Vkusa"}, "geometry": {"type": "Point", "coordinates": [37.662327, 55.749251]}},
{"type": "Feature", "id": "stC7qugyVKJ5GaTTnbPHcXSWnxM=", "properties": {"ref": "\u0410\u0412106", "@spider": "av_dac", "addr:full": "\u041c\u043e\u0441\u043a\u0432\u0430, \u041d\u0438\u043a\u043e\u043b\u044c\u0441\u043a\u0430\u044f \u0443\u043b\u0438\u0446\u0430, 10", "addr:country": "Russia", "phone": "74955043487|74952230200", "website": "https://av.ru/", "brand": "Azbuka Vkusa"}, "geometry": {"type": "Point", "coordinates": [37.624148, 55.758103]}},
{"type": "Feature", "id": "7GcfSex2inqHsBnj4CCxRLguIaA=", "properties": {"ref": "\u0410\u0412153", "@spider": "av_dac", "addr:full": "\u041c\u043e\u0441\u043a\u0432\u0430, \u041d\u043e\u0432\u0438\u043d\u0441\u043a\u0438\u0439 \u0431\u0443\u043b\u044c\u0432\u0430\u0440, 31", "addr:country": "Russia", "phone": "74955043487|74952230200", "website": "https://av.ru/", "brand": "Azbuka Vkusa"}, "geometry": {"type": "Point", "coordinates": [37.582342, 55.757649]}},
{"type": "Feature", "id": "plhPb4aqZuwGV0LZkw7yZq4XOwE=", "properties": {"ref": "AB043", "@spider": "av_dac", "addr:full": "\u041c\u043e\u0441\u043a\u0432\u0430, \u041d\u043e\u0432\u0438\u043d\u0441\u043a\u0438\u0439 \u0431\u0443\u043b\u044c\u0432\u0430\u0440, 8\u04412", "addr:country": "Russia", "phone": "74955043487|74952230200", "website": "https://av.ru/", "brand": "Azbuka Vkusa"}, "geometry": {"type": "Point", "coordinates": [37.583634, 55.751237]}},
{"type": "Feature", "id": "c8pLcfhMXQpVSXwoMLEEzn3ZMtk=", "properties": {"ref": "AVDAILY003", "@spider": "av_dac", "addr:full": "\u041c\u043e\u0441\u043a\u0432\u0430, \u041d\u043e\u0432\u043e\u043a\u0443\u0437\u043d\u0435\u0446\u043a\u0430\u044f \u0443\u043b\u0438\u0446\u0430, 1\u04413", "addr:country": "Russia", "phone": "74955043487|74952230200", "website": "https://av.ru/", "brand": "Azbuka Vkusa"}, "geometry": {"type": "Point", "coordinates": [37.629894, 55.740723]}},
{"type": "Feature", "id": "AqCNG4ixB9hEM4UKaNVtCdjtXso=", "properties": {"ref": "AB044", "@spider": "av_dac", "addr:full": "\u041c\u043e\u0441\u043a\u043e\u0432\u0441\u043a\u0430\u044f \u043e\u0431\u043b\u0430\u0441\u0442\u044c, \u0433\u043e\u0440\u043e\u0434\u0441\u043a\u043e\u0439 \u043e\u043a\u0440\u0443\u0433 \u041a\u0440\u0430\u0441\u043d\u043e\u0433\u043e\u0440\u0441\u043a, \u041d\u043e\u0432\u043e\u0440\u0438\u0436\u0441\u043a\u043e\u0435 \u0448\u043e\u0441\u0441\u0435, 7-\u0439 \u043a\u0438\u043b\u043e\u043c\u0435\u0442\u0440, \u04411", "addr:country": "Russia", "phone": "74955043487|74952230200", "website": "https://av.ru/", "brand": "Azbuka Vkusa"}, "geometry": {"type": "Point", "coordinates": [37.279606, 55.799535]}},
{"type": "Feature", "id": "88wn5BofHCXnHoJLQNSHLvIEAH8=", "properties": {"ref": "MAR003", "@spider": "av_dac", "addr:full": "\u041c\u043e\u0441\u043a\u043e\u0432\u0441\u043a\u0430\u044f \u043e\u0431\u043b\u0430\u0441\u0442\u044c, \u0433\u043e\u0440\u043e\u0434\u0441\u043a\u043e\u0439 \u043e\u043a\u0440\u0443\u0433 \u041a\u0440\u0430\u0441\u043d\u043e\u0433\u043e\u0440\u0441\u043a, \u041d\u043e\u0432\u043e\u0440\u0438\u0436\u0441\u043a\u043e\u0435 \u0448\u043e\u0441\u0441\u0435, 23-\u0439 \u043a\u0438\u043b\u043e\u043c\u0435\u0442\u0440, \u0432\u043b2\u04411", "addr:country": "Russia", "phone": "74955043487|74952230200", "website": "https://av.ru/", "brand": "Azbuka Vkusa"}, "geometry": {"type": "Point", "coordinates": [37.274495, 55.799276]}},
{"type": "Feature", "id": "BfTK8hAwVtwEhIcbjF51WRp8568=", "properties": {"ref": "\u0410\u0412161", "@spider": "av_dac", "addr:full": "\u041c\u043e\u0441\u043a\u0432\u0430, \u041d\u043e\u0432\u043e\u0447\u0435\u0440\u0451\u043c\u0443\u0448\u043a\u0438\u043d\u0441\u043a\u0430\u044f \u0443\u043b\u0438\u0446\u0430, 60\u043a2", "addr:country": "Russia", "phone": "74955043487|74952230200", "website": "https://av.ru/", "brand": "Azbuka Vkusa"}, "geometry": {"type": "Point", "coordinates": [37.558051, 55.665894]}},
{"type": "Feature", "id": "hZ4ULjflyM2STuiWVZ8ijhsRs34=", "properties": {"ref": "MAR002", "@spider": "av_dac", "addr:full": "\u041c\u043e\u0441\u043a\u043e\u0432\u0441\u043a\u0430\u044f \u043e\u0431\u043b\u0430\u0441\u0442\u044c, \u041e\u0434\u0438\u043d\u0446\u043e\u0432\u0441\u043a\u0438\u0439 \u0433\u043e\u0440\u043e\u0434\u0441\u043a\u043e\u0439 \u043e\u043a\u0440\u0443\u0433, 2-\u0439 \u041b\u043e\u0445\u0438\u043d\u0441\u043a\u0438\u0439 \u043f\u043e\u0441\u0451\u043b\u043e\u043a", "addr:country": "Russia", "phone": "74955043487|74952230200", "website": "https://av.ru/", "brand": "Azbuka Vkusa"}, "geometry": {"type": "Point", "coordinates": [37.30255, 55.690424]}},
{"type": "Feature", "id": "pzJV-bkQ7UNHhl9UNWfIPGe8JQU=", "properties": {"ref": "AB045", "@spider": "av_dac", "addr:full": "\u041c\u043e\u0441\u043a\u043e\u0432\u0441\u043a\u0430\u044f \u043e\u0431\u043b\u0430\u0441\u0442\u044c, \u041e\u0434\u0438\u043d\u0446\u043e\u0432\u043e, \u041c\u043e\u0436\u0430\u0439\u0441\u043a\u043e\u0435 \u0448\u043e\u0441\u0441\u0435, 133\u0410", "addr:country": "Russia", "phone": "74955043487|74952230200", "website": "https://av.ru/", "brand": "Azbuka Vkusa"}, "geometry": {"type": "Point", "coordinates": [37.29612, 55.684236]}},
{"type": "Feature", "id": "gmzti43wis-lQsEJ4wkAVRJ-iow=", "properties": {"ref": "\u0410\u0412136", "@spider": "av_dac", "addr:full": "\u041c\u043e\u0441\u043a\u0432\u0430, \u041e\u043b\u0438\u043c\u043f\u0438\u0439\u0441\u043a\u0438\u0439 \u043f\u0440\u043e\u0441\u043f\u0435\u043a\u0442, 30\u04411", "addr:country": "Russia", "phone": "74955043487|74952230200", "website": "https://av.ru/", "brand": "Azbuka Vkusa"}, "geometry": {"type": "Point", "coordinates": [37.622745, 55.791042]}},
{"type": "Feature", "id": "k_iK07KrjpJkQO28DtCRto3rt_8=", "properties": {"ref": "\u0410\u0412\u041e\u0421\u0415\u041d", "@spider": "av_dac", "addr:full": "\u041c\u043e\u0441\u043a\u0432\u0430, \u041e\u0441\u0435\u043d\u043d\u0438\u0439 \u0431\u0443\u043b\u044c\u0432\u0430\u0440, 8\u043a1", "addr:country": "Russia", "phone": "74955043487|74952230200", "website": "https://av.ru/", "brand": "Azbuka Vkusa"}, "geometry": {"type": "Point", "coordinates": [37.409122, 55.755318]}},
{"type": "Feature", "id": "Y9gw43kK-vU5q1DLaU06xTU4fqY=", "properties": {"ref": "\u0410\u0412144", "@spider": "av_dac", "addr:full": "\u041c\u043e\u0441\u043a\u0432\u0430, \u0443\u043b\u0438\u0446\u0430 \u041e\u0441\u0442\u043e\u0436\u0435\u043d\u043a\u0430, 10", "addr:country": "Russia", "phone": "74955043487|74952230200", "website": "https://av.ru/", "brand": "Azbuka Vkusa"}, "geometry": {"type": "Point", "coordinates": [37.5999, 55.7427]}},
{"type": "Feature", "id": "1hRiiTPVJ_RHJkfptKN2rSmxZBc=", "properties": {"ref": "\u041c\u0424\u041e\u0421\u042242_\u0422", "@spider": "av_dac", "addr:full": "\u041c\u043e\u0441\u043a\u0432\u0430, \u0443\u043b\u0438\u0446\u0430 \u041e\u0441\u0442\u043e\u0436\u0435\u043d\u043a\u0430, 42/2", "addr:country": "Russia", "phone": "74955043487|74952230200", "website": "https://av.ru/", "brand": "Azbuka Vkusa"}, "geometry": {"type": "Point", "coordinates": [37.5948, 55.7375]}},
{"type": "Feature", "id": "d7QbJp0qDwvA_4zGnCuPXF2N3lk=", "properties": {"ref": "AB047", "@spider": "av_dac", "addr:full": "\u041c\u043e\u0441\u043a\u0432\u0430, \u0443\u043b\u0438\u0446\u0430 \u041e\u0441\u0442\u0440\u043e\u0432\u0438\u0442\u044f\u043d\u043e\u0432\u0430, 2", "addr:country": "Russia", "phone": "74955043487|74952230200", "website": "https://av.ru/", "brand": "Azbuka Vkusa"}, "geometry": {"type": "Point", "coordinates": [37.486105, 55.646189]}},
{"type": "Feature", "id": "b3G0Uk5N82fOAf2SRduvkvEbIbk=", "properties": {"ref": "AB048", "@spider": "av_dac", "addr:full": "\u041c\u043e\u0441\u043a\u0432\u0430, \u0443\u043b\u0438\u0446\u0430 \u041f\u0435\u0442\u0440\u043e\u0432\u043a\u0430, 19", "addr:country": "Russia", "phone": "74955043487|74952230200", "website": "https://av.ru/", "brand": "Azbuka Vkusa"}, "geometry": {"type": "Point", "coordinates": [37.616061, 55.765272]}},
{"type": "Feature", "id": "k5laCwJGBPZ7srRW5ifTmluGosU=", "properties": {"ref": "AVDAILY021", "@spider": "av_dac", "addr:full": "\u041c\u043e\u0441\u043a\u0432\u0430, \u0443\u043b\u0438\u0446\u0430 \u041f\u043b\u044e\u0449\u0438\u0445\u0430, 44/2", "addr:country": "Russia", "phone": "74955043487|74952230200", "website": "https://av.ru/", "brand": "Azbuka Vkusa"}, "geometry": {"type": "Point", "coordinates": [37.575719, 55.739631]}},
{"type": "Feature", "id": "TrG6mIu4ffnjtP4gAnwteZxNJuk=", "properties": {"ref": "AVDAILY007", "@spider": "av_dac", "addr:full": "\u041c\u043e\u0441\u043a\u0432\u0430, \u0443\u043b\u0438\u0446\u0430 \u041f\u043e\u043a\u0440\u043e\u0432\u043a\u0430, 15/16\u04411", "addr:country": "Russia", "phone": "74955043487|74952230200", "website": "https://av.ru/", "brand": "Azbuka Vkusa"}, "geometry": {"type": "Point", "coordinates": [37.6447, 55.7594]}},
{"type": "Feature", "id": "eit4bRo0k9c4tNZsXa3PGnB_HuE=", "properties": {"ref": "AB049", "@spider": "av_dac", "addr:full": "\u041c\u043e\u0441\u043a\u0432\u0430, \u0443\u043b\u0438\u0446\u0430 \u041f\u043e\u043a\u0440\u044b\u0448\u043a\u0438\u043d\u0430, 4", "addr:country": "Russia", "phone": "74955043487|74952230200", "website": "https://av.ru/", "brand": "Azbuka Vkusa"}, "geometry": {"type": "Point", "coordinates": [37.48192, 55.664819]}},
{"type": "Feature", "id": "M0A0NRbt782e3PJSQv_RJqMjG5I=", "properties": {"ref": "\u0410\u0412134", "@spider": "av_dac", "addr:full": "\u041c\u043e\u0441\u043a\u0432\u0430, \u0443\u043b\u0438\u0446\u0430 \u041f\u043e\u043b\u0438\u043a\u0430\u0440\u043f\u043e\u0432\u0430, 17/2", "addr:country": "Russia", "phone": "74955043487|74952230200", "website": "https://av.ru/", "brand": "Azbuka Vkusa"}, "geometry": {"type": "Point", "coordinates": [37.549582, 55.777819]}},
{"type": "Feature", "id": "bdS7saez7ipoIkZOAzI0yOYfQYM=", "properties": {"ref": "AB016", "@spider": "av_dac", "addr:full": "\u041c\u043e\u0441\u043a\u043e\u0432\u0441\u043a\u0430\u044f \u043e\u0431\u043b\u0430\u0441\u0442\u044c, \u041e\u0434\u0438\u043d\u0446\u043e\u0432\u0441\u043a\u0438\u0439 \u0433\u043e\u0440\u043e\u0434\u0441\u043a\u043e\u0439 \u043e\u043a\u0440\u0443\u0433, \u0440\u0430\u0431\u043e\u0447\u0438\u0439 \u043f\u043e\u0441\u0451\u043b\u043e\u043a \u041d\u043e\u0432\u043e\u0438\u0432\u0430\u043d\u043e\u0432\u0441\u043a\u043e\u0435, \u0417\u0430\u043f\u0430\u0434\u043d\u0430\u044f \u0443\u043b\u0438\u0446\u0430, 12", "addr:country": "Russia", "phone": "74955043487|74952230200", "website": "https://av.ru/", "brand": "Azbuka Vkusa"}, "geometry": {"type": "Point", "coordinates": [37.361793, 55.708887]}},
{"type": "Feature", "id": "XrmEA-5NW6TFimc-gCmPDuP9Ci4=", "properties": {"ref": "\u0410\u0412\u041f\u0420\u041d-12", "@spider": "av_dac", "addr:full": "\u041c\u043e\u0441\u043a\u0432\u0430, \u041f\u0440\u0435\u0441\u043d\u0435\u043d\u0441\u043a\u0430\u044f \u043d\u0430\u0431\u0435\u0440\u0435\u0436\u043d\u0430\u044f, 12", "addr:country": "Russia", "phone": "74955043487|74952230200", "website": "https://av.ru/", "brand": "Azbuka Vkusa"}, "geometry": {"type": "Point", "coordinates": [37.537959, 55.749483]}},
{"type": "Feature", "id": "7GrlJK7axshgW7PxQIxENSthucM=", "properties": {"ref": "\u0410\u0412109", "@spider": "av_dac", "addr:full": "\u041c\u043e\u0441\u043a\u0432\u0430, \u0443\u043b\u0438\u0446\u0430 \u041f\u0440\u0435\u0447\u0438\u0441\u0442\u0435\u043d\u043a\u0430, 24/1", "addr:country": "Russia", "phone": "74955043487|74952230200", "website": "https://av.ru/", "brand": "Azbuka Vkusa"}, "geometry": {"type": "Point", "coordinates": [37.593542, 55.741698]}},
{"type": "Feature", "id": "BzegyukUu-KcWpwE9ouBVz_o4Yw=", "properties": {"ref": "AVDAILY015", "@spider": "av_dac", "addr:full": "\u041c\u043e\u0441\u043a\u0432\u0430, \u043f\u0440\u043e\u0435\u0437\u0434 \u0410\u044d\u0440\u043e\u043f\u043e\u0440\u0442\u0430, 8", "addr:country": "Russia", "phone": "74955043487|74952230200", "website": "https://av.ru/", "brand": "Azbuka Vkusa"}, "geometry": {"type": "Point", "coordinates": [37.522276, 55.797175]}},
{"type": "Feature", "id": "5ys07AcoSJzzjlR0Ht-H3R5xrrM=", "properties": {"ref": "AB050", "@spider": "av_dac", "addr:full": "\u041c\u043e\u0441\u043a\u0432\u0430, \u043f\u0440\u043e\u0441\u043f\u0435\u043a\u0442 \u0412\u0435\u0440\u043d\u0430\u0434\u0441\u043a\u043e\u0433\u043e, 14\u0410", "addr:country": "Russia", "phone": "74955043487|74952230200", "website": "https://av.ru/", "brand": "Azbuka Vkusa"}, "geometry": {"type": "Point", "coordinates": [37.507761, 55.677941]}},
{"type": "Feature", "id": "tCUXqqo8MJUvuN3NYtd9J_h37tE=", "properties": {"ref": "AVDAILY017", "@spider": "av_dac", "addr:full": "\u041c\u043e\u0441\u043a\u0432\u0430, \u043f\u0440\u043e\u0441\u043f\u0435\u043a\u0442 \u041c\u0438\u0440\u0430, 112\u0410", "addr:country": "Russia", "phone": "74955043487|74952230200", "website": "https://av.ru/", "brand": "Azbuka Vkusa"}, "geometry": {"type": "Point", "coordinates": [37.638057, 55.807695]}},
{"type": "Feature", "id": "30D7PO_qCSi4DFirxpDFk0sfllI=", "properties": {"ref": "AVDAILY010", "@spider": "av_dac", "addr:full": "\u041c\u043e\u0441\u043a\u0432\u0430, \u043f\u0440\u043e\u0441\u043f\u0435\u043a\u0442 \u041c\u0438\u0440\u0430, 49", "addr:country": "Russia", "phone": "74955043487|74952230200", "website": "https://av.ru/", "brand": "Azbuka Vkusa"}, "geometry": {"type": "Point", "coordinates": [37.634001, 55.783631]}},
{"type": "Feature", "id": "mhG6FyQF_7DcSbdYd7doRzKlSG0=", "properties": {"ref": "\u0410\u0412083", "@spider": "av_dac", "addr:full": "\u041c\u043e\u0441\u043a\u0432\u0430, \u043f\u0440\u043e\u0441\u043f\u0435\u043a\u0442 \u041c\u0438\u0440\u0430, 58", "addr:country": "Russia", "phone": "74955043487|74952230200", "website": "https://av.ru/", "brand": "Azbuka Vkusa"}, "geometry": {"type": "Point", "coordinates": [37.636025, 55.785665]}},
{"type": "Feature", "id": "63qw-uZi8DNzKoNZzKPdXpL9g-k=", "properties": {"ref": "AB052", "@spider": "av_dac", "addr:full": "\u041c\u043e\u0441\u043a\u0432\u0430, \u043f\u0440\u043e\u0441\u043f\u0435\u043a\u0442 \u041c\u0438\u0440\u0430, 97", "addr:country": "Russia", "phone": "74955043487|74952230200", "website": "https://av.ru/", "brand": "Azbuka Vkusa"}, "geometry": {"type": "Point", "coordinates": [37.636631, 55.809804]}},
{"type": "Feature", "id": "rkg2nsHi9VcuioUc0ydB5ju9POA=", "properties": {"ref": "AB058", "@spider": "av_dac", "addr:full": "\u041c\u043e\u0441\u043a\u0432\u0430, \u041f\u0440\u043e\u0442\u043e\u0447\u043d\u044b\u0439 \u043f\u0435\u0440\u0435\u0443\u043b\u043e\u043a, 11", "addr:country": "Russia", "phone": "74955043487|74952230200", "website": "https://av.ru/", "brand": "Azbuka Vkusa"}, "geometry": {"type": "Point", "coordinates": [37.578469, 55.750164]}},
{"type": "Feature", "id": "DLAYACkV895SL5Dgs0Xto5FglzM=", "properties": {"ref": "\u0410\u0412138", "@spider": "av_dac", "addr:full": "\u041c\u043e\u0441\u043a\u0432\u0430, \u041f\u0440\u043e\u0444\u0441\u043e\u044e\u0437\u043d\u0430\u044f \u0443\u043b\u0438\u0446\u0430, 104", "addr:country": "Russia", "phone": "74955043487|74952230200", "website": "https://av.ru/", "brand": "Azbuka Vkusa"}, "geometry": {"type": "Point", "coordinates": [37.524625, 55.642703]}},
{"type": "Feature", "id": "vk4twLi5UbTpIZ4NwKyvGHwgjvA=", "properties": {"ref": "\u0410\u0412114", "@spider": "av_dac", "addr:full": "\u041c\u043e\u0441\u043a\u0432\u0430, \u041f\u0440\u043e\u0444\u0441\u043e\u044e\u0437\u043d\u0430\u044f \u0443\u043b\u0438\u0446\u0430, 126\u043a2", "addr:country": "Russia", "phone": "74955043487|74952230200", "website": "https://av.ru/", "brand": "Azbuka Vkusa"}, "geometry": {"type": "Point", "coordinates": [37.517138, 55.631445]}},
{"type": "Feature", "id": "Wh0MMMbUSt1N7ckXrq2stvLhJuM=", "properties": {"ref": "AB055", "@spider": "av_dac", "addr:full": "\u041c\u043e\u0441\u043a\u0432\u0430, \u041f\u0440\u043e\u0444\u0441\u043e\u044e\u0437\u043d\u0430\u044f \u0443\u043b\u0438\u0446\u0430, 16/10", "addr:country": "Russia", "phone": "74955043487|74952230200", "website": "https://av.ru/", "brand": "Azbuka Vkusa"}, "geometry": {"type": "Point", "coordinates": [37.568964, 55.684199]}},
{"type": "Feature", "id": "mMrDnKQ3UI_VfMPU53vrBijMvb4=", "properties": {"ref": "AB054", "@spider": "av_dac", "addr:full": "\u041c\u043e\u0441\u043a\u0432\u0430, \u041f\u0440\u043e\u0444\u0441\u043e\u044e\u0437\u043d\u0430\u044f \u0443\u043b\u0438\u0446\u0430, 64/66", "addr:country": "Russia", "phone": "74955043487|74952230200", "website": "https://av.ru/", "brand": "Azbuka Vkusa"}, "geometry": {"type": "Point", "coordinates": [37.549069, 55.665975]}},
{"type": "Feature", "id": "y_d3r3NnftavRCh31MwFreHq7Q8=", "properties": {"ref": "\u0410\u0412107", "@spider": "av_dac", "addr:full": "\u041c\u043e\u0441\u043a\u0432\u0430, \u0443\u043b\u0438\u0446\u0430 \u041f\u044b\u0440\u044c\u0435\u0432\u0430, 8", "addr:country": "Russia", "phone": "74955043487|74952230200", "website": "https://av.ru/", "brand": "Azbuka Vkusa"}, "geometry": {"type": "Point", "coordinates": [37.527139, 55.726122]}},
{"type": "Feature", "id": "du-Eb4L77N51wC3Y0pjymwaOWK8=", "properties": {"ref": "AVDAILY011", "@spider": "av_dac", "addr:full": "\u041c\u043e\u0441\u043a\u0432\u0430, \u041f\u044f\u0442\u043d\u0438\u0446\u043a\u0430\u044f \u0443\u043b\u0438\u0446\u0430, 13", "addr:country": "Russia", "phone": "74955043487|74952230200", "website": "https://av.ru/", "brand": "Azbuka Vkusa"}, "geometry": {"type": "Point", "coordinates": [37.628215, 55.743764]}},
{"type": "Feature", "id": "N3toX7VRwL0cZbSGNiVR8TCnYuY=", "properties": {"ref": "AB057", "@spider": "av_dac", "addr:full": "\u041c\u043e\u0441\u043a\u0432\u0430, \u041f\u044f\u0442\u043d\u0438\u0446\u043a\u043e\u0435 \u0448\u043e\u0441\u0441\u0435, 14", "addr:country": "Russia", "phone": "74955043487|74952230200", "website": "https://av.ru/", "brand": "Azbuka Vkusa"}, "geometry": {"type": "Point", "coordinates": [37.385898, 55.841487]}},
{"type": "Feature", "id": "_6QACoeI9JDDfqGPNv28-F0j5dE=", "properties": {"ref": "AB056", "@spider": "av_dac", "addr:full": "\u041c\u043e\u0441\u043a\u043e\u0432\u0441\u043a\u0430\u044f \u043e\u0431\u043b\u0430\u0441\u0442\u044c, \u041f\u044f\u0442\u043d\u0438\u0446\u043a\u043e\u0435 \u0448\u043e\u0441\u0441\u0435, \u0432\u043b8", "addr:country": "Russia", "phone": "74955043487|74952230200", "website": "https://av.ru/", "brand": "Azbuka Vkusa"}, "geometry": {"type": "Point", "coordinates": [37.300861, 55.890277]}},
{"type": "Feature", "id": "L4civpvcDi7ELkZMavOJIIvDJmI=", "properties": {"ref": "MAR006", "@spider": "av_dac", "addr:full": "\u041c\u043e\u0441\u043a\u043e\u0432\u0441\u043a\u0430\u044f \u043e\u0431\u043b\u0430\u0441\u0442\u044c, \u0420\u0430\u043c\u0435\u043d\u0441\u043a\u043e\u0435, \u0443\u043b\u0438\u0446\u0430 \u041c\u0438\u0445\u0430\u043b\u0435\u0432\u0438\u0447\u0430, 72\u0410", "addr:country": "Russia", "phone": "74955043487|74952230200", "website": "https://av.ru/", "brand": "Azbuka Vkusa"}, "geometry": {"type": "Point", "coordinates": [38.25049, 55.559294]}},
{"type": "Feature", "id": "ZohuL6h9BqxpEE0pG3R1_QM9ybM=", "properties": {"ref": "AB014", "@spider": "av_dac", "addr:full": "\u041c\u043e\u0441\u043a\u043e\u0432\u0441\u043a\u0430\u044f \u043e\u0431\u043b\u0430\u0441\u0442\u044c, \u041e\u0434\u0438\u043d\u0446\u043e\u0432\u0441\u043a\u0438\u0439 \u0433\u043e\u0440\u043e\u0434\u0441\u043a\u043e\u0439 \u043e\u043a\u0440\u0443\u0433, \u0434\u0435\u0440\u0435\u0432\u043d\u044f \u0416\u0443\u043a\u043e\u0432\u043a\u0430, 201", "addr:country": "Russia", "phone": "74955043487|74952230200", "website": "https://av.ru/", "brand": "Azbuka Vkusa"}, "geometry": {"type": "Point", "coordinates": [37.247161, 55.737345]}},
{"type": "Feature", "id": "H2BfMvUBGe2vuf-gU_CELHIKZqE=", "properties": {"ref": "AB163", "@spider": "av_dac", "addr:full": "\u041c\u043e\u0441\u043a\u0432\u0430, \u0420\u0443\u0431\u043b\u0451\u0432\u0441\u043a\u043e\u0435 \u0448\u043e\u0441\u0441\u0435, 42\u043a1", "addr:country": "Russia", "phone": "74955043487|74952230200", "website": "https://av.ru/", "brand": "Azbuka Vkusa"}, "geometry": {"type": "Point", "coordinates": [37.412454, 55.750691]}},
{"type": "Feature", "id": "L7cstv1cVKD4nEV-9uzh8I6oGck=", "properties": {"ref": "AB059", "@spider": "av_dac", "addr:full": "\u041c\u043e\u0441\u043a\u0432\u0430, \u0420\u0443\u0441\u0430\u043a\u043e\u0432\u0441\u043a\u0430\u044f \u0443\u043b\u0438\u0446\u0430, 22", "addr:country": "Russia", "phone": "74955043487|74952230200", "website": "https://av.ru/", "brand": "Azbuka Vkusa"}, "geometry": {"type": "Point", "coordinates": [37.67847, 55.786357]}},
{"type": "Feature", "id": "xzMYZwOGPCIMjeM365SJwmM2cHI=", "properties": {"ref": "\u0410\u0412137", "@spider": "av_dac", "addr:full": "\u041c\u043e\u0441\u043a\u0432\u0430, \u0421\u0430\u0434\u043e\u0432\u0430\u044f-\u0422\u0440\u0438\u0443\u043c\u0444\u0430\u043b\u044c\u043d\u0430\u044f \u0443\u043b\u0438\u0446\u0430", "addr:country": "Russia", "phone": "74955043487|74952230200", "website": "https://av.ru/", "brand": "Azbuka Vkusa"}, "geometry": {"type": "Point", "coordinates": [37.602678, 55.771843]}},
{"type": "Feature", "id": "nugE2lxTaMnUZh5xYCTZz6gkGHk=", "properties": {"ref": "AB061", "@spider": "av_dac", "addr:full": "\u041c\u043e\u0441\u043a\u0432\u0430, \u0421\u0430\u0434\u043e\u0432\u0430\u044f-\u0427\u0435\u0440\u043d\u043e\u0433\u0440\u044f\u0437\u0441\u043a\u0430\u044f \u0443\u043b\u0438\u0446\u0430, 13\u04411", "addr:country": "Russia", "phone": "74955043487|74952230200", "website": "https://av.ru/", "brand": "Azbuka Vkusa"}, "geometry": {"type": "Point", "coordinates": [37.656132, 55.764705]}},
{"type": "Feature", "id": "QjTip40-VNPPwZ4knNZsdVEVr-c=", "properties": {"ref": "AB062", "@spider": "av_dac", "addr:full": "\u041c\u043e\u0441\u043a\u0432\u0430, \u0443\u043b\u0438\u0446\u0430 \u0421\u0432\u043e\u0431\u043e\u0434\u044b, 42", "addr:country": "Russia", "phone": "74955043487|74952230200", "website": "https://av.ru/", "brand": "Azbuka Vkusa"}, "geometry": {"type": "Point", "coordinates": [37.455243, 55.845186]}},
{"type": "Feature", "id": "Zdnc_Tih7o9LWOQM6TxWh4ZVMk4=", "properties": {"ref": "\u0410\u0412130", "@spider": "av_dac", "addr:full": "\u041c\u043e\u0441\u043a\u0432\u0430, \u0443\u043b\u0438\u0446\u0430 \u0421\u0435\u0440\u0430\u0444\u0438\u043c\u043e\u0432\u0438\u0447\u0430, 2", "addr:country": "Russia", "phone": "74955043487|74952230200", "website": "https://av.ru/", "brand": "Azbuka Vkusa"}, "geometry": {"type": "Point", "coordinates": [37.613104, 55.744553]}},
{"type": "Feature", "id": "w_LYTofpRCUB8YW1R8ndaKDVHc4=", "properties": {"ref": "\u0410\u0412\u041c\u0410\u041a09", "@spider": "av_dac", "addr:full": "\u041c\u043e\u0441\u043a\u0432\u0430, \u0443\u043b\u0438\u0446\u0430 \u0421\u0435\u0440\u0433\u0435\u044f \u041c\u0430\u043a\u0435\u0435\u0432\u0430, 9\u043a1", "addr:country": "Russia", "phone": "74955043487|74952230200", "website": "https://av.ru/", "brand": "Azbuka Vkusa"}, "geometry": {"type": "Point", "coordinates": [37.5502, 55.7609]}},
{"type": "Feature", "id": "Pr3fm6vlW1rPxawqsUeE3MCEFm0=", "properties": {"ref": "\u0410\u0412131", "@spider": "av_dac", "addr:full": "\u041c\u043e\u0441\u043a\u0432\u0430, \u0443\u043b\u0438\u0446\u0430 \u0421\u0438\u043c\u043e\u043d\u043e\u0432\u0441\u043a\u0438\u0439 \u0412\u0430\u043b, 12\u043a2", "addr:country": "Russia", "phone": "74955043487|74952230200", "website": "https://av.ru/", "brand": "Azbuka Vkusa"}, "geometry": {"type": "Point", "coordinates": [37.662928, 55.72464]}},
{"type": "Feature", "id": "-Td0feY_E-5pGGtvbgVxG0TOYfM=", "properties": {"ref": "AB063", "@spider": "av_dac", "addr:full": "\u041c\u043e\u0441\u043a\u0432\u0430, \u0421\u0438\u043c\u0444\u0435\u0440\u043e\u043f\u043e\u043b\u044c\u0441\u043a\u0438\u0439 \u0431\u0443\u043b\u044c\u0432\u0430\u0440, 22\u043a3", "addr:country": "Russia", "phone": "74955043487|74952230200", "website": "https://av.ru/", "brand": "Azbuka Vkusa"}, "geometry": {"type": "Point", "coordinates": [37.604904, 55.64695]}},
{"type": "Feature", "id": "aMZIJUU4MwWIWlx_GxcDZ283w1g=", "properties": {"ref": "AVDAILY012", "@spider": "av_dac", "addr:full": "\u041c\u043e\u0441\u043a\u0432\u0430, \u0421\u043c\u043e\u043b\u0435\u043d\u0441\u043a\u0430\u044f-\u0421\u0435\u043d\u043d\u0430\u044f \u043f\u043b\u043e\u0449\u0430\u0434\u044c, 27\u04411\u0410", "addr:country": "Russia", "phone": "74955043487|74952230200", "website": "https://av.ru/", "brand": "Azbuka Vkusa"}, "geometry": {"type": "Point", "coordinates": [37.58253, 55.745283]}},
{"type": "Feature", "id": "5N7_nUQXQCDlYm0NprrLL551vyo=", "properties": {"ref": "\u0410\u0412101", "@spider": "av_dac", "addr:full": "\u041c\u043e\u0441\u043a\u0432\u0430, \u0443\u043b\u0438\u0446\u0430 \u0421\u0440\u0435\u0442\u0435\u043d\u043a\u0430, 1\u04411", "addr:country": "Russia", "phone": "74955043487|74952230200", "website": "https://av.ru/", "brand": "Azbuka Vkusa"}, "geometry": {"type": "Point", "coordinates": [37.630544, 55.766532]}},
{"type": "Feature", "id": "InVLCziMsGariRNnR4lBey-pIZg=", "properties": {"ref": "AB064", "@spider": "av_dac", "addr:full": "\u041c\u043e\u0441\u043a\u0432\u0430, \u0421\u0442\u0430\u0440\u0430\u044f \u0411\u0430\u0441\u043c\u0430\u043d\u043d\u0430\u044f \u0443\u043b\u0438\u0446\u0430, 28/2", "addr:country": "Russia", "phone": "74955043487|74952230200", "website": "https://av.ru/", "brand": "Azbuka Vkusa"}, "geometry": {"type": "Point", "coordinates": [37.6679, 55.7681]}},
{"type": "Feature", "id": "JAndSBHTNaLGAR0FWzCudIdSvSQ=", "properties": {"ref": "\u041c\u0424\u0421\u0422\u0420\u0411-06", "@spider": "av_dac", "addr:full": "\u041c\u043e\u0441\u043a\u0432\u0430, \u0421\u0442\u0440\u0430\u0441\u0442\u043d\u043e\u0439 \u0431\u0443\u043b\u044c\u0432\u0430\u0440, 6\u04411", "addr:country": "Russia", "phone": "74955043487|74952230200", "website": "https://av.ru/", "brand": "Azbuka Vkusa"}, "geometry": {"type": "Point", "coordinates": [37.6084, 55.7657]}},
{"type": "Feature", "id": "JifLy4B6vKDklrOk7ANB6kLSIco=", "properties": {"ref": "\u0410\u0412152", "@spider": "av_dac", "addr:full": "\u041c\u043e\u0441\u043a\u0432\u0430, \u0443\u043b\u0438\u0446\u0430 \u0421\u0442\u0440\u043e\u0438\u0442\u0435\u043b\u0435\u0439, 17\u043a1", "addr:country": "Russia", "phone": "74955043487|74952230200", "website": "https://av.ru/", "brand": "Azbuka Vkusa"}, "geometry": {"type": "Point", "coordinates": [37.532033, 55.688272]}},
{"type": "Feature", "id": "-1uUeuqxZtXrVZGIdXbDe3w_03E=", "properties": {"ref": "AB065", "@spider": "av_dac", "addr:full": "\u041c\u043e\u0441\u043a\u0432\u0430, \u0412\u043e\u0440\u043e\u043d\u0446\u043e\u0432\u0441\u043a\u0430\u044f \u0443\u043b\u0438\u0446\u0430, 4\u04413", "addr:country": "Russia", "phone": "74955043487|74952230200", "website": "https://av.ru/", "brand": "Azbuka Vkusa"}, "geometry": {"type": "Point", "coordinates": [37.653828, 55.740154]}},
{"type": "Feature", "id": "vMuWfeGHD7FdCAt5zkre53goF6Q=", "properties": {"ref": "AV000001", "@spider": "av_dac", "addr:full": "\u041c\u043e\u0441\u043a\u0432\u0430, \u0422\u0432\u0435\u0440\u0441\u043a\u0430\u044f \u0443\u043b\u0438\u0446\u0430, 27\u04412", "addr:country": "Russia", "phone": "74955043487|74952230200", "website": "https://av.ru/", "brand": "Azbuka Vkusa"}, "geometry": {"type": "Point", "coordinates": [37.597223, 55.76901]}},
{"type": "Feature", "id": "Nt4y9NRATi3e5sw49ka3aY-Ntyk=", "properties": {"ref": "AVDAILY013", "@spider": "av_dac", "addr:full": "\u041c\u043e\u0441\u043a\u0432\u0430, \u0422\u0432\u0435\u0440\u0441\u043a\u0430\u044f \u0443\u043b\u0438\u0446\u0430, 5/6", "addr:country": "Russia", "phone": "74955043487|74952230200", "website": "https://av.ru/", "brand": "Azbuka Vkusa"}, "geometry": {"type": "Point", "coordinates": [37.612312, 55.758148]}},
{"type": "Feature", "id": "2xjUewuNtwCG6IEJQoRXX85QYuY=", "properties": {"ref": "AB067", "@spider": "av_dac", "addr:full": "\u041c\u043e\u0441\u043a\u0432\u0430, \u041d\u0435\u0433\u043b\u0438\u043d\u043d\u0430\u044f \u0443\u043b\u0438\u0446\u0430, 20", "addr:country": "Russia", "phone": "74955043487|74952230200", "website": "https://av.ru/", "brand": "Azbuka Vkusa"}, "geometry": {"type": "Point", "coordinates": [37.621179, 55.766006]}},
{"type": "Feature", "id": "fNew2KIHtrdONhPHpXmbUza50I4=", "properties": {"ref": "\u0410\u0412\u0411\u0423\u042200_\u0422", "@spider": "av_dac", "addr:full": "\u041c\u043e\u0441\u043a\u0432\u0430, \u0443\u043b\u0438\u0446\u0430 \u0410\u043a\u0430\u0434\u0435\u043c\u0438\u043a\u0430 \u041f\u043e\u043d\u0442\u0440\u044f\u0433\u0438\u043d\u0430, 14", "addr:country": "Russia", "phone": "74955043487|74952230200", "website": "https://av.ru/", "brand": "Azbuka Vkusa"}, "geometry": {"type": "Point", "coordinates": [37.4982, 55.5332]}},
{"type": "Feature", "id": "VFM800YV86pE-6B4E_w63I9N0cw=", "properties": {"ref": "\u0410\u0412\u0423\u041401_\u0422", "@spider": "av_dac", "addr:full": "\u041c\u043e\u0441\u043a\u0432\u0430, \u0443\u043b\u0438\u0446\u0430 \u0423\u0434\u0430\u043b\u044c\u0446\u043e\u0432\u0430, 1", "addr:country": "Russia", "phone": "74955043487|74952230200", "website": "https://av.ru/", "brand": "Azbuka Vkusa"}, "geometry": {"type": "Point", "coordinates": [37.5173, 55.6715]}},
{"type": "Feature", "id": "P_FVmNk4-qoydwo64wRlvhWu2WY=", "properties": {"ref": "\u0410\u0412121", "@spider": "av_dac", "addr:full": "\u041c\u043e\u0441\u043a\u0432\u0430, \u0443\u043b\u0438\u0446\u0430 \u0423\u0434\u0430\u043b\u044c\u0446\u043e\u0432\u0430, 32\u04412", "addr:country": "Russia", "phone": "74955043487|74952230200", "website": "https://av.ru/", "brand": "Azbuka Vkusa"}, "geometry": {"type": "Point", "coordinates": [37.493185, 55.681675]}},
{"type": "Feature", "id": "NJIP31mvO_GEzg_IVRyl4HKey9I=", "properties": {"ref": "AB068", "@spider": "av_dac", "addr:full": "\u041c\u043e\u0441\u043a\u043e\u0432\u0441\u043a\u0430\u044f \u043e\u0431\u043b\u0430\u0441\u0442\u044c, \u0425\u0438\u043c\u043a\u0438, \u041b\u0435\u043d\u0438\u043d\u0433\u0440\u0430\u0434\u0441\u043a\u0430\u044f \u0443\u043b\u0438\u0446\u0430, 16\u0411", "addr:country": "Russia", "phone": "74955043487|74952230200", "website": "https://av.ru/", "brand": "Azbuka Vkusa"}, "geometry": {"type": "Point", "coordinates": [37.438521, 55.888014]}},
{"type": "Feature", "id": "4FSr8tN-y0ump1Il78YpjHSEXp8=", "properties": {"ref": "AB069", "@spider": "av_dac", "addr:full": "\u041c\u043e\u0441\u043a\u043e\u0432\u0441\u043a\u0430\u044f \u043e\u0431\u043b\u0430\u0441\u0442\u044c, \u0425\u0438\u043c\u043a\u0438, \u041c\u043e\u043b\u043e\u0434\u0451\u0436\u043d\u0430\u044f \u0443\u043b\u0438\u0446\u0430, 6", "addr:country": "Russia", "phone": "74955043487|74952230200", "website": "https://av.ru/", "brand": "Azbuka Vkusa"}, "geometry": {"type": "Point", "coordinates": [37.419682, 55.881172]}},
{"type": "Feature", "id": "53O3AQMIEh88WHzAhWSUiA9s5bo=", "properties": {"ref": "\u0410\u0412126", "@spider": "av_dac", "addr:full": "\u041c\u043e\u0441\u043a\u0432\u0430, \u0425\u043e\u0440\u043e\u0448\u0451\u0432\u0441\u043a\u043e\u0435 \u0448\u043e\u0441\u0441\u0435, 52", "addr:country": "Russia", "phone": "74955043487|74952230200", "website": "https://av.ru/", "brand": "Azbuka Vkusa"}, "geometry": {"type": "Point", "coordinates": [37.532555, 55.776673]}},
{"type": "Feature", "id": "tbGvgqr7IO_dVG5AwbcswyUCgL8=", "properties": {"ref": "AVDAILY008", "@spider": "av_dac", "addr:full": "\u041c\u043e\u0441\u043a\u0432\u0430, \u0426\u0432\u0435\u0442\u043d\u043e\u0439 \u0431\u0443\u043b\u044c\u0432\u0430\u0440, 27/24", "addr:country": "Russia", "phone": "74955043487|74952230200", "website": "https://av.ru/", "brand": "Azbuka Vkusa"}, "geometry": {"type": "Point", "coordinates": [37.620794, 55.77323]}},
{"type": "Feature", "id": "WzL_5DHOdZZ9wXYh3l30ki80Usc=", "properties": {"ref": "\u0410\u0412119", "@spider": "av_dac", "addr:full": "\u041c\u043e\u0441\u043a\u0432\u0430, 2-\u044f \u041f\u0435\u0441\u0447\u0430\u043d\u0430\u044f \u0443\u043b\u0438\u0446\u0430, 1/18", "addr:country": "Russia", "phone": "74955043487|74952230200", "website": "https://av.ru/", "brand": "Azbuka Vkusa"}, "geometry": {"type": "Point", "coordinates": [37.517898, 55.795977]}},
{"type": "Feature", "id": "hsMDdLa-8YqTuEw5AnBxEy32zME=", "properties": {"ref": "AB070", "@spider": "av_dac", "addr:full": "\u041c\u043e\u0441\u043a\u0432\u0430, \u0443\u043b\u0438\u0446\u0430 \u0427\u0430\u044f\u043d\u043e\u0432\u0430, 14", "addr:country": "Russia", "phone": "74955043487|74952230200", "website": "https://av.ru/", "brand": "Azbuka Vkusa"}, "geometry": {"type": "Point", "coordinates": [37.59625, 55.776239]}},
{"type": "Feature", "id": "bo14TsCj7nv-L2al7zSL1p8QAZI=", "properties": {"ref": "\u0410\u0412139", "@spider": "av_dac", "addr:full": "\u041c\u043e\u0441\u043a\u0432\u0430, \u0428\u043c\u0438\u0442\u043e\u0432\u0441\u043a\u0438\u0439 \u043f\u0440\u043e\u0435\u0437\u0434, 10/7", "addr:country": "Russia", "phone": "74955043487|74952230200", "website": "https://av.ru/", "brand": "Azbuka Vkusa"}, "geometry": {"type": "Point", "coordinates": [37.552745, 55.758701]}},
{"type": "Feature", "id": "SsWsbKIq_16d6X0hMuXgYWiHIpA=", "properties": {"ref": "\u0410\u0412118", "@spider": "av_dac", "addr:full": "\u041c\u043e\u0441\u043a\u0432\u0430, \u0429\u0451\u043b\u043a\u043e\u0432\u0441\u043a\u043e\u0435 \u0448\u043e\u0441\u0441\u0435, 8", "addr:country": "Russia", "phone": "74955043487|74952230200", "website": "https://av.ru/", "brand": "Azbuka Vkusa"}, "geometry": {"type": "Point", "coordinates": [37.761256, 55.804436]}},
{"type": "Feature", "id": "Fg0tl3Vdfl0OANcXcr3ugMye8OA=", "properties": {"ref": "AB071", "@spider": "av_dac", "addr:full": "\u041c\u043e\u0441\u043a\u0432\u0430, \u042f\u0440\u043e\u0441\u043b\u0430\u0432\u0441\u043a\u043e\u0435 \u0448\u043e\u0441\u0441\u0435, 18\u043a2\u04412", "addr:country": "Russia", "phone": "74955043487|74952230200", "website": "https://av.ru/", "brand": "Azbuka Vkusa"}, "geometry": {"type": "Point", "coordinates": [37.683537, 55.85506]}},
{"type": "Feature", "id": "Tu1QLLZd3TnfaZYBKqLtuZZqpc4=", "properties": {"ref": "\u0410\u0412116", "@spider": "av_dac", "addr:full": "\u041c\u043e\u0441\u043a\u0432\u0430, \u042f\u0440\u0446\u0435\u0432\u0441\u043a\u0430\u044f \u0443\u043b\u0438\u0446\u0430, 24\u043a1", "addr:country": "Russia", "phone": "74955043487|74952230200", "website": "https://av.ru/", "brand": "Azbuka Vkusa"}, "geometry": {"type": "Point", "coordinates": [37.414364, 55.739129]}}]}