{"type":"FeatureCollection","features":[{"type": "Feature", "id": "lj5yIvLTBDkeDuhYgBDTgnbUAXE=", "properties": {"ref": "84-122", "@spider": "billa_sk_dac", "addr:full": "Slovakia,Bratislavsk\u00fd kraj,Bratislava,N\u00e1mestie Snp 7", "addr:street": "N\u00e1mestie Snp 7", "addr:city": "Bratislava", "addr:state": "Bratislavsk\u00fd kraj", "addr:postcode": "811 06", "addr:country": "Slovakia", "name": "BRATISLAVA - MAXX", "phone": "0917, 971122", "website": "https://www.billa.sk/", "opening_hours": ["Po - So: 7:00 - 22:00", "Ne: 8:00 - 21:00"], "brand": "BILLA"}, "geometry": {"type": "Point", "coordinates": [17.11019, 48.146144]}},
{"type": "Feature", "id": "vPlt1xczALf_NKb3FBUannpcMO0=", "properties": {"ref": "84-115", "@spider": "billa_sk_dac", "addr:full": "Slovakia,Bratislavsk\u00fd kraj,Bratislava,Hod\u017eovo N\u00e1m. 4", "addr:street": "Hod\u017eovo N\u00e1m. 4", "addr:city": "Bratislava", "addr:state": "Bratislavsk\u00fd kraj", "addr:postcode": "811 06", "addr:country": "Slovakia", "name": "BRATISLAVA - TATRACENTRUM", "phone": "0911, 320115", "website": "https://www.billa.sk/", "opening_hours": ["Po - So: 7:00 - 22:00", "Ne: 8:00 - 20:00"], "brand": "BILLA"}, "geometry": {"type": "Point", "coordinates": [17.109465, 48.1487]}},
{"type": "Feature", "id": "N7zSb9_pWqYrJJrOskfCBDcjtSk=", "properties": {"ref": "84-125", "@spider": "billa_sk_dac", "addr:full": "Slovakia,Bratislavsk\u00fd kraj,Bratislava,Mostov\u00e1 2-Carlton", "addr:street": "Mostov\u00e1 2-Carlton", "addr:city": "Bratislava", "addr:state": "Bratislavsk\u00fd kraj", "addr:postcode": "811 02", "addr:country": "Slovakia", "name": "BRATISLAVA CARLTON", "phone": "0911, 697725", "website": "https://www.billa.sk/", "opening_hours": ["Po - So: 7:00 - 21:00", "Ne: 8:00 - 21:00"], "brand": "BILLA"}, "geometry": {"type": "Point", "coordinates": [17.1095198, 48.14149]}},
{"type": "Feature", "id": "FFWAfe4ALhkISNXbukkzdry9KZo=", "properties": {"ref": "84-120", "@spider": "billa_sk_dac", "addr:full": "Slovakia,Bratislavsk\u00fd kraj,Bratislava,Pribinova 1/B", "addr:street": "Pribinova 1/B", "addr:city": "Bratislava", "addr:state": "Bratislavsk\u00fd kraj", "addr:postcode": "811 09", "addr:country": "Slovakia", "name": "BRATISLAVA EUROVEA", "phone": "0911, 790147", "website": "https://www.billa.sk/", "opening_hours": ["Po - So: 7:00 - 22:00", "Ne: 7:00 - 22:00"], "brand": "BILLA"}, "geometry": {"type": "Point", "coordinates": [17.11953, 48.140635]}},
{"type": "Feature", "id": "bBiqLry543p4EEgdswl_OCJwRtM=", "properties": {"ref": "84-143", "@spider": "billa_sk_dac", "addr:full": "Slovakia,Bratislavsk\u00fd kraj,Bratislava,M\u00fdtna 46", "addr:street": "M\u00fdtna 46", "addr:city": "Bratislava", "addr:state": "Bratislavsk\u00fd kraj", "addr:postcode": "811 07", "addr:country": "Slovakia", "name": "BRATISLAVA BLUMENT\u00c1L", "phone": "0910, 836604", "website": "https://www.billa.sk/", "opening_hours": ["Po-So: 7:00-21:00", "Ne: 8:00-20:00"], "brand": "BILLA"}, "geometry": {"type": "Point", "coordinates": [17.11851, 48.15634]}},
{"type": "Feature", "id": "I6jltjmmSVjLCnrb7tTE8mjRI4g=", "properties": {"ref": "84-130", "@spider": "billa_sk_dac", "addr:full": "Slovakia,Bratislavsk\u00fd kraj,Bratislava,Karad\u017ei\u010dova 14", "addr:street": "Karad\u017ei\u010dova 14", "addr:city": "Bratislava", "addr:state": "Bratislavsk\u00fd kraj", "addr:postcode": "811 08", "addr:country": "Slovakia", "name": "BRATISLAVA - STAR\u00c9 MESTO", "phone": "0911, 489057", "website": "https://www.billa.sk/", "opening_hours": ["Po - So: 7:00 - 20:00", "Ne: 8:00 - 18:00"], "brand": "BILLA"}, "geometry": {"type": "Point", "coordinates": [17.1258801, 48.1503817]}},
{"type": "Feature", "id": "FP6lBwg8ybGtowszkhijiO6k6qM=", "properties": {"ref": "84-113", "@spider": "billa_sk_dac", "addr:full": "Slovakia,Bratislavsk\u00fd kraj,Bratislava,Nobelovo N\u00e1mestie 1", "addr:street": "Nobelovo N\u00e1mestie 1", "addr:city": "Bratislava", "addr:state": "Bratislavsk\u00fd kraj", "addr:postcode": "851 01", "addr:country": "Slovakia", "name": "BA,NOBELOVO NAM.-DELVITA", "phone": "0911, 320113", "website": "https://www.billa.sk/", "opening_hours": ["Po - So: 7:00 - 22:00", "Ne: 8:00 - 21:00"], "brand": "BILLA"}, "geometry": {"type": "Point", "coordinates": [17.1001424, 48.130315]}},
{"type": "Feature", "id": "u3MYdWdr49TNRM9nz6BbUaTbE7I=", "properties": {"ref": "84-108", "@spider": "billa_sk_dac", "addr:full": "Slovakia,Bratislavsk\u00fd kraj,Bratislava,Muchovo N\u00e1mestie 4/3705", "addr:street": "Muchovo N\u00e1mestie 4/3705", "addr:city": "Bratislava", "addr:state": "Bratislavsk\u00fd kraj", "addr:postcode": "851 01", "addr:country": "Slovakia", "name": "BRATISLAVA - PETR\u017dALKA", "phone": "0903, 479108", "website": "https://www.billa.sk/", "opening_hours": ["Po - So: 7:00 - 22:00", "Ne: 8:00 - 21:00"], "brand": "BILLA"}, "geometry": {"type": "Point", "coordinates": [17.115074, 48.1286687]}},
{"type": "Feature", "id": "GzSmL8AW6eKiejPhWzPeslWhw_I=", "properties": {"ref": "84-127", "@spider": "billa_sk_dac", "addr:full": "Slovakia,Bratislavsk\u00fd kraj,Bratislava,Metodova 6-Central", "addr:street": "Metodova 6-Central", "addr:city": "Bratislava", "addr:state": "Bratislavsk\u00fd kraj", "addr:postcode": "821 08", "addr:country": "Slovakia", "name": "BRATISLAVA CENTRAL", "phone": "0911, 442167", "website": "https://www.billa.sk/", "opening_hours": ["Po - So: 7:00 - 21:00", "Ne: 8:00 - 21:00"], "brand": "BILLA"}, "geometry": {"type": "Point", "coordinates": [17.1294581, 48.1572391]}},
{"type": "Feature", "id": "TOOm0JrEBVkUJwICL_aIjHBGnkk=", "properties": {"ref": "84-121", "@spider": "billa_sk_dac", "addr:full": "Slovakia,Bratislavsk\u00fd kraj,Bratislava,Mlynsk\u00e9 Nivy 45", "addr:street": "Mlynsk\u00e9 Nivy 45", "addr:city": "Bratislava", "addr:state": "Bratislavsk\u00fd kraj", "addr:postcode": "821 09", "addr:country": "Slovakia", "name": "BRATISLAVA - APOLLO", "phone": "0911, 672039", "website": "https://www.billa.sk/", "opening_hours": ["Po - Pi: 6:30 - 20:00, So: 7:00 - 15:00", "Ne: zatvoren\u00e9"], "brand": "BILLA"}, "geometry": {"type": "Point", "coordinates": [17.139127, 48.145164]}},
{"type": "Feature", "id": "4VGDml0jSf766ZS_GTCMnebUF_I=", "properties": {"ref": "84-135", "@spider": "billa_sk_dac", "addr:full": "Slovakia,Bratislavsk\u00fd kraj,Bratislava,N\u00e1mestie Hrani\u010diarov 3964/6", "addr:street": "N\u00e1mestie Hrani\u010diarov 3964/6", "addr:city": "Bratislava", "addr:state": "Bratislavsk\u00fd kraj", "addr:postcode": "851 03", "addr:country": "Slovakia", "name": "BRATISLAVA - PETR\u017dALKA", "phone": "0905, 069135", "website": "https://www.billa.sk/", "opening_hours": ["Po - So:7:00 - 22:00", "Ne:8:00 - 21:00"], "brand": "BILLA"}, "geometry": {"type": "Point", "coordinates": [17.115258, 48.122379]}},
{"type": "Feature", "id": "-rwRKAuw46XVPw_Ir2U43kd4kfs=", "properties": {"ref": "84-112", "@spider": "billa_sk_dac", "addr:full": "Slovakia,Bratislavsk\u00fd kraj,Bratislava,Z\u00e1hradn\u00edcka 95", "addr:street": "Z\u00e1hradn\u00edcka 95", "addr:city": "Bratislava", "addr:state": "Bratislavsk\u00fd kraj", "addr:postcode": "811 07", "addr:country": "Slovakia", "name": "BRATISLAVA - RU\u017dINOV", "phone": "0911, 321112", "website": "https://www.billa.sk/", "opening_hours": ["Po - Pi: 7:00 - 21:00", "So: 7:00 - 19:00", "Ne: 8:00 - 17:00"], "brand": "BILLA"}, "geometry": {"type": "Point", "coordinates": [17.1402234, 48.1559519]}},
{"type": "Feature", "id": "J7tAP7IALK0LSHeLEs6rDSlNrBU=", "properties": {"ref": "84-104", "@spider": "billa_sk_dac", "addr:full": "Slovakia,Bratislavsk\u00fd kraj,Bratislava,Bajkalsk\u00e1 19/A", "addr:street": "Bajkalsk\u00e1 19/A", "addr:city": "Bratislava", "addr:state": "Bratislavsk\u00fd kraj", "addr:postcode": "821 02", "addr:country": "Slovakia", "name": "BRATISLAVA - CENTR\u00c1LA", "phone": "0903, 802104", "website": "https://www.billa.sk/", "opening_hours": ["Po - So: 6:30 - 22:00", "Ne: 8:00 - 21:00"], "brand": "BILLA"}, "geometry": {"type": "Point", "coordinates": [17.143856, 48.159496]}},
{"type": "Feature", "id": "Cjg4cJ7BxEzS-uui8EtwEPl2yK8=", "properties": {"ref": "84-118", "@spider": "billa_sk_dac", "addr:full": "Slovakia,Bratislavsk\u00fd kraj,Bratislava,Star\u00e9 Grunty 14-Cubicon", "addr:street": "Star\u00e9 Grunty 14-Cubicon", "addr:city": "Bratislava", "addr:state": "Bratislavsk\u00fd kraj", "addr:postcode": "841 04", "addr:country": "Slovakia", "name": "BRATISLAVA - CUBICON", "phone": "0903, 223584", "website": "https://www.billa.sk/", "opening_hours": ["Po - So: 8:00 - 22:00", "Ne: 8:00 - 21:00"], "brand": "BILLA"}, "geometry": {"type": "Point", "coordinates": [17.069018, 48.158138]}},
{"type": "Feature", "id": "DXsF6p4UqsgBfWWOZcZsrcwoxaM=", "properties": {"ref": "84-126", "@spider": "billa_sk_dac", "addr:full": "Slovakia,Bratislavsk\u00fd kraj,Bratislava,Ra\u010dianska 40", "addr:street": "Ra\u010dianska 40", "addr:city": "Bratislava", "addr:state": "Bratislavsk\u00fd kraj", "addr:postcode": "831 02", "addr:country": "Slovakia", "name": "BRATISLAVA - NOV\u00c9 MESTO", "phone": "0911, 036470", "website": "https://www.billa.sk/", "opening_hours": ["Po - So: 7:00 - 22:00", "Ne: 8:00 - 21:00"], "brand": "BILLA"}, "geometry": {"type": "Point", "coordinates": [17.1275286, 48.1707632]}},
{"type": "Feature", "id": "7k7V6Oa_Zj8O9be_4QITns5FzCw=", "properties": {"ref": "84-106", "@spider": "billa_sk_dac", "addr:full": "Slovakia,Bratislavsk\u00fd kraj,Bratislava,Segnerova 4", "addr:street": "Segnerova 4", "addr:city": "Bratislava", "addr:state": "Bratislavsk\u00fd kraj", "addr:postcode": "841 02", "addr:country": "Slovakia", "name": "BRATISLAVA - KARLOVA VES", "phone": "0903, 483106", "website": "https://www.billa.sk/", "opening_hours": ["Po - So: 7:00 - 21:00", "Ne: 8:00 - 20:00"], "brand": "BILLA"}, "geometry": {"type": "Point", "coordinates": [17.0597799, 48.1541861]}},
{"type": "Feature", "id": "mZloGfgjuLhxLXtdwkSiAwCU5iM=", "properties": {"ref": "84-114", "@spider": "billa_sk_dac", "addr:full": "Slovakia,Bratislavsk\u00fd kraj,Bratislava,\u013dudov\u00edta Fullu 1", "addr:street": "\u013dudov\u00edta Fullu 1", "addr:city": "Bratislava", "addr:state": "Bratislavsk\u00fd kraj", "addr:postcode": "841 05", "addr:country": "Slovakia", "name": "BRATISLAVA - DLH\u00c9 DIELY", "phone": "0911, 320114", "website": "https://www.billa.sk/", "opening_hours": ["Po - So: 7:00 - 22:00", "Ne: 8:00 - 21:00"], "brand": "BILLA"}, "geometry": {"type": "Point", "coordinates": [17.0498534, 48.1522366]}},
{"type": "Feature", "id": "9_JpNzrOGmCri7DAlb07tKMandE=", "properties": {"ref": "84-102", "@spider": "billa_sk_dac", "addr:full": "Slovakia,Bratislavsk\u00fd kraj,Bratislava,Jant\u00e1rova Cesta 3540", "addr:street": "Jant\u00e1rova Cesta 3540", "addr:city": "Bratislava", "addr:state": "Bratislavsk\u00fd kraj", "addr:postcode": "851 06", "addr:country": "Slovakia", "name": "BRATISLAVA - PETR\u017dALKA", "phone": "0903, 693102", "website": "https://www.billa.sk/", "opening_hours": ["Po - So: 7:00 - 22:00", "Ne: 8:00 - 21:00"], "brand": "BILLA"}, "geometry": {"type": "Point", "coordinates": [17.1064916, 48.1046073]}},
{"type": "Feature", "id": "v2IEYL2wKwM3N7WBO2c7LKVNKhA=", "properties": {"ref": "84-150", "@spider": "billa_sk_dac", "addr:full": "Slovakia,Bratislavsk\u00fd kraj,Bratislava,Bachova 3190/2", "addr:street": "Bachova 3190/2", "addr:city": "Bratislava", "addr:state": "Bratislavsk\u00fd kraj", "addr:postcode": "821 03", "addr:country": "Slovakia", "name": "BRATISLAVA BACHOVA", "phone": "None, None", "website": "https://www.billa.sk/", "brand": "BILLA"}, "geometry": {"type": "Point", "coordinates": [17.168559, 48.157363]}},
{"type": "Feature", "id": "Nu6w9U5NhbrgOD2L1UiOyhk9r3k=", "properties": {"ref": "84-140", "@spider": "billa_sk_dac", "addr:full": "Slovakia,Bratislavsk\u00fd kraj,Bratislava,Zuzany Chalupovej 4", "addr:street": "Zuzany Chalupovej 4", "addr:city": "Bratislava", "addr:state": "Bratislavsk\u00fd kraj", "addr:postcode": "851 04", "addr:country": "Slovakia", "name": "BRATISLAVA SLNE\u010cNICE", "phone": "None, 0911110702", "website": "https://www.billa.sk/", "opening_hours": ["Po - So: 7:00 - 21:00", "Ne: 8:00 - 20:00"], "brand": "BILLA"}, "geometry": {"type": "Point", "coordinates": [17.118828, 48.09344]}},
{"type": "Feature", "id": "8IT-j5Q8l4gvd9vNSqC8ZMz8CiI=", "properties": {"ref": "84-123", "@spider": "billa_sk_dac", "addr:full": "Slovakia,Bratislavsk\u00fd kraj,Bratislava,Pestovate\u013esk\u00e1 13", "addr:street": "Pestovate\u013esk\u00e1 13", "addr:city": "Bratislava", "addr:state": "Bratislavsk\u00fd kraj", "addr:postcode": "821 04", "addr:country": "Slovakia", "name": "BRATISLAV - AVION", "phone": "0911, 510030", "website": "https://www.billa.sk/", "opening_hours": ["Po - So: 7:00 - 21:00", "Ne: 8:00 - 20:00"], "brand": "BILLA"}, "geometry": {"type": "Point", "coordinates": [17.1820203, 48.1699578]}},
{"type": "Feature", "id": "a103L_-PElYBZ2OhybmxThI3RL8=", "properties": {"ref": "84-105", "@spider": "billa_sk_dac", "addr:full": "Slovakia,Bratislavsk\u00fd kraj,Bratislava,Saratovsk\u00e1 2/A", "addr:street": "Saratovsk\u00e1 2/A", "addr:city": "Bratislava", "addr:state": "Bratislavsk\u00fd kraj", "addr:postcode": "841 02", "addr:country": "Slovakia", "name": "BRATISLAVA - D\u00daBRAVKA II", "phone": "0903, 648105", "website": "https://www.billa.sk/", "opening_hours": ["Po - So: 7:00 - 22:00", "Ne: 8:00 - 21:00"], "brand": "BILLA"}, "geometry": {"type": "Point", "coordinates": [17.0373833, 48.1881222]}},
{"type": "Feature", "id": "Tg3zII4_KsY5qWBPjUoFLCAuBgA=", "properties": {"ref": "84-109", "@spider": "billa_sk_dac", "addr:full": "Slovakia,Bratislavsk\u00fd kraj,Bratislava,Kazansk\u00e1 6", "addr:street": "Kazansk\u00e1 6", "addr:city": "Bratislava", "addr:state": "Bratislavsk\u00fd kraj", "addr:postcode": "821 06", "addr:country": "Slovakia", "name": "BRATISLAVA - POD. BISKUPICE", "phone": "0903, 627109", "website": "https://www.billa.sk/", "opening_hours": ["Po - So: 6:30 - 22:00", "Ne: 8:00 - 21:00"], "brand": "BILLA"}, "geometry": {"type": "Point", "coordinates": [17.2051864, 48.1355422]}},
{"type": "Feature", "id": "bTAGtOWSYeiHR8IRcu0APGhZ6HY=", "properties": {"ref": "84-110", "@spider": "billa_sk_dac", "addr:full": "Slovakia,Bratislavsk\u00fd kraj,Bratislava,Saratovsk\u00e1 47", "addr:street": "Saratovsk\u00e1 47", "addr:city": "Bratislava", "addr:state": "Bratislavsk\u00fd kraj", "addr:postcode": "841 02", "addr:country": "Slovakia", "name": "BRATISLAVA - D\u00daBRAVKA", "phone": "0903, 508110", "website": "https://www.billa.sk/", "opening_hours": ["Po - So: 7:00 - 21:00", "Ne: 8:00 - 20:00"], "brand": "BILLA"}, "geometry": {"type": "Point", "coordinates": [17.0340206, 48.1927522]}},
{"type": "Feature", "id": "SqiBa4Z_1s-2_-uvhPeceFDgKnU=", "properties": {"ref": "84-107", "@spider": "billa_sk_dac", "addr:full": "Slovakia,Bratislavsk\u00fd kraj,Bratislava,Rustaveliho 7", "addr:street": "Rustaveliho 7", "addr:city": "Bratislava", "addr:state": "Bratislavsk\u00fd kraj", "addr:postcode": "831 06", "addr:country": "Slovakia", "name": "BRATISLAVA - RA\u010cA", "phone": "0910, 901107", "website": "https://www.billa.sk/", "opening_hours": ["Po - So: 7:00 - 21:00", "Ne: 8:00 - 20:00"], "brand": "BILLA"}, "geometry": {"type": "Point", "coordinates": [17.1572825, 48.2134731]}},
{"type": "Feature", "id": "aw3SZKhEP6XH1bCJF_pRvtVlMnw=", "properties": {"ref": "84-137", "@spider": "billa_sk_dac", "addr:full": "Slovakia,Bratislavsk\u00fd kraj,Bratislava,Lama\u010dsk\u00e1 Br\u00e1na 8/6780", "addr:street": "Lama\u010dsk\u00e1 Br\u00e1na 8/6780", "addr:city": "Bratislava", "addr:state": "Bratislavsk\u00fd kraj", "addr:postcode": "851 02", "addr:country": "Slovakia", "name": "BRATISLAVA - BORY", "phone": "0904, 551830", "website": "https://www.billa.sk/", "opening_hours": ["Po - So:8:00 - 22:00", "Ne:8:00 - 21:00"], "brand": "BILLA"}, "geometry": {"type": "Point", "coordinates": [17.0344333, 48.2061066]}},
{"type": "Feature", "id": "R6NJkl36-GQcYdYbc-AZTjcLhD8=", "properties": {"ref": "84-132", "@spider": "billa_sk_dac", "addr:full": "Slovakia,Bratislavsk\u00fd kraj,Bratislava,Pri V\u00e1penickom Potoku 8583/98", "addr:street": "Pri V\u00e1penickom Potoku 8583/98", "addr:city": "Bratislava", "addr:state": "Bratislavsk\u00fd kraj", "addr:postcode": "841 06", "addr:country": "Slovakia", "name": "BRATISLAVA - ZAHORSKA BYSTRICA", "phone": "0911, 054960", "website": "https://www.billa.sk/", "opening_hours": ["Po - So: 7:00 - 21:00", "Ne: 8:00 - 21:00"], "brand": "BILLA"}, "geometry": {"type": "Point", "coordinates": [17.0351859, 48.2358944]}},
{"type": "Feature", "id": "rJTO80oItIWIU4vLRwsP_uQd1u4=", "properties": {"ref": "84-146", "@spider": "billa_sk_dac", "addr:full": "Slovakia,Bratislavsk\u00fd kraj,Rovinka,Hlavn\u00e1 322/1", "addr:street": "Hlavn\u00e1 322/1", "addr:city": "Rovinka", "addr:state": "Bratislavsk\u00fd kraj", "addr:postcode": "900 41", "addr:country": "Slovakia", "name": "ROVINKA CITY PARK", "phone": "None, None", "website": "https://www.billa.sk/", "opening_hours": ["Po - So: 7:00 - 21:00", "Ne: 8:00 - 21:00"], "brand": "BILLA"}, "geometry": {"type": "Point", "coordinates": [17.24205, 48.093085]}},
{"type": "Feature", "id": "R29nnLxD8il9O9CO-FWjKKdF10o=", "properties": {"ref": "84-273", "@spider": "billa_sk_dac", "addr:full": "Slovakia,Bratislavsk\u00fd kraj,Most Pri Bratislave,Bratislavsk\u00e1 2020", "addr:street": "Bratislavsk\u00e1 2020", "addr:city": "Most Pri Bratislave", "addr:state": "Bratislavsk\u00fd kraj", "addr:postcode": "900 46", "addr:country": "Slovakia", "name": "MOST PRI BRATISLAVE", "phone": "None, None", "website": "https://www.billa.sk/", "opening_hours": ["Po - So:7:00 - 21:00", "8:00 - 20:00"], "brand": "BILLA"}, "geometry": {"type": "Point", "coordinates": [17.290167, 48.145255]}},
{"type": "Feature", "id": "QQhZC88QPfV53H3AUvT5L6yYbdY=", "properties": {"ref": "84-271", "@spider": "billa_sk_dac", "addr:full": "Slovakia,Bratislavsk\u00fd kraj,Bernol\u00e1kovo,Slne\u010dnicov\u00e1 5694", "addr:street": "Slne\u010dnicov\u00e1 5694", "addr:city": "Bernol\u00e1kovo", "addr:state": "Bratislavsk\u00fd kraj", "addr:postcode": "900 27", "addr:country": "Slovakia", "name": "BERNOLAKOVO", "phone": "None, None", "website": "https://www.billa.sk/", "opening_hours": ["Po - So:7:00 - 21:00", "Ne:8:00 - 20:00"], "brand": "BILLA"}, "geometry": {"type": "Point", "coordinates": [17.290808, 48.191314]}},
{"type": "Feature", "id": "DXfCIa1b_HyMCNA3GJE_FPVKSIw=", "properties": {"ref": "84-249", "@spider": "billa_sk_dac", "addr:full": "Slovakia,Bratislavsk\u00fd kraj,Stupava,Hlavn\u00e1 50/1021", "addr:street": "Hlavn\u00e1 50/1021", "addr:city": "Stupava", "addr:state": "Bratislavsk\u00fd kraj", "addr:postcode": "900 31", "addr:country": "Slovakia", "name": "STUPAVA", "phone": "0911, 790235", "website": "https://www.billa.sk/", "opening_hours": ["Po - So: 7:00 - 21:00", "Ne: 8:00 - 21:00"], "brand": "BILLA"}, "geometry": {"type": "Point", "coordinates": [17.0312398, 48.2707212]}},
{"type": "Feature", "id": "5WzxTveLAWIu8mpzZAnjRai8Q10=", "properties": {"ref": "84-219", "@spider": "billa_sk_dac", "addr:full": "Slovakia,Trnavsk\u00fd kraj,Samor\u00edn,Parkov\u00e1 1787 (Ag\u00e1tov\u00fd Rad)", "addr:street": "Parkov\u00e1 1787 (Ag\u00e1tov\u00fd Rad)", "addr:city": "Samor\u00edn", "addr:state": "Trnavsk\u00fd kraj", "addr:postcode": "931 01", "addr:country": "Slovakia", "name": "SAMORIN", "phone": "0903, 696219", "website": "https://www.billa.sk/", "opening_hours": ["Po - So: 7:00 - 22:00", "Ne: 8:00 - 21:00", ""], "brand": "BILLA"}, "geometry": {"type": "Point", "coordinates": [17.3030961, 48.0320056]}},
{"type": "Feature", "id": "PyQKz90VJ_CDBvYyAkcAW2niIvY=", "properties": {"ref": "84-228", "@spider": "billa_sk_dac", "addr:full": "Slovakia,Bratislavsk\u00fd kraj,Pezinok,Meisslova 2", "addr:street": "Meisslova 2", "addr:city": "Pezinok", "addr:state": "Bratislavsk\u00fd kraj", "addr:postcode": "902 01", "addr:country": "Slovakia", "name": "PEZINOK", "phone": "0903, 503228", "website": "https://www.billa.sk/", "opening_hours": ["Po - So: 7:00 - 20:00", "Ne: 8:00 - 18:00"], "brand": "BILLA"}, "geometry": {"type": "Point", "coordinates": [17.2710408, 48.2864697]}},
{"type": "Feature", "id": "doJJ3rsE3zV4D03WOe2DJT41-mo=", "properties": {"ref": "84-217", "@spider": "billa_sk_dac", "addr:full": "Slovakia,Bratislavsk\u00fd kraj,Senec,Sv\u00e4toplukova 1/A", "addr:street": "Sv\u00e4toplukova 1/A", "addr:city": "Senec", "addr:state": "Bratislavsk\u00fd kraj", "addr:postcode": "903 01", "addr:country": "Slovakia", "name": "SENEC", "phone": "0903, 593217", "website": "https://www.billa.sk/", "opening_hours": ["Po - So: 7:00 - 21:00", "Ne: 8:00 - 20:00"], "brand": "BILLA"}, "geometry": {"type": "Point", "coordinates": [17.392846, 48.217681]}},
{"type": "Feature", "id": "5t4l9YSpQRKEIwWEHlKxmhvFYs4=", "properties": {"ref": "84-224", "@spider": "billa_sk_dac", "addr:full": "Slovakia,Bratislavsk\u00fd kraj,Modra,\u0160\u00farska 56/1308", "addr:street": "\u0160\u00farska 56/1308", "addr:city": "Modra", "addr:state": "Bratislavsk\u00fd kraj", "addr:postcode": "900 01", "addr:country": "Slovakia", "name": "MODRA", "phone": "0911, 103827", "website": "https://www.billa.sk/", "opening_hours": ["Po - So: 7:00 - 20:00", "Ne: 8:00 - 19:00"], "brand": "BILLA"}, "geometry": {"type": "Point", "coordinates": [17.3097897, 48.3270398]}},
{"type": "Feature", "id": "xRM4ZRWrf3FAUE1iNK3f3lPHins=", "properties": {"ref": "84-221", "@spider": "billa_sk_dac", "addr:full": "Slovakia,Bratislavsk\u00fd kraj,Malacky,Na Brehu 1", "addr:street": "Na Brehu 1", "addr:city": "Malacky", "addr:state": "Bratislavsk\u00fd kraj", "addr:postcode": "901 01", "addr:country": "Slovakia", "name": "MALACKY", "phone": "0903, 287221", "website": "https://www.billa.sk/", "opening_hours": ["Po - So: 7:00 - 21:00", "Ne: 8:00 - 20:00"], "brand": "BILLA"}, "geometry": {"type": "Point", "coordinates": [17.0219387, 48.4384316]}},
{"type": "Feature", "id": "ZFyGzGhGZTYEznxBIw4MP4h_qfM=", "properties": {"ref": "84-409", "@spider": "billa_sk_dac", "addr:full": "Slovakia,Trnavsk\u00fd kraj,Dunajsk\u00e1 Streda,Ve\u013ekoblahovsk\u00e1 Cesta 6565/9a", "addr:street": "Ve\u013ekoblahovsk\u00e1 Cesta 6565/9a", "addr:city": "Dunajsk\u00e1 Streda", "addr:state": "Trnavsk\u00fd kraj", "addr:postcode": "929 01", "addr:country": "Slovakia", "name": "DUNAJSK\u00c1 STREDA", "phone": "0911, 444396", "website": "https://www.billa.sk/", "opening_hours": ["Po - So: 7:00 - 21:00", "Ne: 8:00 - 21:00"], "brand": "BILLA"}, "geometry": {"type": "Point", "coordinates": [17.6114326, 47.9982029]}},
{"type": "Feature", "id": "BChVhDnDQz7vEkrsdfMUZyeTrig=", "properties": {"ref": "84-209", "@spider": "billa_sk_dac", "addr:full": "Slovakia,Trnavsk\u00fd kraj,Trnava,Ferka Urb\u00e1nka 9", "addr:street": "Ferka Urb\u00e1nka 9", "addr:city": "Trnava", "addr:state": "Trnavsk\u00fd kraj", "addr:postcode": "917 01", "addr:country": "Slovakia", "name": "TRNAVA II", "phone": "0910, 998209", "website": "https://www.billa.sk/", "opening_hours": ["Po - So: 7:00 - 21:00", "Ne: 8:00 - 21:00"], "brand": "BILLA"}, "geometry": {"type": "Point", "coordinates": [17.578748, 48.369978]}},
{"type": "Feature", "id": "7RxoQ4IbbzYyRzUHrJGOKIfCJYk=", "properties": {"ref": "84-232", "@spider": "billa_sk_dac", "addr:full": "Slovakia,Trnavsk\u00fd kraj,Trnava,Hospod\u00e1rska 53", "addr:street": "Hospod\u00e1rska 53", "addr:city": "Trnava", "addr:state": "Trnavsk\u00fd kraj", "addr:postcode": "917 01", "addr:country": "Slovakia", "name": "TRNAVA-DELVITA", "phone": "0911, 321232", "website": "https://www.billa.sk/", "opening_hours": ["Po - So: 7:00 - 21:00", "Ne: 8:00 - 20:00"], "brand": "BILLA"}, "geometry": {"type": "Point", "coordinates": [17.581172, 48.3777018]}},
{"type": "Feature", "id": "Qk0p3Z4m5psIq-4-9IIRNSuwlHo=", "properties": {"ref": "84-269", "@spider": "billa_sk_dac", "addr:full": "Slovakia,Trnavsk\u00fd kraj,Trnava,Kol\u00e1rov\u00e1 20", "addr:street": "Kol\u00e1rov\u00e1 20", "addr:city": "Trnava", "addr:state": "Trnavsk\u00fd kraj", "addr:postcode": "917 01", "addr:country": "Slovakia", "name": "TRNAVA CITY-ARENA", "phone": "0904, 927923", "website": "https://www.billa.sk/", "opening_hours": ["Po - So:7:00 - 21:00", "Ne:8:00 - 21:00"], "brand": "BILLA"}, "geometry": {"type": "Point", "coordinates": [17.59383, 48.374014]}},
{"type": "Feature", "id": "qQShyn7H8_v_47HFKgEyNzqJUU0=", "properties": {"ref": "84-201", "@spider": "billa_sk_dac", "addr:full": "Slovakia,Trnavsk\u00fd kraj,Trnava,Spartakovsk\u00e1 47", "addr:street": "Spartakovsk\u00e1 47", "addr:city": "Trnava", "addr:state": "Trnavsk\u00fd kraj", "addr:postcode": "917 01", "addr:country": "Slovakia", "name": "TRNAVA", "phone": "0903, 693201", "website": "https://www.billa.sk/", "opening_hours": ["Po - So: 7:00 - 21:00", "Ne: 8:00 - 20:00"], "brand": "BILLA"}, "geometry": {"type": "Point", "coordinates": [17.595657, 48.372759]}},
{"type": "Feature", "id": "M1KxiRWoiRhhqfNFWSqL7xAxmLQ=", "properties": {"ref": "84-220", "@spider": "billa_sk_dac", "addr:full": "Slovakia,Trnavsk\u00fd kraj,Galanta,\u0160af\u00e1rikova 43", "addr:street": "\u0160af\u00e1rikova 43", "addr:city": "Galanta", "addr:state": "Trnavsk\u00fd kraj", "addr:postcode": "942 01", "addr:country": "Slovakia", "name": "GALANTA", "phone": "0903, 693220", "website": "https://www.billa.sk/", "opening_hours": ["Po - So: 7:00 - 21:00", "Ne: 8:00 - 19:00"], "brand": "BILLA"}, "geometry": {"type": "Point", "coordinates": [17.7261419, 48.1914888]}},
{"type": "Feature", "id": "g3O96jooDhRVqpaH6R5lhFi5ZaE=", "properties": {"ref": "84-222", "@spider": "billa_sk_dac", "addr:full": "Slovakia,Trnavsk\u00fd kraj,Sere\u010f,Cukrovarsk\u00e1 9a/49", "addr:street": "Cukrovarsk\u00e1 9a/49", "addr:city": "Sere\u010f", "addr:state": "Trnavsk\u00fd kraj", "addr:postcode": "926 01", "addr:country": "Slovakia", "name": "SERED", "phone": "0903, 289222", "website": "https://www.billa.sk/", "opening_hours": ["Po - So: 7:00 - 20:00", "Ne: 8:00 - 19:00"], "brand": "BILLA"}, "geometry": {"type": "Point", "coordinates": [17.7366853, 48.2817779]}},
{"type": "Feature", "id": "7c5RiT40r4kxokO0YLF01Co7egU=", "properties": {"ref": "84-203", "@spider": "billa_sk_dac", "addr:full": "Slovakia,Nitriansky kraj,\u0160a\u013ea,Snp 43", "addr:street": "Snp 43", "addr:city": "\u0160a\u013ea", "addr:state": "Nitriansky kraj", "addr:postcode": "927 01", "addr:country": "Slovakia", "name": "SALA,SNP", "phone": "0903, 693203", "website": "https://www.billa.sk/", "opening_hours": ["Po - So: 7:00 - 20:00", "Ne: 8:00 - 18:00"], "brand": "BILLA"}, "geometry": {"type": "Point", "coordinates": [17.876708, 48.1579193]}},
{"type": "Feature", "id": "ldNeprLkqmaMLkC6IOJSH4iYogs=", "properties": {"ref": "84-218", "@spider": "billa_sk_dac", "addr:full": "Slovakia,Trnavsk\u00fd kraj,Ve\u013ek\u00fd Meder,N\u00e1m. Belu Bartoka 3222/24", "addr:street": "N\u00e1m. Belu Bartoka 3222/24", "addr:city": "Ve\u013ek\u00fd Meder", "addr:state": "Trnavsk\u00fd kraj", "addr:postcode": "932 01", "addr:country": "Slovakia", "name": "VELKY MEDER", "phone": "0903, 696218", "website": "https://www.billa.sk/", "opening_hours": ["Po - So: 7:00 - 20:00", "Ne: 8:00 - 19:00"], "brand": "BILLA"}, "geometry": {"type": "Point", "coordinates": [17.770815, 47.855725]}},
{"type": "Feature", "id": "gCyfnfq7z6xHusdi4BZw-CJQmlw=", "properties": {"ref": "84-285", "@spider": "billa_sk_dac", "addr:full": "Slovakia,Trnavsk\u00fd kraj,Senica,\u010c\u00e1\u010dovsk\u00e1 Cesta 3520/6", "addr:street": "\u010c\u00e1\u010dovsk\u00e1 Cesta 3520/6", "addr:city": "Senica", "addr:state": "Trnavsk\u00fd kraj", "addr:postcode": "905 01", "addr:country": "Slovakia", "name": "SENICA", "phone": "None, None", "website": "https://www.billa.sk/", "brand": "BILLA"}, "geometry": {"type": "Point", "coordinates": [17.349871, 48.679691]}},
{"type": "Feature", "id": "9iANyJYvOeclTiHgX2Zt8NMYMtI=", "properties": {"ref": "84-277", "@spider": "billa_sk_dac", "addr:full": "Slovakia,Trnavsk\u00fd kraj,Pie\u0161\u0165any,Krajinsk\u00e1 2954/32", "addr:street": "Krajinsk\u00e1 2954/32", "addr:city": "Pie\u0161\u0165any", "addr:state": "Trnavsk\u00fd kraj", "addr:postcode": "921 01", "addr:country": "Slovakia", "name": "PIE\u0160\u0164ANY", "phone": "None, None", "website": "https://www.billa.sk/", "opening_hours": ["Po - So: 7:00 - 21:00", "Ne: 8:00 - 20:00"], "brand": "BILLA"}, "geometry": {"type": "Point", "coordinates": [17.8257103, 48.58599]}},
{"type": "Feature", "id": "HsVyfF4Q7tKQMGRjDW8ZX1p-c7g=", "properties": {"ref": "84-242", "@spider": "billa_sk_dac", "addr:full": "Slovakia,Trnavsk\u00fd kraj,Pie\u0161\u0165any,Nitrianska 7555/18-Aupark", "addr:street": "Nitrianska 7555/18-Aupark", "addr:city": "Pie\u0161\u0165any", "addr:state": "Trnavsk\u00fd kraj", "addr:postcode": "921 01", "addr:country": "Slovakia", "name": "PIE\u0160\u0164ANY AUPARK", "phone": "0911, 963167", "website": "https://www.billa.sk/", "opening_hours": ["Po - Ne: 7:00 - 21:00"], "brand": "BILLA"}, "geometry": {"type": "Point", "coordinates": [17.833363, 48.588119]}},
{"type": "Feature", "id": "gV_le-3EyXR_lbiinDqCvEG9MoE=", "properties": {"ref": "84-205", "@spider": "billa_sk_dac", "addr:full": "Slovakia,Trnavsk\u00fd kraj,Pie\u0161\u0165any,\u017dilinsk\u00e1 Cesta 10", "addr:street": "\u017dilinsk\u00e1 Cesta 10", "addr:city": "Pie\u0161\u0165any", "addr:state": "Trnavsk\u00fd kraj", "addr:postcode": "921 01", "addr:country": "Slovakia", "name": "PIESTANY", "phone": "0903, 693205", "website": "https://www.billa.sk/", "opening_hours": ["Po - So: 7:00 - 21:00", "Ne: 8:00 - 20:00"], "brand": "BILLA"}, "geometry": {"type": "Point", "coordinates": [17.8255465, 48.5964331]}},
{"type": "Feature", "id": "sbi0m-TP9LYPVyyIU9C_hu9b4O0=", "properties": {"ref": "84-211", "@spider": "billa_sk_dac", "addr:full": "Slovakia,Nitriansky kraj,Nitra,Hviezdoslavova Tr. 35", "addr:street": "Hviezdoslavova Tr. 35", "addr:city": "Nitra", "addr:state": "Nitriansky kraj", "addr:postcode": "949 01", "addr:country": "Slovakia", "name": "NITRA", "phone": "0903, 693211", "website": "https://www.billa.sk/", "opening_hours": ["Po - So: 7:00 - 21:00", "Ne: 8:00 - 20:00"], "brand": "BILLA"}, "geometry": {"type": "Point", "coordinates": [18.064829, 48.302229]}},
{"type": "Feature", "id": "ey_xZFSVjirT_XrNEm0iNluNwvg=", "properties": {"ref": "84-240", "@spider": "billa_sk_dac", "addr:full": "Slovakia,Trnavsk\u00fd kraj,Hol\u00ed\u010d,Bernol\u00e1kova 1", "addr:street": "Bernol\u00e1kova 1", "addr:city": "Hol\u00ed\u010d", "addr:state": "Trnavsk\u00fd kraj", "addr:postcode": "908 51", "addr:country": "Slovakia", "name": "HOLIC", "phone": "0911, 580134", "website": "https://www.billa.sk/", "opening_hours": ["Po - So: 7:00 - 21:00", "Ne: 8:00 - 18:00"], "brand": "BILLA"}, "geometry": {"type": "Point", "coordinates": [17.161991, 48.808075]}},
{"type": "Feature", "id": "Tqb_3wN4m-x8277ENKgLeOYyUQU=", "properties": {"ref": "84-226", "@spider": "billa_sk_dac", "addr:full": "Slovakia,Tren\u010diansky kraj,Myjava,1.M\u00e1ja 1", "addr:street": "1.M\u00e1ja 1", "addr:city": "Myjava", "addr:state": "Tren\u010diansky kraj", "addr:postcode": "907 01", "addr:country": "Slovakia", "name": "MYJAVA", "phone": "0910, 967226", "website": "https://www.billa.sk/", "opening_hours": ["Po - So: 7:00 - 21:00", "Ne: 8:00 - 19:00"], "brand": "BILLA"}, "geometry": {"type": "Point", "coordinates": [17.5679729, 48.7560967]}},
{"type": "Feature", "id": "3gGoWl2GrLGmZYsvV2H12zKPLMA=", "properties": {"ref": "84-225", "@spider": "billa_sk_dac", "addr:full": "Slovakia,Trnavsk\u00fd kraj,Skalica,\u0160tef\u00e1nikova 1", "addr:street": "\u0160tef\u00e1nikova 1", "addr:city": "Skalica", "addr:state": "Trnavsk\u00fd kraj", "addr:postcode": "909 01", "addr:country": "Slovakia", "name": "SKALICA", "phone": "0910, 967225", "website": "https://www.billa.sk/", "opening_hours": ["Po - So: 7:00 - 20:00", "Ne: 8:00 - 17:00"], "brand": "BILLA"}, "geometry": {"type": "Point", "coordinates": [17.225607, 48.8447565]}},
{"type": "Feature", "id": "0VYSIakr5jWH8_NR-8LPDpBe8uM=", "properties": {"ref": "84-270", "@spider": "billa_sk_dac", "addr:full": "Slovakia,Nitriansky kraj,Nov\u00e9 Z\u00e1mky,S.H. Vajansk\u00e9ho 46b/10693", "addr:street": "S.H. Vajansk\u00e9ho 46b/10693", "addr:city": "Nov\u00e9 Z\u00e1mky", "addr:state": "Nitriansky kraj", "addr:postcode": "940 02", "addr:country": "Slovakia", "name": "NOVE ZAMKY", "phone": "None, None", "website": "https://www.billa.sk/", "opening_hours": ["Po - So: 7:00 - 21:00", "Ne: 8:00 - 20:00"], "brand": "BILLA"}, "geometry": {"type": "Point", "coordinates": [18.154366, 47.98035]}},
{"type": "Feature", "id": "74rNXcmSI3FSaYqC48PHkUFxW-k=", "properties": {"ref": "84-215", "@spider": "billa_sk_dac", "addr:full": "Slovakia,Nitriansky kraj,Nov\u00e9 Z\u00e1mky,G\u00e1bora Bethlena 9", "addr:street": "G\u00e1bora Bethlena 9", "addr:city": "Nov\u00e9 Z\u00e1mky", "addr:state": "Nitriansky kraj", "addr:postcode": "940 02", "addr:country": "Slovakia", "name": "NOV\u00c9 ZAMKY", "phone": "0903, 693215", "website": "https://www.billa.sk/", "opening_hours": ["Po - So: 7:00 - 21:00", "Ne: 8:00 - 18:00"], "brand": "BILLA"}, "geometry": {"type": "Point", "coordinates": [18.167028, 47.983108]}},
{"type": "Feature", "id": "2faNrw6WLxC0QNrOoSCEupNCfkM=", "properties": {"ref": "84-238", "@spider": "billa_sk_dac", "addr:full": "Slovakia,Tren\u010diansky kraj,Star\u00e1 Tur\u00e1,Husitsk\u00e1 5", "addr:street": "Husitsk\u00e1 5", "addr:city": "Star\u00e1 Tur\u00e1", "addr:state": "Tren\u010diansky kraj", "addr:postcode": "916 01", "addr:country": "Slovakia", "name": "STARA TURA", "phone": "0911, 580238", "website": "https://www.billa.sk/", "opening_hours": ["Po - So: 7:00 - 20:00", "Ne: 8:00 - 19:00"], "brand": "BILLA"}, "geometry": {"type": "Point", "coordinates": [17.69538, 48.777627]}},
{"type": "Feature", "id": "p2iV4YPIzkxzxaagea5phtn4Axw=", "properties": {"ref": "84-216", "@spider": "billa_sk_dac", "addr:full": "Slovakia,Tren\u010diansky kraj,Nov\u00e9 Mesto N/V,\u0160tef\u00e1nikova 34", "addr:street": "\u0160tef\u00e1nikova 34", "addr:city": "Nov\u00e9 Mesto N/V", "addr:state": "Tren\u010diansky kraj", "addr:postcode": "915 01", "addr:country": "Slovakia", "name": "NOVE MESTO NAD VAHOM", "phone": "0903, 693216", "website": "https://www.billa.sk/", "opening_hours": ["Po - So: 7:00 - 20:00", "Ne: 8:00 - 20:00"], "brand": "BILLA"}, "geometry": {"type": "Point", "coordinates": [17.829479, 48.750719]}},
{"type": "Feature", "id": "wTvuh89kpoCyKf9gQGsyy82wqzs=", "properties": {"ref": "84-280", "@spider": "billa_sk_dac", "addr:full": "Slovakia,Nitriansky kraj,Kom\u00e1rno,Odbor\u00e1rov 1", "addr:street": "Odbor\u00e1rov 1", "addr:city": "Kom\u00e1rno", "addr:state": "Nitriansky kraj", "addr:postcode": "945 01", "addr:country": "Slovakia", "name": "KOM\u00c1RNO", "phone": "None, None", "website": "https://www.billa.sk/", "brand": "BILLA"}, "geometry": {"type": "Point", "coordinates": [18.118132, 47.768633]}},
{"type": "Feature", "id": "KyUfW-DKpM6WxIjwUhuHPX4WGvo=", "properties": {"ref": "84-260", "@spider": "billa_sk_dac", "addr:full": "Slovakia,Nitriansky kraj,Kom\u00e1rno,Eotvosa 23", "addr:street": "Eotvosa 23", "addr:city": "Kom\u00e1rno", "addr:state": "Nitriansky kraj", "addr:postcode": "945 05", "addr:country": "Slovakia", "name": "KOMARNO", "phone": "0911, 489053", "website": "https://www.billa.sk/", "opening_hours": ["Po - So: 7:00 - 20:00", "Ne: 8:00 - 18:00"], "brand": "BILLA"}, "geometry": {"type": "Point", "coordinates": [18.1205592, 47.7607597]}},
{"type": "Feature", "id": "ONloP9PMWPArwMJoYmv4SC2cggU=", "properties": {"ref": "84-213", "@spider": "billa_sk_dac", "addr:full": "Slovakia,Nitriansky kraj,Kom\u00e1rno,Meder\u010dsk\u00e1 4335", "addr:street": "Meder\u010dsk\u00e1 4335", "addr:city": "Kom\u00e1rno", "addr:state": "Nitriansky kraj", "addr:postcode": "945 01", "addr:country": "Slovakia", "name": "KOM\u00c1RNO", "phone": "0903, 607213", "website": "https://www.billa.sk/", "opening_hours": ["Po - So: 7:00 - 21:00", "Ne: 8:00 - 18:00"], "brand": "BILLA"}, "geometry": {"type": "Point", "coordinates": [18.1270726, 47.7629527]}},
{"type": "Feature", "id": "VNLrzFdxu2f5tFa_y4MFsj1OvOs=", "properties": {"ref": "84-264", "@spider": "billa_sk_dac", "addr:full": "Slovakia,Nitriansky kraj,Topo\u013e\u010dany,M. R. \u0160tef\u00e1nika 2291/15", "addr:street": "M. R. \u0160tef\u00e1nika 2291/15", "addr:city": "Topo\u013e\u010dany", "addr:state": "Nitriansky kraj", "addr:postcode": "955 01", "addr:country": "Slovakia", "name": "TOPOLCANY", "phone": "0903, 485664", "website": "https://www.billa.sk/", "opening_hours": ["Po - So: 7:00 - 19:00", "Ne: 8:00 - 19:00"], "brand": "BILLA"}, "geometry": {"type": "Point", "coordinates": [18.1750636, 48.5599438]}},
{"type": "Feature", "id": "BedX-yiBmK7NHHuqPucra_dt6Qo=", "properties": {"ref": "84-206", "@spider": "billa_sk_dac", "addr:full": "Slovakia,Nitriansky kraj,Topo\u013e\u010dany,P.O. Hviezdoslava 2773", "addr:street": "P.O. Hviezdoslava 2773", "addr:city": "Topo\u013e\u010dany", "addr:state": "Nitriansky kraj", "addr:postcode": "955 01", "addr:country": "Slovakia", "name": "TOPOLCANY,HVIEZDOSLAVOVA", "phone": "0903, 693206", "website": "https://www.billa.sk/", "opening_hours": ["Po - So: 7:00 - 20:00", "Ne: 8:00 - 20:00"], "brand": "BILLA"}, "geometry": {"type": "Point", "coordinates": [18.1816735, 48.558289]}},
{"type": "Feature", "id": "x_kX8cg-u6csB4-d4nbbYNkjwgI=", "properties": {"ref": "84-229", "@spider": "billa_sk_dac", "addr:full": "Slovakia,Nitriansky kraj,Zlat\u00e9 Moravce,Hviezdoslavova 6", "addr:street": "Hviezdoslavova 6", "addr:city": "Zlat\u00e9 Moravce", "addr:state": "Nitriansky kraj", "addr:postcode": "953 01", "addr:country": "Slovakia", "name": "ZLATE MORAVCE", "phone": "0910, 901229", "website": "https://www.billa.sk/", "opening_hours": ["Po - So: 6:00 - 20:00", "Ne: 8:00 - 18:00"], "brand": "BILLA"}, "geometry": {"type": "Point", "coordinates": [18.3907303, 48.3843532]}},
{"type": "Feature", "id": "ksnYcwhA_QLtOWwrzFOaTf5Oa0M=", "properties": {"ref": "84-250", "@spider": "billa_sk_dac", "addr:full": "Slovakia,Tren\u010diansky kraj,B\u00e1novce N. Bebravou,Ulica Snp 1937/10a", "addr:street": "Ulica Snp 1937/10a", "addr:city": "B\u00e1novce N. Bebravou", "addr:state": "Tren\u010diansky kraj", "addr:postcode": "957 01", "addr:country": "Slovakia", "name": "BANOVCE N.BEBRAVOU", "phone": "0911, 656630", "website": "https://www.billa.sk/", "opening_hours": ["Po - So: 7:00 - 20:00", "Ne: 8:00 - 20:00"], "brand": "BILLA"}, "geometry": {"type": "Point", "coordinates": [18.2531931, 48.7226746]}},
{"type": "Feature", "id": "zMcW-WbIkTHzovduzfIU3Nqy3MM=", "properties": {"ref": "84-230", "@spider": "billa_sk_dac", "addr:full": "Slovakia,Tren\u010diansky kraj,Tren\u010d\u00edn,Gener\u00e1la Svobodu 1", "addr:street": "Gener\u00e1la Svobodu 1", "addr:city": "Tren\u010d\u00edn", "addr:state": "Tren\u010diansky kraj", "addr:postcode": "911 01", "addr:country": "Slovakia", "name": "TRENCIN", "phone": "0911, 756230", "website": "https://www.billa.sk/", "opening_hours": ["Po - So: 7:00 - 21:00", "Ne: 8:00 - 20:00"], "brand": "BILLA"}, "geometry": {"type": "Point", "coordinates": [18.044697, 48.8745324]}},
{"type": "Feature", "id": "THxIaautp4zEBDgh0rmWLC__LyU=", "properties": {"ref": "84-239", "@spider": "billa_sk_dac", "addr:full": "Slovakia,Tren\u010diansky kraj,Tren\u010d\u00edn,Legion\u00e1rska 5", "addr:street": "Legion\u00e1rska 5", "addr:city": "Tren\u010d\u00edn", "addr:state": "Tren\u010diansky kraj", "addr:postcode": "911 01", "addr:country": "Slovakia", "name": "TRENCIN - MASARYCKY", "phone": "0911, 563079", "website": "https://www.billa.sk/", "opening_hours": ["Po - Pi: 7:00 - 20:00", "So: 7:00 - 19:00", "Ne: 8:00 - 19:00"], "brand": "BILLA"}, "geometry": {"type": "Point", "coordinates": [18.035386, 48.887435]}},
{"type": "Feature", "id": "0fc10Jk04liqAsjl2C0t5C3eG9I=", "properties": {"ref": "84-245", "@spider": "billa_sk_dac", "addr:full": "Slovakia,Tren\u010diansky kraj,Partiz\u00e1nske,N\u00e1mestie Snp 1", "addr:street": "N\u00e1mestie Snp 1", "addr:city": "Partiz\u00e1nske", "addr:state": "Tren\u010diansky kraj", "addr:postcode": "958 01", "addr:country": "Slovakia", "name": "PARTIZANSKE PRIOR", "phone": "0903, 641688", "website": "https://www.billa.sk/", "opening_hours": ["Po - Pi: 7:00 - 19:00, So: 7:00 - 13:00", "Ne: zatvoren\u00e9"], "brand": "BILLA"}, "geometry": {"type": "Point", "coordinates": [18.372587, 48.626407]}},
{"type": "Feature", "id": "SV9O4x2O-Un6Em6R3IgCeBUXmSo=", "properties": {"ref": "84-233", "@spider": "billa_sk_dac", "addr:full": "Slovakia,Tren\u010diansky kraj,Tren\u010d\u00edn,Vajansk\u00e9ho 4", "addr:street": "Vajansk\u00e9ho 4", "addr:city": "Tren\u010d\u00edn", "addr:state": "Tren\u010diansky kraj", "addr:postcode": "911 01", "addr:country": "Slovakia", "name": "TRENCIN-DELVITA", "phone": "0911, 321233", "website": "https://www.billa.sk/", "opening_hours": ["Po - Pi: 7:00 - 19:00, So: 7:00 - 13:00", "Ne: zatvoren\u00e9"], "brand": "BILLA"}, "geometry": {"type": "Point", "coordinates": [18.0382, 48.8936]}},
{"type": "Feature", "id": "XD_anYQTeyLnmY8lF0LnDh6QK8A=", "properties": {"ref": "84-204", "@spider": "billa_sk_dac", "addr:full": "Slovakia,Tren\u010diansky kraj,Partiz\u00e1nske,Nitrianska Cesta 102", "addr:street": "Nitrianska Cesta 102", "addr:city": "Partiz\u00e1nske", "addr:state": "Tren\u010diansky kraj", "addr:postcode": "958 01", "addr:country": "Slovakia", "name": "PARTIZANSKE,NITRIANSKA CESTA", "phone": "0903, 693204", "website": "https://www.billa.sk/", "opening_hours": ["Po - So: 7:00 - 20:00", "Ne: 8:00 - 18:00"], "brand": "BILLA"}, "geometry": {"type": "Point", "coordinates": [18.3759171, 48.6288826]}},
{"type": "Feature", "id": "iyWHFbD-oA_nUsVcCINQQjNy7n0=", "properties": {"ref": "84-202", "@spider": "billa_sk_dac", "addr:full": "Slovakia,Tren\u010diansky kraj,Tren\u010d\u00edn,Pred Po\u013eom 755", "addr:street": "Pred Po\u013eom 755", "addr:city": "Tren\u010d\u00edn", "addr:state": "Tren\u010diansky kraj", "addr:postcode": "911 01", "addr:country": "Slovakia", "name": "TRENCIN.PRED POLOM.", "phone": "0903, 267202", "website": "https://www.billa.sk/", "opening_hours": ["Po - So: 7:00 - 20:00", "Ne: 8:00 - 19:00"], "brand": "BILLA"}, "geometry": {"type": "Point", "coordinates": [18.065778, 48.894459]}},
{"type": "Feature", "id": "uie6jEuRmzGeDbTklsQgaLTgpm4=", "properties": {"ref": "84-212", "@spider": "billa_sk_dac", "addr:full": "Slovakia,Nitriansky kraj,Levice,N\u00e1dra\u017en\u00fd Rad 7", "addr:street": "N\u00e1dra\u017en\u00fd Rad 7", "addr:city": "Levice", "addr:state": "Nitriansky kraj", "addr:postcode": "934 01", "addr:country": "Slovakia", "name": "LEVICE", "phone": "0903, 693212", "website": "https://www.billa.sk/", "opening_hours": ["Po - So: 7:00 - 20:00", "Ne: 8:00 - 15:00"], "brand": "BILLA"}, "geometry": {"type": "Point", "coordinates": [18.5926605, 48.212797]}},
{"type": "Feature", "id": "Hb2_YHAhherZB0B9KhHoK5fkce4=", "properties": {"ref": "84-274", "@spider": "billa_sk_dac", "addr:full": "Slovakia,Nitriansky kraj,Levice,Ku Bratke 3b", "addr:street": "Ku Bratke 3b", "addr:city": "Levice", "addr:state": "Nitriansky kraj", "addr:postcode": "934 01", "addr:country": "Slovakia", "name": "LEVICE", "phone": "None, None", "website": "https://www.billa.sk/", "opening_hours": ["Po-So: 7:00-20:00", "Ne: 8:00-18:00"], "brand": "BILLA"}, "geometry": {"type": "Point", "coordinates": [18.604705, 48.207243]}},
{"type": "Feature", "id": "m4-tMeD_htMXsF0MTRRTrlHkIg8=", "properties": {"ref": "84-241", "@spider": "billa_sk_dac", "addr:full": "Slovakia,Nitriansky kraj,Levice,Sv. Michala 5", "addr:street": "Sv. Michala 5", "addr:city": "Levice", "addr:state": "Nitriansky kraj", "addr:postcode": "934 01", "addr:country": "Slovakia", "name": "LEVICE", "phone": "0911, 880635", "website": "https://www.billa.sk/", "opening_hours": ["Po - Pi: 7:00 - 20:00, So: 7:00 - 18:00", "Ne: 8:00 - 18:00"], "brand": "BILLA"}, "geometry": {"type": "Point", "coordinates": [18.6068814, 48.2187611]}},
{"type": "Feature", "id": "F0eS5czlzz-shfE6d_Rr5oOrW-s=", "properties": {"ref": "84-413", "@spider": "billa_sk_dac", "addr:full": "Slovakia,Nitriansky kraj,\u017deliezovce,Mierov\u00e1 1990/43a", "addr:street": "Mierov\u00e1 1990/43a", "addr:city": "\u017deliezovce", "addr:state": "Nitriansky kraj", "addr:postcode": "937 01", "addr:country": "Slovakia", "name": "\u017dELIEZOVCE", "phone": "0903, 691469", "website": "https://www.billa.sk/", "opening_hours": ["Po - So: 7:00 - 20:00", "Ne: 8:00 - 20:00"], "brand": "BILLA"}, "geometry": {"type": "Point", "coordinates": [18.655374, 48.050082]}},
{"type": "Feature", "id": "NELhU5bzaOwYgIMyKTJL7DGpig8=", "properties": {"ref": "84-265", "@spider": "billa_sk_dac", "addr:full": "Slovakia,Tren\u010diansky kraj,Dubnica Nad V\u00e1hom,N\u00e1mestie Matice Slovenskej 1713/8", "addr:street": "N\u00e1mestie Matice Slovenskej 1713/8", "addr:city": "Dubnica Nad V\u00e1hom", "addr:state": "Tren\u010diansky kraj", "addr:postcode": "018 41", "addr:country": "Slovakia", "name": "DUBNICA NAD V\u00c1HOM", "phone": "0911, 077572", "website": "https://www.billa.sk/", "opening_hours": ["Po - So:7:00 - 21:00", "Ne:8:00 - 20:00"], "brand": "BILLA"}, "geometry": {"type": "Point", "coordinates": [18.173745, 48.9588734]}},
{"type": "Feature", "id": "QPfKfuGNU4UeWQ467akUCR2ws_Y=", "properties": {"ref": "84-279", "@spider": "billa_sk_dac", "addr:full": "Slovakia,Tren\u010diansky kraj,Ilava,\u013d.\u0160t\u00fara 2000/79", "addr:street": "\u013d.\u0160t\u00fara 2000/79", "addr:city": "Ilava", "addr:state": "Tren\u010diansky kraj", "addr:postcode": "019 01", "addr:country": "Slovakia", "name": "ILAVA", "phone": "None, None", "website": "https://www.billa.sk/", "brand": "BILLA"}, "geometry": {"type": "Point", "coordinates": [18.229556, 48.993847]}},
{"type": "Feature", "id": "CwWn9KLEHyrfEP5WDw96tE622Js=", "properties": {"ref": "84-244", "@spider": "billa_sk_dac", "addr:full": "Slovakia,Nitriansky kraj,\u0160t\u00farovo,Hlavn\u00e1 71", "addr:street": "Hlavn\u00e1 71", "addr:city": "\u0160t\u00farovo", "addr:state": "Nitriansky kraj", "addr:postcode": "943 01", "addr:country": "Slovakia", "name": "\u0160T\u00daROVO", "phone": "0911, 782394", "website": "https://www.billa.sk/", "opening_hours": ["Po - So: 7:00 - 21:00", "Ne: 8:00 - 21:00"], "brand": "BILLA"}, "geometry": {"type": "Point", "coordinates": [18.7150562, 47.7987147]}},
{"type": "Feature", "id": "tU8Kmd3i1P7rj7Aes0vfIVwzfCY=", "properties": {"ref": "84-223", "@spider": "billa_sk_dac", "addr:full": "Slovakia,Nitriansky kraj,\u0160t\u00farovo,Pet\u00f6fiho 507", "addr:street": "Pet\u00f6fiho 507", "addr:city": "\u0160t\u00farovo", "addr:state": "Nitriansky kraj", "addr:postcode": "943 01", "addr:country": "Slovakia", "name": "\u0160T\u00daROVO", "phone": "0903, 738223", "website": "https://www.billa.sk/", "opening_hours": ["Po - So: 7:00 - 20:00", "Ne: 8:00 - 19:00"], "brand": "BILLA"}, "geometry": {"type": "Point", "coordinates": [18.718328, 47.792944]}},
{"type": "Feature", "id": "NTnravGRi5iLF3aPbRmMFWRoA5A=", "properties": {"ref": "84-234", "@spider": "billa_sk_dac", "addr:full": "Slovakia,Nitriansky kraj,Sahy,N\u00e1m. B. Bart\u00f3ka 2", "addr:street": "N\u00e1m. B. Bart\u00f3ka 2", "addr:city": "Sahy", "addr:state": "Nitriansky kraj", "addr:postcode": "936 01", "addr:country": "Slovakia", "name": "\u0160AHY", "phone": "0911, 790234", "website": "https://www.billa.sk/", "opening_hours": ["Po - So: 7:00 - 21:00", "Ne: 8:00 - 19:00"], "brand": "BILLA"}, "geometry": {"type": "Point", "coordinates": [18.947636, 48.071607]}},
{"type": "Feature", "id": "HdkTV6BxCeHo6Q8JevEQnYyThsA=", "properties": {"ref": "84-318", "@spider": "billa_sk_dac", "addr:full": "Slovakia,Banskobystrick\u00fd kraj,Bansk\u00e1 \u0160tiavnica,Kri\u017eovatka 1", "addr:street": "Kri\u017eovatka 1", "addr:city": "Bansk\u00e1 \u0160tiavnica", "addr:state": "Banskobystrick\u00fd kraj", "addr:postcode": "969 01", "addr:country": "Slovakia", "name": "BANSKA STIAVNICA", "phone": "0910, 967318", "website": "https://www.billa.sk/", "opening_hours": ["Po - So: 7:00 - 21:00", "Ne: 8:00 - 20:00"], "brand": "BILLA"}, "geometry": {"type": "Point", "coordinates": [18.9074456, 48.4497762]}},
{"type": "Feature", "id": "D5-k5Zm7WaPQcQlEx7ljXLItuMk=", "properties": {"ref": "84-403", "@spider": "billa_sk_dac", "addr:full": "Slovakia,Banskobystrick\u00fd kraj,Ziar Nad Hronom,M.Chr\u00e1steka 799", "addr:street": "M.Chr\u00e1steka 799", "addr:city": "Ziar Nad Hronom", "addr:state": "Banskobystrick\u00fd kraj", "addr:postcode": "965 01", "addr:country": "Slovakia", "name": "ZIAR NAD HRONOM", "phone": "0903, 695403", "website": "https://www.billa.sk/", "opening_hours": ["Po - So: 7:00 - 20:00", "Ne: 8:00 - 18:00"], "brand": "BILLA"}, "geometry": {"type": "Point", "coordinates": [18.848259, 48.595705]}},
{"type": "Feature", "id": "mh1uztL5FSqaA9AaNmnZ6BdPyt0=", "properties": {"ref": "84-345", "@spider": "billa_sk_dac", "addr:full": "Slovakia,Banskobystrick\u00fd kraj,\u017diar Nad Hronom,Andreja Kme\u0165a 622/10", "addr:street": "Andreja Kme\u0165a 622/10", "addr:city": "\u017diar Nad Hronom", "addr:state": "Banskobystrick\u00fd kraj", "addr:postcode": "965 01", "addr:country": "Slovakia", "name": "ZIAR NAD HRONOM", "phone": "None, None", "website": "https://www.billa.sk/", "opening_hours": ["Po - So: 7:00 - 20:00", "Ne:8:00 - 18:00"], "brand": "BILLA"}, "geometry": {"type": "Point", "coordinates": [18.854575, 48.587974]}},
{"type": "Feature", "id": "bKXyULeKd1xTOpSpdSFfRhjWpCo=", "properties": {"ref": "84-231", "@spider": "billa_sk_dac", "addr:full": "Slovakia,Tren\u010diansky kraj,Handlov\u00e1,N\u00e1mestie Ban\u00edkov 19/A", "addr:street": "N\u00e1mestie Ban\u00edkov 19/A", "addr:city": "Handlov\u00e1", "addr:state": "Tren\u010diansky kraj", "addr:postcode": "972 51", "addr:country": "Slovakia", "name": "HANDLOVA", "phone": "0911, 922231", "website": "https://www.billa.sk/", "opening_hours": ["Po - So: 7:00 - 21:00", "Ne: 8:00 - 18:00"], "brand": "BILLA"}, "geometry": {"type": "Point", "coordinates": [18.7601763, 48.7295717]}},
{"type": "Feature", "id": "nTXwGFnhUzQJdOjBpnTc6Gm8KT4=", "properties": {"ref": "84-311", "@spider": "billa_sk_dac", "addr:full": "Slovakia,Tren\u010diansky kraj,P\u00fachov,Mudro\u0148ova 1868/14", "addr:street": "Mudro\u0148ova 1868/14", "addr:city": "P\u00fachov", "addr:state": "Tren\u010diansky kraj", "addr:postcode": "020 01", "addr:country": "Slovakia", "name": "P\u00daCHOV", "phone": "0903, 695311", "website": "https://www.billa.sk/", "opening_hours": ["Po - So: 7:00 - 20:00", "Ne: 8:00 - 20:00"], "brand": "BILLA"}, "geometry": {"type": "Point", "coordinates": [18.3298396, 49.123628]}},
{"type": "Feature", "id": "ORFqHYX90drHP0mhh2Mbgcu3B8k=", "properties": {"ref": "84-236", "@spider": "billa_sk_dac", "addr:full": "Slovakia,\u017dilinsk\u00fd kraj,Tur\u010dianske Teplice,Snp 552/180", "addr:street": "Snp 552/180", "addr:city": "Tur\u010dianske Teplice", "addr:state": "\u017dilinsk\u00fd kraj", "addr:postcode": "039 01", "addr:country": "Slovakia", "name": "TUR\u010cIANSKE TEPLICE", "phone": "0911, 432236", "website": "https://www.billa.sk/", "opening_hours": ["Po - So: 7:00 - 21:00", "Ne: 8:00 - 20:00"], "brand": "BILLA"}, "geometry": {"type": "Point", "coordinates": [18.860303, 48.864153]}},
{"type": "Feature", "id": "2YyVPFNpwn2fZioga50ErKc_b9M=", "properties": {"ref": "84-310", "@spider": "billa_sk_dac", "addr:full": "Slovakia,Banskobystrick\u00fd kraj,Zvolen,Pra\u017esk\u00e1 7880", "addr:street": "Pra\u017esk\u00e1 7880", "addr:city": "Zvolen", "addr:state": "Banskobystrick\u00fd kraj", "addr:postcode": "960 01", "addr:country": "Slovakia", "name": "ZVOLEN", "phone": "0903, 695310", "website": "https://www.billa.sk/", "opening_hours": ["Po - So: 7:00 - 20:00", "Ne: 8:00 - 19:00"], "brand": "BILLA"}, "geometry": {"type": "Point", "coordinates": [19.105072, 48.578424]}},
{"type": "Feature", "id": "dSquLKKZR_8SijdtGbFD_H0skzM=", "properties": {"ref": "84-330", "@spider": "billa_sk_dac", "addr:full": "Slovakia,Banskobystrick\u00fd kraj,Zvolen,N\u00e1mestie Snp 2497", "addr:street": "N\u00e1mestie Snp 2497", "addr:city": "Zvolen", "addr:state": "Banskobystrick\u00fd kraj", "addr:postcode": "960 01", "addr:country": "Slovakia", "name": "ZVOLEN-DELVITA", "phone": "0911, 432330", "website": "https://www.billa.sk/", "opening_hours": ["Po - Pi: 7:00 - 19:00, So: 7:00 - 14:00", "Ne: zatvoren\u00e9"], "brand": "BILLA"}, "geometry": {"type": "Point", "coordinates": [19.1269108, 48.5762494]}},
{"type": "Feature", "id": "bm7ccCqOCdnOvofAf3mwRgrNcko=", "properties": {"ref": "84-347", "@spider": "billa_sk_dac", "addr:full": "Slovakia,Banskobystrick\u00fd kraj,Zvolen,Sokolsk\u00e1 10017/117", "addr:street": "Sokolsk\u00e1 10017/117", "addr:city": "Zvolen", "addr:state": "Banskobystrick\u00fd kraj", "addr:postcode": "960 01", "addr:country": "Slovakia", "name": "ZVOLEN SOKOLSK\u00c1", "phone": "0910, 836607", "website": "https://www.billa.sk/", "opening_hours": ["Po - Pi:7:00 - 21:00", "Ne: 8:00 - 20:00"], "brand": "BILLA"}, "geometry": {"type": "Point", "coordinates": [19.150224, 48.5762]}},
{"type": "Feature", "id": "YNpclbPoU1OZ9UjuOYzLmMoTtMY=", "properties": {"ref": "84-322", "@spider": "billa_sk_dac", "addr:full": "Slovakia,\u017dilinsk\u00fd kraj,Byt\u010da,Hlavn\u00e1 1363", "addr:street": "Hlavn\u00e1 1363", "addr:city": "Byt\u010da", "addr:state": "\u017dilinsk\u00fd kraj", "addr:postcode": "014 01", "addr:country": "Slovakia", "name": "BYTCA", "phone": "0911, 578322", "website": "https://www.billa.sk/", "opening_hours": ["Po - So: 7:00 - 21:00", "Ne: 8:00 - 20:00"], "brand": "BILLA"}, "geometry": {"type": "Point", "coordinates": [18.5648168, 49.22277]}},
{"type": "Feature", "id": "XeXxQLGXpdZHwujp9zBMcqzMFyI=", "properties": {"ref": "84-317", "@spider": "billa_sk_dac", "addr:full": "Slovakia,Banskobystrick\u00fd kraj,Bansk\u00e1 Bystrica,Nov\u00e9 Kali\u0161te 14088/35", "addr:street": "Nov\u00e9 Kali\u0161te 14088/35", "addr:city": "Bansk\u00e1 Bystrica", "addr:state": "Banskobystrick\u00fd kraj", "addr:postcode": "974 01", "addr:country": "Slovakia", "name": "BANSKA BYSTRICA 3", "phone": "0911, 580317", "website": "https://www.billa.sk/", "opening_hours": ["Po - So: 7:00 - 21:00", "Ne: 8:00 - 20:00"], "brand": "BILLA"}, "geometry": {"type": "Point", "coordinates": [19.1227388, 48.7289364]}},
{"type": "Feature", "id": "pBbJqn0-BGDyoNXo3jFAiQaI0XA=", "properties": {"ref": "84-325", "@spider": "billa_sk_dac", "addr:full": "Slovakia,Banskobystrick\u00fd kraj,Bansk\u00e1 Bystrica,Robotn\u00edcka 2", "addr:street": "Robotn\u00edcka 2", "addr:city": "Bansk\u00e1 Bystrica", "addr:state": "Banskobystrick\u00fd kraj", "addr:postcode": "974 01", "addr:country": "Slovakia", "name": "BANSKA BYSTRICA PRIOR", "phone": "0911, 963307", "website": "https://www.billa.sk/", "opening_hours": ["Po - Pi: 7.00 - 19.00, So: 7:00 - 13:00", "Ne: zatvoren\u00e9"], "brand": "BILLA"}, "geometry": {"type": "Point", "coordinates": [19.154226, 48.738809]}},
{"type": "Feature", "id": "UrN0OfVQywKLFo-kJfudk9t7R_o=", "properties": {"ref": "84-346", "@spider": "billa_sk_dac", "addr:full": "Slovakia,Banskobystrick\u00fd kraj,Bansk\u00e1 Bystrica,29. Augusta 6189/37", "addr:street": "29. Augusta 6189/37", "addr:city": "Bansk\u00e1 Bystrica", "addr:state": "Banskobystrick\u00fd kraj", "addr:postcode": "974 01", "addr:country": "Slovakia", "name": "BANSK\u00c1 BYSTRICA TERMIN\u00c1L", "phone": "None, None", "website": "https://www.billa.sk/", "opening_hours": ["Po - Pi: 6:30 - 20:00", "So: 7:00 - 20:00", "Ne: 8:00 - 20:00"], "brand": "BILLA"}, "geometry": {"type": "Point", "coordinates": [19.159701, 48.734821]}},
{"type": "Feature", "id": "SSk4Le2Bkk_aFgfpjwZhzHk0u3U=", "properties": {"ref": "84-404", "@spider": "billa_sk_dac", "addr:full": "Slovakia,Banskobystrick\u00fd kraj,Ve\u013ek\u00fd Krt\u00ed\u0161,Lu\u010densk\u00e1 Cesta 88", "addr:street": "Lu\u010densk\u00e1 Cesta 88", "addr:city": "Ve\u013ek\u00fd Krt\u00ed\u0161", "addr:state": "Banskobystrick\u00fd kraj", "addr:postcode": "990 01", "addr:country": "Slovakia", "name": "VELKY KRTIS", "phone": "0903, 615404", "website": "https://www.billa.sk/", "opening_hours": ["Po - So: 7:00 - 20:00", "Ne: 8:00 - 18:00"], "brand": "BILLA"}, "geometry": {"type": "Point", "coordinates": [19.3464587, 48.2117642]}},
{"type": "Feature", "id": "pCISqQRDudlGv4UWQio8sPrgT4Q=", "properties": {"ref": "84-307", "@spider": "billa_sk_dac", "addr:full": "Slovakia,Banskobystrick\u00fd kraj,Bansk\u00e1 Bystrica,Tatransk\u00e1 2/A", "addr:street": "Tatransk\u00e1 2/A", "addr:city": "Bansk\u00e1 Bystrica", "addr:state": "Banskobystrick\u00fd kraj", "addr:postcode": "974 01", "addr:country": "Slovakia", "name": "BANSKA BYSTRICA II.", "phone": "0903, 288307", "website": "https://www.billa.sk/", "opening_hours": ["Po - Pi: 8:00 - 21:00", "So: 7:00 - 21:00", "Ne: 8:00 - 20:00"], "brand": "BILLA"}, "geometry": {"type": "Point", "coordinates": [19.1719141, 48.7556019]}},
{"type": "Feature", "id": "j0Ykp5MiucweeASmmCP_3jc70fM=", "properties": {"ref": "84-340", "@spider": "billa_sk_dac", "addr:full": "Slovakia,\u017dilinsk\u00fd kraj,\u017dilina,Platanov\u00e1 8813/1a", "addr:street": "Platanov\u00e1 8813/1a", "addr:city": "\u017dilina", "addr:state": "\u017dilinsk\u00fd kraj", "addr:postcode": "010 07", "addr:country": "Slovakia", "name": "\u017dILINA", "phone": "0911, 077573", "website": "https://www.billa.sk/", "opening_hours": ["Po - So:7:00 - 21:00", "Ne:8:00 - 20:00"], "brand": "BILLA"}, "geometry": {"type": "Point", "coordinates": [18.7418646, 49.1993734]}},
{"type": "Feature", "id": "sjt49SwQCG8gSFFLbHf1VYafImw=", "properties": {"ref": "84-327", "@spider": "billa_sk_dac", "addr:full": "Slovakia,\u017dilinsk\u00fd kraj,Martin,N\u00e1m. Snp 2", "addr:street": "N\u00e1m. Snp 2", "addr:city": "Martin", "addr:state": "\u017dilinsk\u00fd kraj", "addr:postcode": "036 01", "addr:country": "Slovakia", "name": "MARTIN-DELVITA", "phone": "0911, 322327", "website": "https://www.billa.sk/", "opening_hours": ["Po - So: 7:00 - 21:00", "Ne: 8:00 - 21:00"], "brand": "BILLA"}, "geometry": {"type": "Point", "coordinates": [18.9200911, 49.0623636]}},
{"type": "Feature", "id": "k_lmGxiXbvO0FWDxL9FaTrvA2Kk=", "properties": {"ref": "84-301", "@spider": "billa_sk_dac", "addr:full": "Slovakia,\u017dilinsk\u00fd kraj,Zilina,Ne\u0161porova 30", "addr:street": "Ne\u0161porova 30", "addr:city": "Zilina", "addr:state": "\u017dilinsk\u00fd kraj", "addr:postcode": "010 01", "addr:country": "Slovakia", "name": "ZILINA,NESPOROVA 30", "phone": "0903, 693301", "website": "https://www.billa.sk/", "opening_hours": ["Po - So: 7:00 - 21:00", "Ne: 8:00 - 20:00"], "brand": "BILLA"}, "geometry": {"type": "Point", "coordinates": [18.7382882, 49.2134802]}},
{"type": "Feature", "id": "xerc0oI2Sw6bKNgnyeyzYyx49l0=", "properties": {"ref": "84-348", "@spider": "billa_sk_dac", "addr:full": "Slovakia,\u017dilinsk\u00fd kraj,\u017dilina,Vysoko\u0161kol\u00e1kov 8069/52", "addr:street": "Vysoko\u0161kol\u00e1kov 8069/52", "addr:city": "\u017dilina", "addr:state": "\u017dilinsk\u00fd kraj", "addr:postcode": "010 08", "addr:country": "Slovakia", "name": "\u017dILINA OC DUBE\u0147", "phone": "None, None", "website": "https://www.billa.sk/", "opening_hours": ["Po - Ne: 8:00 - 21:00"], "brand": "BILLA"}, "geometry": {"type": "Point", "coordinates": [18.7515101, 49.211615]}},
{"type": "Feature", "id": "IwrXWTQziwLZTh6y510eMbqsO8U=", "properties": {"ref": "84-332", "@spider": "billa_sk_dac", "addr:full": "Slovakia,\u017dilinsk\u00fd kraj,Zilina,Ve\u013ek\u00e1 Okru\u017en\u00e1 59a-Aupark", "addr:street": "Ve\u013ek\u00e1 Okru\u017en\u00e1 59a-Aupark", "addr:city": "Zilina", "addr:state": "\u017dilinsk\u00fd kraj", "addr:postcode": "010 01", "addr:country": "Slovakia", "name": "ZILINA AUPARK", "phone": "0903, 693208", "website": "https://www.billa.sk/", "opening_hours": ["Po - So: 7:00 - 21:00", "Ne: 8:00 - 21:00"], "brand": "BILLA"}, "geometry": {"type": "Point", "coordinates": [18.740498, 49.220679]}},
{"type": "Feature", "id": "IxokgLXc49sK4Uk3LXYYC3ZRhX0=", "properties": {"ref": "84-350", "@spider": "billa_sk_dac", "addr:full": "Slovakia,\u017dilinsk\u00fd kraj,Martin,Pltn\u00edky 2", "addr:street": "Pltn\u00edky 2", "addr:city": "Martin", "addr:state": "\u017dilinsk\u00fd kraj", "addr:postcode": "036 01", "addr:country": "Slovakia", "name": "MARTIN OC TULIP", "phone": "None, None", "website": "https://www.billa.sk/", "opening_hours": ["Po - Ne: 8:00 - 21:00"], "brand": "BILLA"}, "geometry": {"type": "Point", "coordinates": [18.9241, 49.085301]}},
{"type": "Feature", "id": "qfw2w0r3m230ZOUlYY8ys18sHZI=", "properties": {"ref": "84-324", "@spider": "billa_sk_dac", "addr:full": "Slovakia,\u017dilinsk\u00fd kraj,Zilina,N\u00e1mestie Andreja Hlinku 7/B", "addr:street": "N\u00e1mestie Andreja Hlinku 7/B", "addr:city": "Zilina", "addr:state": "\u017dilinsk\u00fd kraj", "addr:postcode": "010 01", "addr:country": "Slovakia", "name": "ZILINA MIRAGE", "phone": "0911, 963305", "website": "https://www.billa.sk/", "opening_hours": ["Po - So: 7:00 - 21:00", "Ne: 8:00 - 21:00"], "brand": "BILLA"}, "geometry": {"type": "Point", "coordinates": [18.740574, 49.224979]}},
{"type": "Feature", "id": "_8-n2p_8vl8ecHQQS_jx1bwpeqY=", "properties": {"ref": "84-337", "@spider": "billa_sk_dac", "addr:full": "Slovakia,\u017dilinsk\u00fd kraj,\u017dilina,Obe\u017en\u00e1 5815", "addr:street": "Obe\u017en\u00e1 5815", "addr:city": "\u017dilina", "addr:state": "\u017dilinsk\u00fd kraj", "addr:postcode": "010 08", "addr:country": "Slovakia", "name": "\u017dILINA - VL\u010cINCE", "phone": "0911, 067479", "website": "https://www.billa.sk/", "opening_hours": ["Po - So:7:00 - 21:00", "8:00 - 20:00"], "brand": "BILLA"}, "geometry": {"type": "Point", "coordinates": [18.7654766, 49.2153854]}},
{"type": "Feature", "id": "Pcf4WjJxQiyaYXFNYsu_fDCATCI=", "properties": {"ref": "84-326", "@spider": "billa_sk_dac", "addr:full": "Slovakia,\u017dilinsk\u00fd kraj,Martin,Jilemnick\u00e9ho 10809/63/A", "addr:street": "Jilemnick\u00e9ho 10809/63/A", "addr:city": "Martin", "addr:state": "\u017dilinsk\u00fd kraj", "addr:postcode": "036 01", "addr:country": "Slovakia", "name": "MARTIN", "phone": "0910, 903018", "website": "https://www.billa.sk/", "opening_hours": ["Po - So: 7:00 - 20:00", "Ne: 8:00 - 20:00"], "brand": "BILLA"}, "geometry": {"type": "Point", "coordinates": [18.9323183, 49.0886915]}},
{"type": "Feature", "id": "sxEtKFryTjL8FcGBGKAh6EQ9cow=", "properties": {"ref": "84-316", "@spider": "billa_sk_dac", "addr:full": "Slovakia,\u017dilinsk\u00fd kraj,Kysuck\u00e9 Nov\u00e9 Mesto,\u010ceskoslovenskej Arm\u00e1dy 2578", "addr:street": "\u010ceskoslovenskej Arm\u00e1dy 2578", "addr:city": "Kysuck\u00e9 Nov\u00e9 Mesto", "addr:state": "\u017dilinsk\u00fd kraj", "addr:postcode": "024 01", "addr:country": "Slovakia", "name": "KYSUCKE NOVE MESTO", "phone": "0903, 738316", "website": "https://www.billa.sk/", "opening_hours": ["Po - So: 7:00 - 20:00", "Ne: 8:00 - 18:00"], "brand": "BILLA"}, "geometry": {"type": "Point", "coordinates": [18.7896394, 49.3067599]}},
{"type": "Feature", "id": "Ttk3ZIJeDwpq-yhM_aOecEqqRD4=", "properties": {"ref": "84-358", "@spider": "billa_sk_dac", "addr:full": "Slovakia,\u017dilinsk\u00fd kraj,Turzovka,Stred 606", "addr:street": "Stred 606", "addr:city": "Turzovka", "addr:state": "\u017dilinsk\u00fd kraj", "addr:postcode": "023 54", "addr:country": "Slovakia", "name": "TURZOVKA", "phone": "None, None", "website": "https://www.billa.sk/", "brand": "BILLA"}, "geometry": {"type": "Point", "coordinates": [18.62846, 49.404362]}},
{"type": "Feature", "id": "Vy5gkWrfB66Kb0Xa3hKb_IS0I-U=", "properties": {"ref": "84-309", "@spider": "billa_sk_dac", "addr:full": "Slovakia,\u017dilinsk\u00fd kraj,Cadca,Slovensk\u00fdch Dobrovo\u013en\u00edkov 2807", "addr:street": "Slovensk\u00fdch Dobrovo\u013en\u00edkov 2807", "addr:city": "Cadca", "addr:state": "\u017dilinsk\u00fd kraj", "addr:postcode": "022 01", "addr:country": "Slovakia", "name": "CADCA", "phone": "0903, 468309", "website": "https://www.billa.sk/", "opening_hours": ["Po - So: 7:00 - 20:00", "Ne: 8:00 - 17:00"], "brand": "BILLA"}, "geometry": {"type": "Point", "coordinates": [18.7902238, 49.4352446]}},
{"type": "Feature", "id": "iEsVS9ZxCg5KKRMf-d6ar8h8nEg=", "properties": {"ref": "84-410", "@spider": "billa_sk_dac", "addr:full": "Slovakia,Banskobystrick\u00fd kraj,Lu\u010denec,N\u00e1mestie Republiky 2243/1", "addr:street": "N\u00e1mestie Republiky 2243/1", "addr:city": "Lu\u010denec", "addr:state": "Banskobystrick\u00fd kraj", "addr:postcode": "984 01", "addr:country": "Slovakia", "name": "LUCENEC", "phone": "0911, 077751", "website": "https://www.billa.sk/", "opening_hours": ["Po - So:7:00 - 21:00", "Ne:8:00 - 21:00"], "brand": "BILLA"}, "geometry": {"type": "Point", "coordinates": [19.6615738, 48.3310209]}},
{"type": "Feature", "id": "D1kPTAWz8pN3Km-x6bf4E7c2Fqg=", "properties": {"ref": "84-401", "@spider": "billa_sk_dac", "addr:full": "Slovakia,Banskobystrick\u00fd kraj,Lu\u010denec,Fi\u013eakovsk\u00e1 Cesta 4591", "addr:street": "Fi\u013eakovsk\u00e1 Cesta 4591", "addr:city": "Lu\u010denec", "addr:state": "Banskobystrick\u00fd kraj", "addr:postcode": "984 01", "addr:country": "Slovakia", "name": "LU\u010cENEC", "phone": "0903, 695401", "website": "https://www.billa.sk/", "opening_hours": ["Po - So: 7:00 - 20:00", "Ne: 8:00 - 18:00"], "brand": "BILLA"}, "geometry": {"type": "Point", "coordinates": [19.6767684, 48.3258311]}},
{"type": "Feature", "id": "tY2O2Q0QplrtFeTv5aCipB5ZVx0=", "properties": {"ref": "84-308", "@spider": "billa_sk_dac", "addr:full": "Slovakia,\u017dilinsk\u00fd kraj,Ru\u017eomberok,Plavisko 4992", "addr:street": "Plavisko 4992", "addr:city": "Ru\u017eomberok", "addr:state": "\u017dilinsk\u00fd kraj", "addr:postcode": "034 01", "addr:country": "Slovakia", "name": "RUZOMBEROK", "phone": "0903, 468308", "website": "https://www.billa.sk/", "opening_hours": ["Po - So: 7:00 - 20:00", "Ne: 8:00 - 19:00"], "brand": "BILLA"}, "geometry": {"type": "Point", "coordinates": [19.304828, 49.078705]}},
{"type": "Feature", "id": "6HtsPvzWBzBWxMl8o8sbcKlfhww=", "properties": {"ref": "84-339", "@spider": "billa_sk_dac", "addr:full": "Slovakia,\u017dilinsk\u00fd kraj,Doln\u00fd Kub\u00edn,Na Sihoti 4", "addr:street": "Na Sihoti 4", "addr:city": "Doln\u00fd Kub\u00edn", "addr:state": "\u017dilinsk\u00fd kraj", "addr:postcode": "026 01", "addr:country": "Slovakia", "name": "DOLN\u00dd KUB\u00cdN", "phone": "0904, 551863", "website": "https://www.billa.sk/", "opening_hours": ["Po - So:7:00 - 20:00", "Ne:8:00 - 20:00"], "brand": "BILLA"}, "geometry": {"type": "Point", "coordinates": [19.289101, 49.210325]}},
{"type": "Feature", "id": "mhzxI6gD12O_X33LW6iD_TL_rYQ=", "properties": {"ref": "84-312", "@spider": "billa_sk_dac", "addr:full": "Slovakia,Banskobystrick\u00fd kraj,Brezno,Fra\u0148a Kr\u00e1\u013ea 10", "addr:street": "Fra\u0148a Kr\u00e1\u013ea 10", "addr:city": "Brezno", "addr:state": "Banskobystrick\u00fd kraj", "addr:postcode": "977 01", "addr:country": "Slovakia", "name": "BREZNO", "phone": "0903, 695312", "website": "https://www.billa.sk/", "opening_hours": ["Po - So: 7:00 - 20:00", "Ne: 8:00 - 19:00"], "brand": "BILLA"}, "geometry": {"type": "Point", "coordinates": [19.6315411, 48.8048696]}},
{"type": "Feature", "id": "hqBfDNOOJBhKaHRtCIBlkv6JEd4=", "properties": {"ref": "84-405", "@spider": "billa_sk_dac", "addr:full": "Slovakia,Banskobystrick\u00fd kraj,Polt\u00e1r,Ul. Slobody 771/6", "addr:street": "Ul. Slobody 771/6", "addr:city": "Polt\u00e1r", "addr:state": "Banskobystrick\u00fd kraj", "addr:postcode": "987 01", "addr:country": "Slovakia", "name": "POLTAR", "phone": "0903, 760142", "website": "https://www.billa.sk/", "opening_hours": ["Po - So: 7:00 - 20:00", "Ne: 8:00 - 20:00"], "brand": "BILLA"}, "geometry": {"type": "Point", "coordinates": [19.790374, 48.430533]}},
{"type": "Feature", "id": "R-odWKntYgHQwEnc05r97ymeIHc=", "properties": {"ref": "84-408", "@spider": "billa_sk_dac", "addr:full": "Slovakia,Banskobystrick\u00fd kraj,Fi\u013eakovo,N\u00e1m.Padl\u00fdch Hrdinov 1861", "addr:street": "N\u00e1m.Padl\u00fdch Hrdinov 1861", "addr:city": "Fi\u013eakovo", "addr:state": "Banskobystrick\u00fd kraj", "addr:postcode": "986 01", "addr:country": "Slovakia", "name": "FI\u013dAKOVO", "phone": "0911, 790408", "website": "https://www.billa.sk/", "opening_hours": ["Po - So: 7:00 - 20:00", "Ne: 8:00 - 18:00"], "brand": "BILLA"}, "geometry": {"type": "Point", "coordinates": [19.8252691, 48.2698435]}},
{"type": "Feature", "id": "x6u9K2qTBiKpq__v7gwTq3yBN3w=", "properties": {"ref": "84-304", "@spider": "billa_sk_dac", "addr:full": "Slovakia,\u017dilinsk\u00fd kraj,Lipt. Mikul\u00e1\u0161,Garbiarska 2585", "addr:street": "Garbiarska 2585", "addr:city": "Lipt. Mikul\u00e1\u0161", "addr:state": "\u017dilinsk\u00fd kraj", "addr:postcode": "031 01", "addr:country": "Slovakia", "name": "LIPTOVSKY MIKULAS,GARBIARSKA", "phone": "0903, 693304", "website": "https://www.billa.sk/", "opening_hours": ["Po - So: 7:00 - 20:00", "Ne: 8:00 - 19:00"], "brand": "BILLA"}, "geometry": {"type": "Point", "coordinates": [19.613095, 49.080856]}},
{"type": "Feature", "id": "kz-UkOrsBlQ55Klzlnkg82ksudg=", "properties": {"ref": "84-334", "@spider": "billa_sk_dac", "addr:full": "Slovakia,\u017dilinsk\u00fd kraj,Lipt. Mikul\u00e1\u0161,\u0160t\u00farova 1968-Prior", "addr:street": "\u0160t\u00farova 1968-Prior", "addr:city": "Lipt. Mikul\u00e1\u0161", "addr:state": "\u017dilinsk\u00fd kraj", "addr:postcode": "031 01", "addr:country": "Slovakia", "name": "LIPTOVSKY MIKULAS PRIOR", "phone": "0911, 821151", "website": "https://www.billa.sk/", "opening_hours": ["Po - Pi: 6:30 - 19:00, So: 7:00 - 16:00", "Ne: zatvoren\u00e9"], "brand": "BILLA"}, "geometry": {"type": "Point", "coordinates": [19.610379, 49.085785]}},
{"type": "Feature", "id": "tuuaRI_RvqbL7RxdKq7AhMyW_8Y=", "properties": {"ref": "84-328", "@spider": "billa_sk_dac", "addr:full": "Slovakia,\u017dilinsk\u00fd kraj,Lipt. Mikul\u00e1\u0161,Smre\u010dianska 664", "addr:street": "Smre\u010dianska 664", "addr:city": "Lipt. Mikul\u00e1\u0161", "addr:state": "\u017dilinsk\u00fd kraj", "addr:postcode": "031 04", "addr:country": "Slovakia", "name": "LIPTOVSKY MIKULAS-DELVITA", "phone": "0911, 432328", "website": "https://www.billa.sk/", "opening_hours": ["Po - So: 7:00 - 21:00", "Ne: 8:00 - 19:00"], "brand": "BILLA"}, "geometry": {"type": "Point", "coordinates": [19.651776, 49.07772]}},
{"type": "Feature", "id": "ZxxTww4WZYzhU3dhy3X_GFFAiQ0=", "properties": {"ref": "84-402", "@spider": "billa_sk_dac", "addr:full": "Slovakia,Banskobystrick\u00fd kraj,Rimavsk\u00e1 Sobota,Trhov\u00e9 N\u00e1mestie 3510", "addr:street": "Trhov\u00e9 N\u00e1mestie 3510", "addr:city": "Rimavsk\u00e1 Sobota", "addr:state": "Banskobystrick\u00fd kraj", "addr:postcode": "979 01", "addr:country": "Slovakia", "name": "RIMAVSKA SOBOTA", "phone": "0903, 541402", "website": "https://www.billa.sk/", "opening_hours": ["Po - So: 7:00 - 19:00", "Ne: 8:00 - 18:00"], "brand": "BILLA"}, "geometry": {"type": "Point", "coordinates": [20.0234649, 48.3800727]}},
{"type": "Feature", "id": "kp5nxWsBTU1Must1lW0ThJ8akc4=", "properties": {"ref": "84-360", "@spider": "billa_sk_dac", "addr:full": "Slovakia,\u017dilinsk\u00fd kraj,Trsten\u00e1,\u017delezni\u010diarov 1959/46", "addr:street": "\u017delezni\u010diarov 1959/46", "addr:city": "Trsten\u00e1", "addr:state": "\u017dilinsk\u00fd kraj", "addr:postcode": "028 01", "addr:country": "Slovakia", "name": "TRSTEN\u00c1", "phone": "None, None", "website": "https://www.billa.sk/", "brand": "BILLA"}, "geometry": {"type": "Point", "coordinates": [19.615006, 49.360841]}},
{"type": "Feature", "id": "uW1G4D8sq_3ublrmSLbTaI8v008=", "properties": {"ref": "84-315", "@spider": "billa_sk_dac", "addr:full": "Slovakia,Banskobystrick\u00fd kraj,Rev\u00faca,M. R. \u0160tef\u00e1nika 1346", "addr:street": "M. R. \u0160tef\u00e1nika 1346", "addr:city": "Rev\u00faca", "addr:state": "Banskobystrick\u00fd kraj", "addr:postcode": "050 01", "addr:country": "Slovakia", "name": "REV\u00daCA", "phone": "0903, 629315", "website": "https://www.billa.sk/", "opening_hours": ["Po - So: 7:00 - 20:00", "Ne: 8:00 - 20:00"], "brand": "BILLA"}, "geometry": {"type": "Point", "coordinates": [20.118835, 48.682705]}},
{"type": "Feature", "id": "8rAptOD0IP1d22bai3h6Zar4PiQ=", "properties": {"ref": "84-333", "@spider": "billa_sk_dac", "addr:full": "Slovakia,Pre\u0161ovsk\u00fd kraj,Svit,\u0160t\u00farova 988/104", "addr:street": "\u0160t\u00farova 988/104", "addr:city": "Svit", "addr:state": "Pre\u0161ovsk\u00fd kraj", "addr:postcode": "059 21", "addr:country": "Slovakia", "name": "SVIT", "phone": "0911, 748136", "website": "https://www.billa.sk/", "opening_hours": ["Po - So: 7:00 - 20:00", "Ne: 8:00 - 20:00"], "brand": "BILLA"}, "geometry": {"type": "Point", "coordinates": [20.200149, 49.05677]}},
{"type": "Feature", "id": "umj34PImQ3LEaLyGrnrFLZTSU6c=", "properties": {"ref": "84-359", "@spider": "billa_sk_dac", "addr:full": "Slovakia,Pre\u0161ovsk\u00fd kraj,Poprad,Dlh\u00e9 Hony 4588/1", "addr:street": "Dlh\u00e9 Hony 4588/1", "addr:city": "Poprad", "addr:state": "Pre\u0161ovsk\u00fd kraj", "addr:postcode": "058 01", "addr:country": "Slovakia", "name": "POPRAD MAX", "phone": "None, None", "website": "https://www.billa.sk/", "brand": "BILLA"}, "geometry": {"type": "Point", "coordinates": [20.290525, 49.049214]}},
{"type": "Feature", "id": "r6S9P8roPNumUJ39bm-ZLYAL2lE=", "properties": {"ref": "84-303", "@spider": "billa_sk_dac", "addr:full": "Slovakia,Pre\u0161ovsk\u00fd kraj,Poprad,Wolkerova 15", "addr:street": "Wolkerova 15", "addr:city": "Poprad", "addr:state": "Pre\u0161ovsk\u00fd kraj", "addr:postcode": "058 01", "addr:country": "Slovakia", "name": "POPRAD,WOLKEROVA", "phone": "0903, 693303", "website": "https://www.billa.sk/", "opening_hours": ["Po - Pi: 7:00 - 21:00", "So: 7:00 - 21:00", "Ne: 8:00 - 20:00"], "brand": "BILLA"}, "geometry": {"type": "Point", "coordinates": [20.289278, 49.059459]}},
{"type": "Feature", "id": "vjKqHvenF1LaWrXtNJdYcQnbvfs=", "properties": {"ref": "84-517", "@spider": "billa_sk_dac", "addr:full": "Slovakia,Ko\u0161ick\u00fd kraj,Ro\u017e\u0148ava,Aleja J\u00e1na Pavla Ii. 4048", "addr:street": "Aleja J\u00e1na Pavla Ii. 4048", "addr:city": "Ro\u017e\u0148ava", "addr:state": "Ko\u0161ick\u00fd kraj", "addr:postcode": "048 01", "addr:country": "Slovakia", "name": "RO\u017d\u0147AVA", "phone": "0911, 106966", "website": "https://www.billa.sk/", "opening_hours": ["Po - So: 7:00 - 20:00", "Ne: 8:00 - 20:00"], "brand": "BILLA"}, "geometry": {"type": "Point", "coordinates": [20.5364722, 48.6531002]}},
{"type": "Feature", "id": "0WOWaSyZrFA3ht24xtb36fWyrCI=", "properties": {"ref": "84-313", "@spider": "billa_sk_dac", "addr:full": "Slovakia,Pre\u0161ovsk\u00fd kraj,Ke\u017emarok,Garbiarska Ul.", "addr:street": "Garbiarska Ul.", "addr:city": "Ke\u017emarok", "addr:state": "Pre\u0161ovsk\u00fd kraj", "addr:postcode": "060 01", "addr:country": "Slovakia", "name": "KEZMAROK", "phone": "0903, 467313", "website": "https://www.billa.sk/", "opening_hours": ["Po - So: 7:00 - 20:00", "Ne: 8:00 - 19:00"], "brand": "BILLA"}, "geometry": {"type": "Point", "coordinates": [20.4257211, 49.1386695]}},
{"type": "Feature", "id": "SJ5oCm3y_L_oRqI9FIShl3WEs20=", "properties": {"ref": "84-515", "@spider": "billa_sk_dac", "addr:full": "Slovakia,Pre\u0161ovsk\u00fd kraj,Spisska Nova Ves,Elektr\u00e1rensk\u00e1 256/11", "addr:street": "Elektr\u00e1rensk\u00e1 256/11", "addr:city": "Spisska Nova Ves", "addr:state": "Pre\u0161ovsk\u00fd kraj", "addr:postcode": "052 01", "addr:country": "Slovakia", "name": "SPISSKA NOVA VES", "phone": "None, None", "website": "https://www.billa.sk/", "opening_hours": ["Po - So: 7:00 - 21:00", "Ne: 8:00 - 20:00"], "brand": "BILLA"}, "geometry": {"type": "Point", "coordinates": [20.562928, 48.944208]}},
{"type": "Feature", "id": "VEcHf3TnVpT_6I872JdTXQbX4M8=", "properties": {"ref": "84-520", "@spider": "billa_sk_dac", "addr:full": "Slovakia,Ko\u0161ick\u00fd kraj,Spi\u0161sk\u00e1 N/V,Mlynsk\u00e1 39", "addr:street": "Mlynsk\u00e1 39", "addr:city": "Spi\u0161sk\u00e1 N/V", "addr:state": "Ko\u0161ick\u00fd kraj", "addr:postcode": "052 01", "addr:country": "Slovakia", "name": "BILLA SLOWAKEI FIL. 520", "phone": "0903, 620924", "website": "https://www.billa.sk/", "opening_hours": ["Po - Pi: 8:00 - 20:00", "So: 8:00 - 20:00", "Ne: 9:00 - 20:00"], "brand": "BILLA"}, "geometry": {"type": "Point", "coordinates": [20.5752462, 48.9359617]}},
{"type": "Feature", "id": "GCZ2G89S7gkJEYbvJqbDHACDS1M=", "properties": {"ref": "84-314", "@spider": "billa_sk_dac", "addr:full": "Slovakia,Pre\u0161ovsk\u00fd kraj,Levo\u010da,\u017delezni\u010dn\u00fd Riadok 31", "addr:street": "\u017delezni\u010dn\u00fd Riadok 31", "addr:city": "Levo\u010da", "addr:state": "Pre\u0161ovsk\u00fd kraj", "addr:postcode": "054 01", "addr:country": "Slovakia", "name": "LEVOCA", "phone": "0903, 772314", "website": "https://www.billa.sk/", "opening_hours": ["Po - So: 7:00 - 21:00", "Ne: 8:00 - 20:00"], "brand": "BILLA"}, "geometry": {"type": "Point", "coordinates": [20.5875946, 49.0185228]}},
{"type": "Feature", "id": "pzxJVD4azWXENDICyAnzFqe-M9A=", "properties": {"ref": "84-516", "@spider": "billa_sk_dac", "addr:full": "Slovakia,Ko\u0161ick\u00fd kraj,Moldava Nad Bodvou,Hlavna Ulica 40", "addr:street": "Hlavna Ulica 40", "addr:city": "Moldava Nad Bodvou", "addr:state": "Ko\u0161ick\u00fd kraj", "addr:postcode": "045 01", "addr:country": "Slovakia", "name": "MOLDAVA NAD BODVOU", "phone": "0911, 436516", "website": "https://www.billa.sk/", "opening_hours": ["Po - So: 7:00 - 21:00", "Ne: 8:00 - 19:00"], "brand": "BILLA"}, "geometry": {"type": "Point", "coordinates": [21.001719, 48.612141]}},
{"type": "Feature", "id": "QNYvbllz08vTdajJ2pqFHKj4czQ=", "properties": {"ref": "84-501", "@spider": "billa_sk_dac", "addr:full": "Slovakia,Ko\u0161ick\u00fd kraj,Ko\u0161ice,Trieda Kvp 1", "addr:street": "Trieda Kvp 1", "addr:city": "Ko\u0161ice", "addr:state": "Ko\u0161ick\u00fd kraj", "addr:postcode": "040 01", "addr:country": "Slovakia", "name": "KOSICE,TRIEDA KVP", "phone": "0903, 695501", "website": "https://www.billa.sk/", "opening_hours": ["Po - So: 7:00 - 21:00", "Ne: 8:00 - 20:00"], "brand": "BILLA"}, "geometry": {"type": "Point", "coordinates": [21.2131378, 48.7155203]}},
{"type": "Feature", "id": "-iqq4pqLdpwprXKYSzjjIJKops4=", "properties": {"ref": "84-529", "@spider": "billa_sk_dac", "addr:full": "Slovakia,Ko\u0161ick\u00fd kraj,Ko\u0161ice,Moldavsk\u00e1 Cesta 32", "addr:street": "Moldavsk\u00e1 Cesta 32", "addr:city": "Ko\u0161ice", "addr:state": "Ko\u0161ick\u00fd kraj", "addr:postcode": "040 11", "addr:country": "Slovakia", "name": "KO\u0160ICE OC OPTIMA", "phone": "0911, 110668", "website": "https://www.billa.sk/", "opening_hours": ["Po - Ne: 8:00 - 21:00"], "brand": "BILLA"}, "geometry": {"type": "Point", "coordinates": [21.2362299, 48.695555]}},
{"type": "Feature", "id": "zOSjqzkq3cWDQVfgMHu0iRGBWyU=", "properties": {"ref": "84-524", "@spider": "billa_sk_dac", "addr:full": "Slovakia,Ko\u0161ick\u00fd kraj,Ko\u0161ice,Bardejovsk\u00e1 7", "addr:street": "Bardejovsk\u00e1 7", "addr:city": "Ko\u0161ice", "addr:state": "Ko\u0161ick\u00fd kraj", "addr:postcode": "040 11", "addr:country": "Slovakia", "name": "KOSICE BARDEJOVSKA", "phone": "0911, 067477", "website": "https://www.billa.sk/", "brand": "BILLA"}, "geometry": {"type": "Point", "coordinates": [21.2392855, 48.7062841]}},
{"type": "Feature", "id": "ZdgO6xYhsAjKKEv7CX-gAea1cm8=", "properties": {"ref": "84-503", "@spider": "billa_sk_dac", "addr:full": "Slovakia,Ko\u0161ick\u00fd kraj,Ko\u0161ice,N\u00e1m. J\u00e1na Math\u00e9ho 1", "addr:street": "N\u00e1m. J\u00e1na Math\u00e9ho 1", "addr:city": "Ko\u0161ice", "addr:state": "Ko\u0161ick\u00fd kraj", "addr:postcode": "040 01", "addr:country": "Slovakia", "name": "KOSICE-NADEJ, MM", "phone": "0911, 790503", "website": "https://www.billa.sk/", "opening_hours": ["Po - So: 7:00 - 21:00", "Ne: 8:00 - 20:00"], "brand": "BILLA"}, "geometry": {"type": "Point", "coordinates": [21.25176, 48.73912]}},
{"type": "Feature", "id": "Kyu89GR0SUrjFM5_kKYRBTAX_0g=", "properties": {"ref": "84-523", "@spider": "billa_sk_dac", "addr:full": "Slovakia,Ko\u0161ick\u00fd kraj,Ko\u0161ice,N\u00e1m. Oslobodite\u013eov 1-Aupark", "addr:street": "N\u00e1m. Oslobodite\u013eov 1-Aupark", "addr:city": "Ko\u0161ice", "addr:state": "Ko\u0161ick\u00fd kraj", "addr:postcode": "040 01", "addr:country": "Slovakia", "name": "KOSICE AUPARK", "phone": "0903, 761054", "website": "https://www.billa.sk/", "opening_hours": ["Po - So: 7:00 - 21:00", "Ne: 8:00 - 21:00"], "brand": "BILLA"}, "geometry": {"type": "Point", "coordinates": [21.2623332, 48.7175173]}},
{"type": "Feature", "id": "mzQbdYLNo8HWv7U98wUj-iSqfLw=", "properties": {"ref": "84-530", "@spider": "billa_sk_dac", "addr:full": "Slovakia,Ko\u0161ick\u00fd kraj,Ko\u0161ice,Americk\u00e1 Trieda 19", "addr:street": "Americk\u00e1 Trieda 19", "addr:city": "Ko\u0161ice", "addr:state": "Ko\u0161ick\u00fd kraj", "addr:postcode": "040 13", "addr:country": "Slovakia", "name": "KO\u0160ICE \u0164AHANOVCE", "phone": "0903, 691431", "website": "https://www.billa.sk/", "opening_hours": ["Po - So: 7:00 - 21:00", "Ne: 8:00 - 20:00"], "brand": "BILLA"}, "geometry": {"type": "Point", "coordinates": [21.267082, 48.755266]}},
{"type": "Feature", "id": "NVZMmf156F1Ibu3DFgAN_1zFf9Q=", "properties": {"ref": "84-509", "@spider": "billa_sk_dac", "addr:full": "Slovakia,Ko\u0161ick\u00fd kraj,Ko\u0161ice,Nad Jazerom 2730", "addr:street": "Nad Jazerom 2730", "addr:city": "Ko\u0161ice", "addr:state": "Ko\u0161ick\u00fd kraj", "addr:postcode": "040 12", "addr:country": "Slovakia", "name": "KO\u0160ICE", "phone": "0903, 731509", "website": "https://www.billa.sk/", "opening_hours": ["Po - So: 7:00 - 21:00", "Ne: 8:00 - 20:00"], "brand": "BILLA"}, "geometry": {"type": "Point", "coordinates": [21.294566, 48.680253]}},
{"type": "Feature", "id": "g21SznOt2ZPC0l6lY_nKMQh3o7E=", "properties": {"ref": "84-527", "@spider": "billa_sk_dac", "addr:full": "Slovakia,Pre\u0161ovsk\u00fd kraj,Pre\u0161ov,Prost\u011bjovsk\u00e1 8804/37a", "addr:street": "Prost\u011bjovsk\u00e1 8804/37a", "addr:city": "Pre\u0161ov", "addr:state": "Pre\u0161ovsk\u00fd kraj", "addr:postcode": "080 01", "addr:country": "Slovakia", "name": "PRE\u0160OV - KINO", "phone": "0910, 822350", "website": "https://www.billa.sk/", "opening_hours": ["Po - So:7:00 - 21:00", "Ne:8:00 - 20:00"], "brand": "BILLA"}, "geometry": {"type": "Point", "coordinates": [21.225392, 49.017547]}},
{"type": "Feature", "id": "44JpzCH2RPl9bCDe-S_AClQ5Icg=", "properties": {"ref": "84-502", "@spider": "billa_sk_dac", "addr:full": "Slovakia,Pre\u0161ovsk\u00fd kraj,Pre\u0161ov,\u010cergovsk\u00e1 1", "addr:street": "\u010cergovsk\u00e1 1", "addr:city": "Pre\u0161ov", "addr:state": "Pre\u0161ovsk\u00fd kraj", "addr:postcode": "080 01", "addr:country": "Slovakia", "name": "PRESOV", "phone": "0903, 695502", "website": "https://www.billa.sk/", "opening_hours": ["Po - So: 7:00 - 21:00", "Ne: 8:00 - 20:00"], "brand": "BILLA"}, "geometry": {"type": "Point", "coordinates": [21.2704284, 48.9968803]}},
{"type": "Feature", "id": "I1oezVChPSBSTpomyfj1BWIlKvQ=", "properties": {"ref": "84-507", "@spider": "billa_sk_dac", "addr:full": "Slovakia,Pre\u0161ovsk\u00fd kraj,Bardejov,Slovensk\u00e1 12", "addr:street": "Slovensk\u00e1 12", "addr:city": "Bardejov", "addr:state": "Pre\u0161ovsk\u00fd kraj", "addr:postcode": "085 01", "addr:country": "Slovakia", "name": "BARDEJOV", "phone": "0903, 538507", "website": "https://www.billa.sk/", "opening_hours": ["Po - So: 7:00 - 20:00", "Ne: 8:00 - 20:00"], "brand": "BILLA"}, "geometry": {"type": "Point", "coordinates": [21.2815895, 49.2962176]}},
{"type": "Feature", "id": "MkxVOb_4gN7tt5BZx6oGvD7r8Es=", "properties": {"ref": "84-506", "@spider": "billa_sk_dac", "addr:full": "Slovakia,Ko\u0161ick\u00fd kraj,Trebi\u0161ov,Berehovsk\u00e1 3618", "addr:street": "Berehovsk\u00e1 3618", "addr:city": "Trebi\u0161ov", "addr:state": "Ko\u0161ick\u00fd kraj", "addr:postcode": "075 01", "addr:country": "Slovakia", "name": "TREBISOV", "phone": "0903, 469506", "website": "https://www.billa.sk/", "opening_hours": ["Po - So: 7:00 - 21:00", "Ne: 8:00 - 20:00"], "brand": "BILLA"}, "geometry": {"type": "Point", "coordinates": [21.7192868, 48.6253764]}},
{"type": "Feature", "id": "eSWPmfUmeEp0qJ1OM3kHAHfeSOQ=", "properties": {"ref": "84-512", "@spider": "billa_sk_dac", "addr:full": "Slovakia,Pre\u0161ovsk\u00fd kraj,Vranov N/T,Hronsk\u00e9ho 2497/98", "addr:street": "Hronsk\u00e9ho 2497/98", "addr:city": "Vranov N/T", "addr:state": "Pre\u0161ovsk\u00fd kraj", "addr:postcode": "093 01", "addr:country": "Slovakia", "name": "VRANOV NAD TOPLOU", "phone": "0903, 773512", "website": "https://www.billa.sk/", "opening_hours": ["Po - So: 7:00 - 20:00", "Ne: 8:00 - 19:00"], "brand": "BILLA"}, "geometry": {"type": "Point", "coordinates": [21.6786487, 48.8878254]}},
{"type": "Feature", "id": "F2rshmitkKohZzoaojrY7EynqjQ=", "properties": {"ref": "84-513", "@spider": "billa_sk_dac", "addr:full": "Slovakia,Pre\u0161ovsk\u00fd kraj,Svidn\u00edk,Soviet. Hrdinov 764/100", "addr:street": "Soviet. Hrdinov 764/100", "addr:city": "Svidn\u00edk", "addr:state": "Pre\u0161ovsk\u00fd kraj", "addr:postcode": "089 01", "addr:country": "Slovakia", "name": "SVIDNIK", "phone": "0903, 483513", "website": "https://www.billa.sk/", "opening_hours": ["Po - So: 7:00 - 21:00", "Ne: 8:00 - 20:00"], "brand": "BILLA"}, "geometry": {"type": "Point", "coordinates": [21.5724445, 49.3126985]}},
{"type": "Feature", "id": "qNb3WYVi4y3_6UXeoroQFkzFchk=", "properties": {"ref": "84-522", "@spider": "billa_sk_dac", "addr:full": "Slovakia,Ko\u0161ick\u00fd kraj,Michalovce,J\u00e1na Holl\u00e9ho 7", "addr:street": "J\u00e1na Holl\u00e9ho 7", "addr:city": "Michalovce", "addr:state": "Ko\u0161ick\u00fd kraj", "addr:postcode": "071 01", "addr:country": "Slovakia", "name": "MICHALOVCE", "phone": "0911, 672040", "website": "https://www.billa.sk/", "opening_hours": ["Po - So: 7:00 - 20:00", "Ne: 8:00 - 20:00"], "brand": "BILLA"}, "geometry": {"type": "Point", "coordinates": [21.923078, 48.755356]}},
{"type": "Feature", "id": "q66Q32CwPB3w6rsdmB7eZGKypfg=", "properties": {"ref": "84-505", "@spider": "billa_sk_dac", "addr:full": "Slovakia,Pre\u0161ovsk\u00fd kraj,Humenn\u00e9,Laboreck\u00e1 68", "addr:street": "Laboreck\u00e1 68", "addr:city": "Humenn\u00e9", "addr:state": "Pre\u0161ovsk\u00fd kraj", "addr:postcode": "066 01", "addr:country": "Slovakia", "name": "HUMENNE,LABORECKA", "phone": "0903, 693505", "website": "https://www.billa.sk/", "opening_hours": ["Po - So: 7:00 - 20:00", "Ne: 8:00 - 20:00"], "brand": "BILLA"}, "geometry": {"type": "Point", "coordinates": [21.9133863, 48.9331864]}},
{"type": "Feature", "id": "zPqI-Xc4xM0Ko7VioEEsobqZyCg=", "properties": {"ref": "84-514", "@spider": "billa_sk_dac", "addr:full": "Slovakia,Pre\u0161ovsk\u00fd kraj,Snina,Stroj\u00e1rska 1833", "addr:street": "Stroj\u00e1rska 1833", "addr:city": "Snina", "addr:state": "Pre\u0161ovsk\u00fd kraj", "addr:postcode": "069 01", "addr:country": "Slovakia", "name": "SNINA", "phone": "0903, 467514", "website": "https://www.billa.sk/", "opening_hours": ["Po - So: 7:00 - 20:00", "Ne: 8:00 - 19:00"], "brand": "BILLA"}, "geometry": {"type": "Point", "coordinates": [22.1572943, 48.9872906]}}]}