[
{"ref": 0, "brand": "Magnit cosmetic", "addr_full": "г. Москва, ул. 1812 года, 12", "country": "Russia", "email": "info@magnit.ru", "phone": ["8 800 200-90-02"], "website": "https://magnitcosmetic.ru", "opening_hours": "09:00 - 22:00", "extras": {"@spider": "magnitcosmetic_dac"}},
{"ref": 1, "brand": "Magnit cosmetic", "addr_full": "г. Москва, ул. Абельмановская, 6", "country": "Russia", "email": "info@magnit.ru", "phone": ["8 800 200-90-02"], "website": "https://magnitcosmetic.ru", "opening_hours": "10:00 - 21:00", "extras": {"@spider": "magnitcosmetic_dac"}},
{"ref": 2, "brand": "Magnit cosmetic", "addr_full": "г. Москва, ул. Адмирала Лазарева, 40, помещение IV, комнаты 1,2,2а,3-45 на 1 этаже", "country": "Russia", "email": "info@magnit.ru", "phone": ["8 800 200-90-02"], "website": "https://magnitcosmetic.ru", "opening_hours": "10:00 - 22:00", "extras": {"@spider": "magnitcosmetic_dac"}},
{"ref": 3, "brand": "Magnit cosmetic", "addr_full": "г. Москва, ул. Азовская, 24", "country": "Russia", "email": "info@magnit.ru", "phone": ["8 800 200-90-02"], "website": "https://magnitcosmetic.ru", "opening_hours": "10:00 - 21:30", "extras": {"@spider": "magnitcosmetic_dac"}},
{"ref": 4, "brand": "Magnit cosmetic", "addr_full": "г. Москва, ул. Академика Скрябина, 14, корп 1, этаж 1, номера комнат: с 1 по 17, с 19 по 21, с 25 по 27, с 29 по 40 а", "country": "Russia", "email": "info@magnit.ru", "phone": ["8 800 200-90-02"], "website": "https://magnitcosmetic.ru", "opening_hours": "09:00 - 21:00", "extras": {"@spider": "magnitcosmetic_dac"}},
{"ref": 5, "brand": "Magnit cosmetic", "addr_full": "г. Москва, ул. Алма-Атинская, 7", "country": "Russia", "email": "info@magnit.ru", "phone": ["8 800 200-90-02"], "website": "https://magnitcosmetic.ru", "opening_hours": "10:00 - 21:30", "extras": {"@spider": "magnitcosmetic_dac"}},
{"ref": 6, "brand": "Magnit cosmetic", "addr_full": "г. Москва, ул. Бакунинская, 69, стр. 1, помещения №V комн.1, пом. VI комн. 1-4", "country": "Russia", "email": "info@magnit.ru", "phone": ["8 800 200-90-02"], "website": "https://magnitcosmetic.ru", "opening_hours": "10:00 - 22:00", "extras": {"@spider": "magnitcosmetic_dac"}},
{"ref": 7, "brand": "Magnit cosmetic", "addr_full": "г. Москва, проезд Батайский, 35, 1 этаж, номера комнат на поэтажном плане: 1,4-9,11,12,15,16", "country": "Russia", "email": "info@magnit.ru", "phone": ["8 800 200-90-02"], "website": "https://magnitcosmetic.ru", "opening_hours": "10:00 - 22:00", "extras": {"@spider": "magnitcosmetic_dac"}},
{"ref": 8, "brand": "Magnit cosmetic", "addr_full": "г. Москва, ул. Беловежская, 63", "country": "Russia", "email": "info@magnit.ru", "phone": ["8 800 200-90-02"], "website": "https://magnitcosmetic.ru", "opening_hours": "10:00 - 22:00", "extras": {"@spider": "magnitcosmetic_dac"}},
{"ref": 9, "brand": "Magnit cosmetic", "addr_full": "г. Москва, ул. Бориса Галушкина, 20, этаж 1", "country": "Russia", "email": "info@magnit.ru", "phone": ["8 800 200-90-02"], "website": "https://magnitcosmetic.ru", "opening_hours": "10:00 - 22:00", "extras": {"@spider": "magnitcosmetic_dac"}},
{"ref": 10, "brand": "Magnit cosmetic", "addr_full": "г. Москва, ул. Братиславская, 26, комнаты 1,2,3,3а, 5,6,7,8,8а,8б,8в,8г,8д,8е,9,9а,9б,9в,10б,10в,10г,10д,10е,10ж,10з,10и,10к,10л", "country": "Russia", "email": "info@magnit.ru", "phone": ["8 800 200-90-02"], "website": "https://magnitcosmetic.ru", "opening_hours": "10:00 - 21:30", "extras": {"@spider": "magnitcosmetic_dac"}},
{"ref": 11, "brand": "Magnit cosmetic", "addr_full": "г. Москва, ш. Варшавское, 128, корп. 2", "country": "Russia", "email": "info@magnit.ru", "phone": ["8 800 200-90-02"], "website": "https://magnitcosmetic.ru", "opening_hours": "09:00 - 21:00", "extras": {"@spider": "magnitcosmetic_dac"}},
{"ref": 12, "brand": "Magnit cosmetic", "addr_full": "г. Москва, ш. Варшавское, 141, корп. 9А", "country": "Russia", "email": "info@magnit.ru", "phone": ["8 800 200-90-02"], "website": "https://magnitcosmetic.ru", "opening_hours": "09:30 - 21:30", "extras": {"@spider": "magnitcosmetic_dac"}},
{"ref": 13, "brand": "Magnit cosmetic", "addr_full": "г. Москва, ул. Верхние Поля, 45, корп,3", "country": "Russia", "email": "info@magnit.ru", "phone": ["8 800 200-90-02"], "website": "https://magnitcosmetic.ru", "opening_hours": "10:00 - 22:00", "extras": {"@spider": "magnitcosmetic_dac"}},
{"ref": 14, "brand": "Magnit cosmetic", "addr_full": "г. Москва, ул. Владимирская 2-я, 44/10,помещение №III, ком. 1-10,г", "country": "Russia", "email": "info@magnit.ru", "phone": ["8 800 200-90-02"], "website": "https://magnitcosmetic.ru", "opening_hours": "10:00 - 22:00", "extras": {"@spider": "magnitcosmetic_dac"}},
{"ref": 15, "brand": "Magnit cosmetic", "addr_full": "г. Москва, ул. Владимирская 3-я, 27,Нежилые помещения:№I, ком. 1,3,4,11,12,13,14,15,16,17,18,19,20,32, помещение №VIII комната №1,", "country": "Russia", "email": "info@magnit.ru", "phone": ["8 800 200-90-02"], "website": "https://magnitcosmetic.ru", "opening_hours": "10:00 - 22:00", "extras": {"@spider": "magnitcosmetic_dac"}},
{"ref": 16, "brand": "Magnit cosmetic", "addr_full": "г. Москва, кв-л 30, двлд. 1, стр. 1", "country": "Russia", "email": "info@magnit.ru", "phone": ["8 800 200-90-02"], "website": "https://magnitcosmetic.ru", "opening_hours": "09:00 - 21:30", "extras": {"@spider": "magnitcosmetic_dac"}},
{"ref": 17, "brand": "Magnit cosmetic", "addr_full": "г. Москва, ул. Бориса Пастернака, 8, пом. 24/1, 25/1", "country": "Russia", "email": "info@magnit.ru", "phone": ["8 800 200-90-02"], "website": "https://magnitcosmetic.ru", "opening_hours": "", "extras": {"@spider": "magnitcosmetic_dac"}},
{"ref": 18, "brand": "Magnit cosmetic", "addr_full": "г. Москва, ул. Генерала Белова, 59", "country": "Russia", "email": "info@magnit.ru", "phone": ["8 800 200-90-02"], "website": "https://magnitcosmetic.ru", "opening_hours": "09:00 - 21:00", "extras": {"@spider": "magnitcosmetic_dac"}},
{"ref": 19, "brand": "Magnit cosmetic", "addr_full": "г. Москва, ул. Генерала Глаголева, 30", "country": "Russia", "email": "info@magnit.ru", "phone": ["8 800 200-90-02"], "website": "https://magnitcosmetic.ru", "opening_hours": "09:00 - 21:00", "extras": {"@spider": "magnitcosmetic_dac"}},
{"ref": 20, "brand": "Magnit cosmetic", "addr_full": "г. Москва, ул. Генерала Тюленева, 25а", "country": "Russia", "email": "info@magnit.ru", "phone": ["8 800 200-90-02"], "website": "https://magnitcosmetic.ru", "opening_hours": "09:30 - 21:00", "extras": {"@spider": "magnitcosmetic_dac"}},
{"ref": 21, "brand": "Magnit cosmetic", "addr_full": "г. Москва, ул. Героев Панфиловцев, 41, корп.1", "country": "Russia", "email": "info@magnit.ru", "phone": ["8 800 200-90-02"], "website": "https://magnitcosmetic.ru", "opening_hours": "10:00 - 22:00", "extras": {"@spider": "magnitcosmetic_dac"}},
{"ref": 22, "brand": "Magnit cosmetic", "addr_full": "г. Москва, ул. Гурьянова, 55, этаж 2, комната №4", "country": "Russia", "email": "info@magnit.ru", "phone": ["8 800 200-90-02"], "website": "https://magnitcosmetic.ru", "opening_hours": "09:00 - 21:00", "extras": {"@spider": "magnitcosmetic_dac"}},
{"ref": 23, "brand": "Magnit cosmetic", "addr_full": "г. Москва, ул. Декабристов, 10", "country": "Russia", "email": "info@magnit.ru", "phone": ["8 800 200-90-02"], "website": "https://magnitcosmetic.ru", "opening_hours": "09:30 - 22:00", "extras": {"@spider": "magnitcosmetic_dac"}},
{"ref": 24, "brand": "Magnit cosmetic", "addr_full": "г. Москва, ул. Нововатутинская 1-я, 1", "country": "Russia", "email": "info@magnit.ru", "phone": ["8 800 200-90-02"], "website": "https://magnitcosmetic.ru", "opening_hours": "10:00 - 22:00", "extras": {"@spider": "magnitcosmetic_dac"}},
{"ref": 25, "brand": "Magnit cosmetic", "addr_full": "г. Москва, б-р Дмитрия Донского, 16", "country": "Russia", "email": "info@magnit.ru", "phone": ["8 800 200-90-02"], "website": "https://magnitcosmetic.ru", "opening_hours": "09:30 - 21:30", "extras": {"@spider": "magnitcosmetic_dac"}},
{"ref": 26, "brand": "Magnit cosmetic", "addr_full": "г. Москва, ш. Дмитровское, 91, 1 этаж, пом. I", "country": "Russia", "email": "info@magnit.ru", "phone": ["8 800 200-90-02"], "website": "https://magnitcosmetic.ru", "opening_hours": "09:30 - 21:30", "extras": {"@spider": "magnitcosmetic_dac"}},
{"ref": 27, "brand": "Magnit cosmetic", "addr_full": "г. Москва, ул. Домодедовская, 1, корп. 1, подвал - комната Р; помещение II - комнаты с 1 по 16, 16а, с 17 по 19, 21,21а,21б,21в,22", "country": "Russia", "email": "info@magnit.ru", "phone": ["8 800 200-90-02"], "website": "https://magnitcosmetic.ru", "opening_hours": "10:00 - 22:00", "extras": {"@spider": "magnitcosmetic_dac"}},
{"ref": 28, "brand": "Magnit cosmetic", "addr_full": "г. Москва, ул. Дыбенко, 28, стр. 2, подвал, 1 этаж", "country": "Russia", "email": "info@magnit.ru", "phone": ["8 800 200-90-02"], "website": "https://magnitcosmetic.ru", "opening_hours": "09:30 - 22:00", "extras": {"@spider": "magnitcosmetic_dac"}},
{"ref": 29, "brand": "Magnit cosmetic", "addr_full": "г. Москва, ул. Зеленодольская, 28,корп.1, этаж:подвал,этаж1,номера на поэтажном плане:подвал,помещение I-комнаты с 1 по 25;этаж 1", "country": "Russia", "email": "info@magnit.ru", "phone": ["8 800 200-90-02"], "website": "https://magnitcosmetic.ru", "opening_hours": "10:00 - 21:30", "extras": {"@spider": "magnitcosmetic_dac"}},
{"ref": 30, "brand": "Magnit cosmetic", "addr_full": "г. Москва, ул. Зеленодольская, 9,корп.2, нежилые помещения, назначение:нежилое, этаж1, номера на поэтажном плане:этаж 1-помещениеII", "country": "Russia", "email": "info@magnit.ru", "phone": ["8 800 200-90-02"], "website": "https://magnitcosmetic.ru", "opening_hours": "10:00 - 21:30", "extras": {"@spider": "magnitcosmetic_dac"}},
{"ref": 31, "brand": "Magnit cosmetic", "addr_full": "г. Москва, ул. Знаменские Садки, 7А,стр.1", "country": "Russia", "email": "info@magnit.ru", "phone": ["8 800 200-90-02"], "website": "https://magnitcosmetic.ru", "opening_hours": "09:30 - 21:00", "extras": {"@spider": "magnitcosmetic_dac"}},
{"ref": 32, "brand": "Magnit cosmetic", "addr_full": "г. Москва, пл. Измайловская, 5, корп. 1", "country": "Russia", "email": "info@magnit.ru", "phone": ["8 800 200-90-02"], "website": "https://magnitcosmetic.ru", "opening_hours": "09:30 - 21:30", "extras": {"@spider": "magnitcosmetic_dac"}},
{"ref": 33, "brand": "Magnit cosmetic", "addr_full": "г. Москва, б-р Измайловский, 18, ком. К.Л.М.Н.О.П. Нежилое помещение №1,ком. В.1-19", "country": "Russia", "email": "info@magnit.ru", "phone": ["8 800 200-90-02"], "website": "https://magnitcosmetic.ru", "opening_hours": "10:00 - 21:30", "extras": {"@spider": "magnitcosmetic_dac"}},
{"ref": 34, "brand": "Magnit cosmetic", "addr_full": "г. Москва, ул. Изумрудная, 20, пом.I", "country": "Russia", "email": "info@magnit.ru", "phone": ["8 800 200-90-02"], "website": "https://magnitcosmetic.ru", "opening_hours": "10:00 - 22:00", "extras": {"@spider": "magnitcosmetic_dac"}},
{"ref": 35, "brand": "Magnit cosmetic", "addr_full": "г. Москва, проезд Институтский 1-й, 14 нежилое помещение, номера на поэтажном плане: этаж1, помещение3-комнаты 1,2,3,4,5,6,7,8,9,11,13", "country": "Russia", "email": "info@magnit.ru", "phone": ["8 800 200-90-02"], "website": "https://magnitcosmetic.ru", "opening_hours": "09:30 - 21:30", "extras": {"@spider": "magnitcosmetic_dac"}},
{"ref": 36, "brand": "Magnit cosmetic", "addr_full": "г. Москва, ул. Кантемировская, 6", "country": "Russia", "email": "info@magnit.ru", "phone": ["8 800 200-90-02"], "website": "https://magnitcosmetic.ru", "opening_hours": "09:30 - 21:30", "extras": {"@spider": "magnitcosmetic_dac"}},
{"ref": 37, "brand": "Magnit cosmetic", "addr_full": "г. Москва, ул. Карачаровская 2-я, 1, строен. 1, неж. пом. с кад. номерами: 77:04:0002001:7614; 77:04:0002001:7615; 77:04:0002001:7616", "country": "Russia", "email": "info@magnit.ru", "phone": ["8 800 200-90-02"], "website": "https://magnitcosmetic.ru", "opening_hours": "09:00 - 21:00", "extras": {"@spider": "magnitcosmetic_dac"}},
{"ref": 38, "brand": "Magnit cosmetic", "addr_full": "г. Москва, ул. Касимовская, 22А", "country": "Russia", "email": "info@magnit.ru", "phone": ["8 800 200-90-02"], "website": "https://magnitcosmetic.ru", "opening_hours": "09:30 - 21:30", "extras": {"@spider": "magnitcosmetic_dac"}},
{"ref": 39, "brand": "Magnit cosmetic", "addr_full": "г. Москва, ш. Каширское, 142, корп. 1, этаж 1", "country": "Russia", "email": "info@magnit.ru", "phone": ["8 800 200-90-02"], "website": "https://magnitcosmetic.ru", "opening_hours": "10:00 - 22:00", "extras": {"@spider": "magnitcosmetic_dac"}},
{"ref": 40, "brand": "Magnit cosmetic", "addr_full": "г. Москва, рп. Киевский, 23Б", "country": "Russia", "email": "info@magnit.ru", "phone": ["8 800 200-90-02"], "website": "https://magnitcosmetic.ru", "opening_hours": "", "extras": {"@spider": "magnitcosmetic_dac"}},
{"ref": 41, "brand": "Magnit cosmetic", "addr_full": "г. Москва, ул. Кожуховская 6-я, 6, нежилое помещение", "country": "Russia", "email": "info@magnit.ru", "phone": ["8 800 200-90-02"], "website": "https://magnitcosmetic.ru", "opening_hours": "10:00 - 21:00", "extras": {"@spider": "magnitcosmetic_dac"}},
{"ref": 42, "brand": "Magnit cosmetic", "addr_full": "г. Москва, ул. Коломенская, 17,помещение I", "country": "Russia", "email": "info@magnit.ru", "phone": ["8 800 200-90-02"], "website": "https://magnitcosmetic.ru", "opening_hours": "09:00 - 21:00", "extras": {"@spider": "magnitcosmetic_dac"}},
{"ref": 43, "brand": "Magnit cosmetic", "addr_full": "г. Москва, ул. Краснодонская, 1", "country": "Russia", "email": "info@magnit.ru", "phone": ["8 800 200-90-02"], "website": "https://magnitcosmetic.ru", "opening_hours": "10:00 - 22:00", "extras": {"@spider": "magnitcosmetic_dac"}},
{"ref": 44, "brand": "Magnit cosmetic", "addr_full": "г. Москва, пр-кт Ленинский, 64/2", "country": "Russia", "email": "info@magnit.ru", "phone": ["8 800 200-90-02"], "website": "https://magnitcosmetic.ru", "opening_hours": "10:00 - 22:00", "extras": {"@spider": "magnitcosmetic_dac"}},
{"ref": 45, "brand": "Magnit cosmetic", "addr_full": "г. Москва, пр-кт Лермонтовский, 6, помещения №3,3а,3б,3в, расположенные на первом этаже здания в пом. V", "country": "Russia", "email": "info@magnit.ru", "phone": ["8 800 200-90-02"], "website": "https://magnitcosmetic.ru", "opening_hours": "10:00 - 21:00", "extras": {"@spider": "magnitcosmetic_dac"}},
{"ref": 46, "brand": "Magnit cosmetic", "addr_full": "г. Москва, ул. Лескова, 26а,пом. №1,ком. №№1,2,3,4", "country": "Russia", "email": "info@magnit.ru", "phone": ["8 800 200-90-02"], "website": "https://magnitcosmetic.ru", "opening_hours": "09:30 - 21:30", "extras": {"@spider": "magnitcosmetic_dac"}},
{"ref": 47, "brand": "Magnit cosmetic", "addr_full": "г. Москва, ул. Лефортовский Вал, 7, помещение II - комнаты с 1 по 17", "country": "Russia", "email": "info@magnit.ru", "phone": ["8 800 200-90-02"], "website": "https://magnitcosmetic.ru", "opening_hours": "10:00 - 21:00", "extras": {"@spider": "magnitcosmetic_dac"}},
{"ref": 48, "brand": "Magnit cosmetic", "addr_full": "г. Москва, ул. Люблинская, 61, стр. 1", "country": "Russia", "email": "info@magnit.ru", "phone": ["8 800 200-90-02"], "website": "https://magnitcosmetic.ru", "opening_hours": "10:00 - 22:00", "extras": {"@spider": "magnitcosmetic_dac"}},
{"ref": 49, "brand": "Magnit cosmetic", "addr_full": "г. Москва, ул. Маршала Баграмяна, 5", "country": "Russia", "email": "info@magnit.ru", "phone": ["8 800 200-90-02"], "website": "https://magnitcosmetic.ru", "opening_hours": "10:00 - 22:00", "extras": {"@spider": "magnitcosmetic_dac"}},
{"ref": 50, "brand": "Magnit cosmetic", "addr_full": "г. Москва, ул. Маршала Захарова, 2", "country": "Russia", "email": "info@magnit.ru", "phone": ["8 800 200-90-02"], "website": "https://magnitcosmetic.ru", "opening_hours": "10:00 - 21:30", "extras": {"@spider": "magnitcosmetic_dac"}},
{"ref": 51, "brand": "Magnit cosmetic", "addr_full": "г. Москва, б-р Маршала Рокоссовского, 5, стр. 1, нежилое помещение №V, комнаты 1-9,12-16, нежилое помещение №IV, комнаты 1-3,пом. V", "country": "Russia", "email": "info@magnit.ru", "phone": ["8 800 200-90-02"], "website": "https://magnitcosmetic.ru", "opening_hours": "10:00 - 21:30", "extras": {"@spider": "magnitcosmetic_dac"}},
{"ref": 52, "brand": "Magnit cosmetic", "addr_full": "г. Москва, ул. Миклухо-Маклая, 36А", "country": "Russia", "email": "info@magnit.ru", "phone": ["8 800 200-90-02"], "website": "https://magnitcosmetic.ru", "opening_hours": "10:00 - 22:00", "extras": {"@spider": "magnitcosmetic_dac"}},
{"ref": 53, "brand": "Magnit cosmetic", "addr_full": "г. Москва, ул. Молостовых, 17", "country": "Russia", "email": "info@magnit.ru", "phone": ["8 800 200-90-02"], "website": "https://magnitcosmetic.ru", "opening_hours": "10:00 - 22:00", "extras": {"@spider": "magnitcosmetic_dac"}},
{"ref": 54, "brand": "Magnit cosmetic", "addr_full": "г. Москва, ул. Молостовых, 3 А :1 этаж Помещения I комнаты 1,2,3,3а,5,6,7,8,9,10,11,12,13,14,15,16,17,18,19,20,20а,20б,21,22,", "country": "Russia", "email": "info@magnit.ru", "phone": ["8 800 200-90-02"], "website": "https://magnitcosmetic.ru", "opening_hours": "09:00 - 22:00", "extras": {"@spider": "magnitcosmetic_dac"}},
{"ref": 55, "brand": "Magnit cosmetic", "addr_full": "г. Москва, ул. Бирюлёвская, 5,1 1 эт.,пом.1.ком.1-6.8б.8в.пом.II.ком.1-6.6а.6б.6в.6г.6д.7.8.8а.9-18.19-25.", "country": "Russia", "email": "info@magnit.ru", "phone": ["8 800 200-90-02"], "website": "https://magnitcosmetic.ru", "opening_hours": "10:00 - 22:00", "extras": {"@spider": "magnitcosmetic_dac"}},
{"ref": 56, "brand": "Magnit cosmetic", "addr_full": "г. Москва, ул. Велозаводская, 3/2,1", "country": "Russia", "email": "info@magnit.ru", "phone": ["8 800 200-90-02"], "website": "https://magnitcosmetic.ru", "opening_hours": "10:00 - 21:30", "extras": {"@spider": "magnitcosmetic_dac"}},
{"ref": 57, "brand": "Magnit cosmetic", "addr_full": "г. Москва, ул. Вешняковская, 39г", "country": "Russia", "email": "info@magnit.ru", "phone": ["8 800 200-90-02"], "website": "https://magnitcosmetic.ru", "opening_hours": "10:00 - 22:00", "extras": {"@spider": "magnitcosmetic_dac"}},
{"ref": 58, "brand": "Magnit cosmetic", "addr_full": "г. Москва, ул. Гарибальди, 4г", "country": "Russia", "email": "info@magnit.ru", "phone": ["8 800 200-90-02"], "website": "https://magnitcosmetic.ru", "opening_hours": "10:00 - 22:00", "extras": {"@spider": "magnitcosmetic_dac"}},
{"ref": 59, "brand": "Magnit cosmetic", "addr_full": "г. Москва, ул. Гончарова, 6", "country": "Russia", "email": "info@magnit.ru", "phone": ["8 800 200-90-02"], "website": "https://magnitcosmetic.ru", "opening_hours": "10:00 - 22:00", "extras": {"@spider": "magnitcosmetic_dac"}},
{"ref": 60, "brand": "Magnit cosmetic", "addr_full": "г. Москва, аллея Долгопрудная, 15, корп. 4", "country": "Russia", "email": "info@magnit.ru", "phone": ["8 800 200-90-02"], "website": "https://magnitcosmetic.ru", "opening_hours": "", "extras": {"@spider": "magnitcosmetic_dac"}},
{"ref": 61, "brand": "Magnit cosmetic", "addr_full": "г. Москва, ул. Дыбенко, 44", "country": "Russia", "email": "info@magnit.ru", "phone": ["8 800 200-90-02"], "website": "https://magnitcosmetic.ru", "opening_hours": "09:00 - 21:00", "extras": {"@spider": "magnitcosmetic_dac"}},
{"ref": 62, "brand": "Magnit cosmetic", "addr_full": "г. Москва, ул. Корнейчука, 53", "country": "Russia", "email": "info@magnit.ru", "phone": ["8 800 200-90-02"], "website": "https://magnitcosmetic.ru", "opening_hours": "09:00 - 21:00", "extras": {"@spider": "magnitcosmetic_dac"}},
{"ref": 63, "brand": "Magnit cosmetic", "addr_full": "г. Москва, ш. Коровинское, 19", "country": "Russia", "email": "info@magnit.ru", "phone": ["8 800 200-90-02"], "website": "https://magnitcosmetic.ru", "opening_hours": "10:00 - 22:00", "extras": {"@spider": "magnitcosmetic_dac"}},
{"ref": 64, "brand": "Magnit cosmetic", "addr_full": "г. Москва, ул. Краснобогатырская, 77, этаж 1 помещение IX комнаты 1.2.3.3а.4.4а.5-8", "country": "Russia", "email": "info@magnit.ru", "phone": ["8 800 200-90-02"], "website": "https://magnitcosmetic.ru", "opening_hours": "10:00 - 21:30", "extras": {"@spider": "magnitcosmetic_dac"}},
{"ref": 65, "brand": "Magnit cosmetic", "addr_full": "г. Москва, ул. Куликовская, 9", "country": "Russia", "email": "info@magnit.ru", "phone": ["8 800 200-90-02"], "website": "https://magnitcosmetic.ru", "opening_hours": "", "extras": {"@spider": "magnitcosmetic_dac"}},
{"ref": 66, "brand": "Magnit cosmetic", "addr_full": "г. Москва, ул. Липчанского, 4 к. 2, нежилые помещения №1,2,3,4,5,6,7,8,9,10,11,12, общей площадью 419,7 кв.м.,", "country": "Russia", "email": "info@magnit.ru", "phone": ["8 800 200-90-02"], "website": "https://magnitcosmetic.ru", "opening_hours": "", "extras": {"@spider": "magnitcosmetic_dac"}},
{"ref": 67, "brand": "Magnit cosmetic", "addr_full": "г. Москва, ул. Лухмановская, 24а", "country": "Russia", "email": "info@magnit.ru", "phone": ["8 800 200-90-02"], "website": "https://magnitcosmetic.ru", "opening_hours": "10:00 - 22:00", "extras": {"@spider": "magnitcosmetic_dac"}},
{"ref": 68, "brand": "Magnit cosmetic", "addr_full": "г. Москва, ул. Масловка В., 2", "country": "Russia", "email": "info@magnit.ru", "phone": ["8 800 200-90-02"], "website": "https://magnitcosmetic.ru", "opening_hours": "09:00 - 21:00", "extras": {"@spider": "magnitcosmetic_dac"}},
{"ref": 69, "brand": "Magnit cosmetic", "addr_full": "г. Москва, проезд Мукомольный, 9. корп.1 ком.3-9.9а.10.15.16.17.26.26а", "country": "Russia", "email": "info@magnit.ru", "phone": ["8 800 200-90-02"], "website": "https://magnitcosmetic.ru", "opening_hours": "10:00 - 22:00", "extras": {"@spider": "magnitcosmetic_dac"}},
{"ref": 70, "brand": "Magnit cosmetic", "addr_full": "г. Москва, ул. Нагорная, 37", "country": "Russia", "email": "info@magnit.ru", "phone": ["8 800 200-90-02"], "website": "https://magnitcosmetic.ru", "opening_hours": "", "extras": {"@spider": "magnitcosmetic_dac"}},
{"ref": 71, "brand": "Magnit cosmetic", "addr_full": "г. Москва, ул. Первомайская, 126", "country": "Russia", "email": "info@magnit.ru", "phone": ["8 800 200-90-02"], "website": "https://magnitcosmetic.ru", "opening_hours": "10:00 - 22:00", "extras": {"@spider": "magnitcosmetic_dac"}},
{"ref": 72, "brand": "Magnit cosmetic", "addr_full": "г. Москва, ул. Плющева, 14", "country": "Russia", "email": "info@magnit.ru", "phone": ["8 800 200-90-02"], "website": "https://magnitcosmetic.ru", "opening_hours": "10:00 - 22:00", "extras": {"@spider": "magnitcosmetic_dac"}},
{"ref": 73, "brand": "Magnit cosmetic", "addr_full": "г. Москва, ул. Производственная, 10, 1", "country": "Russia", "email": "info@magnit.ru", "phone": ["8 800 200-90-02"], "website": "https://magnitcosmetic.ru", "opening_hours": "10:00 - 22:00", "extras": {"@spider": "magnitcosmetic_dac"}},
{"ref": 74, "brand": "Magnit cosmetic", "addr_full": "г. Москва, ул. Сухонская, 7а", "country": "Russia", "email": "info@magnit.ru", "phone": ["8 800 200-90-02"], "website": "https://magnitcosmetic.ru", "opening_hours": "09:30 - 22:00", "extras": {"@spider": "magnitcosmetic_dac"}},
{"ref": 75, "brand": "Magnit cosmetic", "addr_full": "г. Москва, ул. Шоссейная, 13", "country": "Russia", "email": "info@magnit.ru", "phone": ["8 800 200-90-02"], "website": "https://magnitcosmetic.ru", "opening_hours": "", "extras": {"@spider": "magnitcosmetic_dac"}},
{"ref": 76, "brand": "Magnit cosmetic", "addr_full": "г. Москва, ул. Мурановская, 6, этаж 1", "country": "Russia", "email": "info@magnit.ru", "phone": ["8 800 200-90-02"], "website": "https://magnitcosmetic.ru", "opening_hours": "09:30 - 21:30", "extras": {"@spider": "magnitcosmetic_dac"}},
{"ref": 77, "brand": "Magnit cosmetic", "addr_full": "г. Москва, ул. Мусы Джалиля, 36, корп. 3", "country": "Russia", "email": "info@magnit.ru", "phone": ["8 800 200-90-02"], "website": "https://magnitcosmetic.ru", "opening_hours": "10:00 - 22:00", "extras": {"@spider": "magnitcosmetic_dac"}},
{"ref": 78, "brand": "Magnit cosmetic", "addr_full": "г. Москва, ул. Мясищева, 2, строение 1", "country": "Russia", "email": "info@magnit.ru", "phone": ["8 800 200-90-02"], "website": "https://magnitcosmetic.ru", "opening_hours": "09:00 - 23:00", "extras": {"@spider": "magnitcosmetic_dac"}},
{"ref": 79, "brand": "Magnit cosmetic", "addr_full": "г. Москва, проезд Новомихалковский 3-й, 9,пом. III ком. 1-4,6-11,11а,12-14,17-20", "country": "Russia", "email": "info@magnit.ru", "phone": ["8 800 200-90-02"], "website": "https://magnitcosmetic.ru", "opening_hours": "09:30 - 21:30", "extras": {"@spider": "magnitcosmetic_dac"}},
{"ref": 80, "brand": "Magnit cosmetic", "addr_full": "г. Москва, ул. Новопетровская, 14,1 этаж, Помещение №I, комнаты №№1,1а,1б,1в,1г,1д,2,3,4,25,27", "country": "Russia", "email": "info@magnit.ru", "phone": ["8 800 200-90-02"], "website": "https://magnitcosmetic.ru", "opening_hours": "10:00 - 22:00", "extras": {"@spider": "magnitcosmetic_dac"}},
{"ref": 81, "brand": "Magnit cosmetic", "addr_full": "г. Москва, б-р Новочеркасский, 51,нежилое помещение №I, ком. №2,8, 27-29", "country": "Russia", "email": "info@magnit.ru", "phone": ["8 800 200-90-02"], "website": "https://magnitcosmetic.ru", "opening_hours": "09:30 - 21:30", "extras": {"@spider": "magnitcosmetic_dac"}},
{"ref": 82, "brand": "Magnit cosmetic", "addr_full": "г. Москва, ш. Открытое, 21,4", "country": "Russia", "email": "info@magnit.ru", "phone": ["8 800 200-90-02"], "website": "https://magnitcosmetic.ru", "opening_hours": "09:30 - 21:30", "extras": {"@spider": "magnitcosmetic_dac"}},
{"ref": 83, "brand": "Magnit cosmetic", "addr_full": "г. Москва, пер. Очаковский 1-й, 10", "country": "Russia", "email": "info@magnit.ru", "phone": ["8 800 200-90-02"], "website": "https://magnitcosmetic.ru", "opening_hours": "09:00 - 22:00", "extras": {"@spider": "magnitcosmetic_dac"}},
{"ref": 84, "brand": "Magnit cosmetic", "addr_full": "г. Москва, ул. Парковая 3-я, 55, ком.1-5,5а,6-13, неж.пом IV", "country": "Russia", "email": "info@magnit.ru", "phone": ["8 800 200-90-02"], "website": "https://magnitcosmetic.ru", "opening_hours": "10:00 - 21:30", "extras": {"@spider": "magnitcosmetic_dac"}},
{"ref": 85, "brand": "Magnit cosmetic", "addr_full": "г. Москва, ул. Паустовского, 5", "country": "Russia", "email": "info@magnit.ru", "phone": ["8 800 200-90-02"], "website": "https://magnitcosmetic.ru", "opening_hours": "10:00 - 21:30", "extras": {"@spider": "magnitcosmetic_dac"}},
{"ref": 86, "brand": "Magnit cosmetic", "addr_full": "г. Москва, д. Горчаково, ул. Школьная, 1а", "country": "Russia", "email": "info@magnit.ru", "phone": ["8 800 200-90-02"], "website": "https://magnitcosmetic.ru", "opening_hours": "", "extras": {"@spider": "magnitcosmetic_dac"}},
{"ref": 87, "brand": "Magnit cosmetic", "addr_full": "г. Москва, ул. Перерва, 38,нежилое помещение №1, ком. 12,73,74,75,76, часть комнаты №7, часть комнаты №13, часть комнаты №72", "country": "Russia", "email": "info@magnit.ru", "phone": ["8 800 200-90-02"], "website": "https://magnitcosmetic.ru", "opening_hours": "10:00 - 22:00", "extras": {"@spider": "magnitcosmetic_dac"}},
{"ref": 88, "brand": "Magnit cosmetic", "addr_full": "г. Москва, проезд Погонный, 3А, помещение ХХХIV комнаты 1,2; помещение ХХХII комната №2", "country": "Russia", "email": "info@magnit.ru", "phone": ["8 800 200-90-02"], "website": "https://magnitcosmetic.ru", "opening_hours": "10:00 - 21:30", "extras": {"@spider": "magnitcosmetic_dac"}},
{"ref": 89, "brand": "Magnit cosmetic", "addr_full": "г. Москва, ул. Полярная, 20", "country": "Russia", "email": "info@magnit.ru", "phone": ["8 800 200-90-02"], "website": "https://magnitcosmetic.ru", "opening_hours": "09:30 - 21:30", "extras": {"@spider": "magnitcosmetic_dac"}},
{"ref": 90, "brand": "Magnit cosmetic", "addr_full": "г. Москва, ш. Пятницкое, 39", "country": "Russia", "email": "info@magnit.ru", "phone": ["8 800 200-90-02"], "website": "https://magnitcosmetic.ru", "opening_hours": "10:00 - 22:00", "extras": {"@spider": "magnitcosmetic_dac"}},
{"ref": 91, "brand": "Magnit cosmetic", "addr_full": "г. Москва, ул. Россошанская, 13", "country": "Russia", "email": "info@magnit.ru", "phone": ["8 800 200-90-02"], "website": "https://magnitcosmetic.ru", "opening_hours": "09:00 - 21:00", "extras": {"@spider": "magnitcosmetic_dac"}},
{"ref": 92, "brand": "Magnit cosmetic", "addr_full": "г. Москва, ш. Рублёвское, 91, корп. 1", "country": "Russia", "email": "info@magnit.ru", "phone": ["8 800 200-90-02"], "website": "https://magnitcosmetic.ru", "opening_hours": "10:00 - 22:00", "extras": {"@spider": "magnitcosmetic_dac"}},
{"ref": 93, "brand": "Magnit cosmetic", "addr_full": "г. Москва, пр-кт Рязанский, 2/1, корпус 2, нежилые помещения 102-121", "country": "Russia", "email": "info@magnit.ru", "phone": ["8 800 200-90-02"], "website": "https://magnitcosmetic.ru", "opening_hours": "10:00 - 22:00", "extras": {"@spider": "magnitcosmetic_dac"}},
{"ref": 94, "brand": "Magnit cosmetic", "addr_full": "г. Москва, линия Северная 9-я, 19", "country": "Russia", "email": "info@magnit.ru", "phone": ["8 800 200-90-02"], "website": "https://magnitcosmetic.ru", "opening_hours": "09:30 - 21:30", "extras": {"@spider": "magnitcosmetic_dac"}},
{"ref": 95, "brand": "Magnit cosmetic", "addr_full": "г. Москва, ул. Серпуховский Вал, 6", "country": "Russia", "email": "info@magnit.ru", "phone": ["8 800 200-90-02"], "website": "https://magnitcosmetic.ru", "opening_hours": "10:00 - 21:00", "extras": {"@spider": "magnitcosmetic_dac"}},
{"ref": 96, "brand": "Magnit cosmetic", "addr_full": "г. Москва, б-р Симферопольский, 25", "country": "Russia", "email": "info@magnit.ru", "phone": ["8 800 200-90-02"], "website": "https://magnitcosmetic.ru", "opening_hours": "10:00 - 21:30", "extras": {"@spider": "magnitcosmetic_dac"}},
{"ref": 97, "brand": "Magnit cosmetic", "addr_full": "г. Москва, ул. Смольная, 24, помещение №I,комнаты №№49,50,50а,50б,50г,50в", "country": "Russia", "email": "info@magnit.ru", "phone": ["8 800 200-90-02"], "website": "https://magnitcosmetic.ru", "opening_hours": "09:30 - 21:30", "extras": {"@spider": "magnitcosmetic_dac"}},
{"ref": 98, "brand": "Magnit cosmetic", "addr_full": "г. Москва, ул. Совхозная, 37", "country": "Russia", "email": "info@magnit.ru", "phone": ["8 800 200-90-02"], "website": "https://magnitcosmetic.ru", "opening_hours": "10:00 - 22:00", "extras": {"@spider": "magnitcosmetic_dac"}},
{"ref": 99, "brand": "Magnit cosmetic", "addr_full": "г. Москва, ул. Василия Ощепкова, 4", "country": "Russia", "email": "info@magnit.ru", "phone": ["8 800 200-90-02"], "website": "https://magnitcosmetic.ru", "opening_hours": "", "extras": {"@spider": "magnitcosmetic_dac"}},
{"ref": 100, "brand": "Magnit cosmetic", "addr_full": "г. Москва, б-р Веласкеса, 5, корп. 1", "country": "Russia", "email": "info@magnit.ru", "phone": ["8 800 200-90-02"], "website": "https://magnitcosmetic.ru", "opening_hours": "10:00 - 22:00", "extras": {"@spider": "magnitcosmetic_dac"}},
{"ref": 101, "brand": "Magnit cosmetic", "addr_full": "г. Москва, п. Коммунарка, ул. Александры Монаховой, 84,к. 4", "country": "Russia", "email": "info@magnit.ru", "phone": ["8 800 200-90-02"], "website": "https://magnitcosmetic.ru", "opening_hours": "", "extras": {"@spider": "magnitcosmetic_dac"}},
{"ref": 102, "brand": "Magnit cosmetic", "addr_full": "г. Москва, ул. Николо-Хованская, 28", "country": "Russia", "email": "info@magnit.ru", "phone": ["8 800 200-90-02"], "website": "https://magnitcosmetic.ru", "opening_hours": "10:00 - 22:00", "extras": {"@spider": "magnitcosmetic_dac"}},
{"ref": 103, "brand": "Magnit cosmetic", "addr_full": "г. Москва, ул. Старый Гай, 8Ж,помещение I, ком.12,12а,12б,12в,12г,12д,12е,12ж,12з,13-18,18а,19-23,26-31,33,42в,42г", "country": "Russia", "email": "info@magnit.ru", "phone": ["8 800 200-90-02"], "website": "https://magnitcosmetic.ru", "opening_hours": "10:00 - 21:30", "extras": {"@spider": "magnitcosmetic_dac"}},
{"ref": 104, "brand": "Magnit cosmetic", "addr_full": "г. Москва, ул. Судакова, 11,стр.2, пом. 1,2,3,3а,3б,4,5,7,7а,7в,8,8а,8б,10,29", "country": "Russia", "email": "info@magnit.ru", "phone": ["8 800 200-90-02"], "website": "https://magnitcosmetic.ru", "opening_hours": "10:00 - 21:00", "extras": {"@spider": "magnitcosmetic_dac"}},
{"ref": 105, "brand": "Magnit cosmetic", "addr_full": "г. Москва, ул. Суздальская, 26А,нежилое помещение №III, комнаты 1-7,7а,8-23,а,помещение IV, комнаты 1-8,расположенные на первом", "country": "Russia", "email": "info@magnit.ru", "phone": ["8 800 200-90-02"], "website": "https://magnitcosmetic.ru", "opening_hours": "10:00 - 22:00", "extras": {"@spider": "magnitcosmetic_dac"}},
{"ref": 106, "brand": "Magnit cosmetic", "addr_full": "г. Москва, ул. Тамбовская, 5", "country": "Russia", "email": "info@magnit.ru", "phone": ["8 800 200-90-02"], "website": "https://magnitcosmetic.ru", "opening_hours": "10:00 - 22:00", "extras": {"@spider": "magnitcosmetic_dac"}},
{"ref": 107, "brand": "Magnit cosmetic", "addr_full": "г. Москва, ул. Тимирязевская, 10/12, подвальный этаж: Помещение VIII комната №3, этаж 1: Помещение IV комнаты №№1,2,3", "country": "Russia", "email": "info@magnit.ru", "phone": ["8 800 200-90-02"], "website": "https://magnitcosmetic.ru", "opening_hours": "09:30 - 21:30", "extras": {"@spider": "magnitcosmetic_dac"}},
{"ref": 108, "brand": "Magnit cosmetic", "addr_full": "г. Москва, ул. Трофимова, 32,1", "country": "Russia", "email": "info@magnit.ru", "phone": ["8 800 200-90-02"], "website": "https://magnitcosmetic.ru", "opening_hours": "10:00 - 21:00", "extras": {"@spider": "magnitcosmetic_dac"}},
{"ref": 109, "brand": "Magnit cosmetic", "addr_full": "г. Москва, ул. Тушинская, 16", "country": "Russia", "email": "info@magnit.ru", "phone": ["8 800 200-90-02"], "website": "https://magnitcosmetic.ru", "opening_hours": "10:00 - 22:00", "extras": {"@spider": "magnitcosmetic_dac"}},
{"ref": 110, "brand": "Magnit cosmetic", "addr_full": "г. Москва, ул. Уральская, 12/21", "country": "Russia", "email": "info@magnit.ru", "phone": ["8 800 200-90-02"], "website": "https://magnitcosmetic.ru", "opening_hours": "09:30 - 21:30", "extras": {"@spider": "magnitcosmetic_dac"}},
{"ref": 111, "brand": "Magnit cosmetic", "addr_full": "г. Москва, проезд Ферганский, 14", "country": "Russia", "email": "info@magnit.ru", "phone": ["8 800 200-90-02"], "website": "https://magnitcosmetic.ru", "opening_hours": "10:00 - 22:00", "extras": {"@spider": "magnitcosmetic_dac"}},
{"ref": 112, "brand": "Magnit cosmetic", "addr_full": "г. Москва, ул. Филевская М., 13", "country": "Russia", "email": "info@magnit.ru", "phone": ["8 800 200-90-02"], "website": "https://magnitcosmetic.ru", "opening_hours": "10:00 - 22:00", "extras": {"@spider": "magnitcosmetic_dac"}},
{"ref": 113, "brand": "Magnit cosmetic", "addr_full": "г. Москва, ул. Хабаровская, 7/50, нежилое помещение №I, ком. 1,1а,1б,1в,1г,1д,1е,1ж,3,4,5,10,11,11а,11б,12,13,15,15а,16,17,30а,", "country": "Russia", "email": "info@magnit.ru", "phone": ["8 800 200-90-02"], "website": "https://magnitcosmetic.ru", "opening_hours": "09:30 - 21:30", "extras": {"@spider": "magnitcosmetic_dac"}},
{"ref": 114, "brand": "Magnit cosmetic", "addr_full": "г. Москва, ул. Харьковская, 4", "country": "Russia", "email": "info@magnit.ru", "phone": ["8 800 200-90-02"], "website": "https://magnitcosmetic.ru", "opening_hours": "10:00 - 21:00", "extras": {"@spider": "magnitcosmetic_dac"}},
{"ref": 115, "brand": "Magnit cosmetic", "addr_full": "г. Москва, ул. Челябинская, 15, этаж 2, пом.№ 8, ком.1,2,2а,2б,8,18", "country": "Russia", "email": "info@magnit.ru", "phone": ["8 800 200-90-02"], "website": "https://magnitcosmetic.ru", "opening_hours": "10:00 - 21:00", "extras": {"@spider": "magnitcosmetic_dac"}},
{"ref": 116, "brand": "Magnit cosmetic", "addr_full": "г. Москва, ул. Чертановская, 58", "country": "Russia", "email": "info@magnit.ru", "phone": ["8 800 200-90-02"], "website": "https://magnitcosmetic.ru", "opening_hours": "09:00 - 21:00", "extras": {"@spider": "magnitcosmetic_dac"}},
{"ref": 117, "brand": "Magnit cosmetic", "addr_full": "г. Москва, ул. Шипиловская, 25А,этаж 1", "country": "Russia", "email": "info@magnit.ru", "phone": ["8 800 200-90-02"], "website": "https://magnitcosmetic.ru", "opening_hours": "09:00 - 21:00", "extras": {"@spider": "magnitcosmetic_dac"}},
{"ref": 118, "brand": "Magnit cosmetic", "addr_full": "г. Москва, ш. Щёлковское, 21а", "country": "Russia", "email": "info@magnit.ru", "phone": ["8 800 200-90-02"], "website": "https://magnitcosmetic.ru", "opening_hours": "10:00 - 21:30", "extras": {"@spider": "magnitcosmetic_dac"}},
{"ref": 119, "brand": "Magnit cosmetic", "addr_full": "г. Москва, ш. Щёлковское, 89/2", "country": "Russia", "email": "info@magnit.ru", "phone": ["8 800 200-90-02"], "website": "https://magnitcosmetic.ru", "opening_hours": "10:00 - 22:00", "extras": {"@spider": "magnitcosmetic_dac"}}
]
