{"type":"FeatureCollection","features":[{"type": "Feature", "id": "_WLqCM0SxZ8OLcNF3DNU3mKJkm0=", "properties": {"ref": "0", "@spider": "magnolia_dac", "addr:full": "\u0410\u0434\u043c\u0438\u0440\u0430\u043b\u0430 \u041c\u0430\u043a\u0430\u0440\u043e\u0432\u0430 \u0434. 45,", "addr:country": "Russia", "website": "https://shop.mgnl.ru/contacts/stores/", "brand": "Magnolia"}, "geometry": {"type": "Point", "coordinates": [37.485682, 55.83901]}},
{"type": "Feature", "id": "GI8rxqAhj9CptJnpmyOgXIggTJ4=", "properties": {"ref": "1", "@spider": "magnolia_dac", "addr:full": "\u041c\u0430\u043b\u0435\u043d\u043a\u043e\u0432\u0441\u043a\u0430\u044f, \u0434.30,", "addr:country": "Russia", "website": "https://shop.mgnl.ru/contacts/stores/", "brand": "Magnolia"}, "geometry": {"type": "Point", "coordinates": [37.674894, 55.7871]}},
{"type": "Feature", "id": "QgdnbvN55pkJbTYdjOb9JlupvRo=", "properties": {"ref": "2", "@spider": "magnolia_dac", "addr:full": "\u0421\u0435\u0434\u043e\u0432\u0430, \u0434.15, \u043a\u043e\u0440\u043f. 2.,", "addr:country": "Russia", "website": "https://shop.mgnl.ru/contacts/stores/", "brand": "Magnolia"}, "geometry": {"type": "Point", "coordinates": [37.637353, 55.85229]}},
{"type": "Feature", "id": "UYijuyI-psD9cHgl2jPsjI7NULQ=", "properties": {"ref": "3", "@spider": "magnolia_dac", "addr:full": "\u0425\u043e\u0440\u043e\u0448\u0435\u0432\u0441\u043a\u043e\u0435 \u0448\u043e\u0441\u0441\u0435, \u0434.76, \u043a\u043e\u0440\u043f. 5.,", "addr:country": "Russia", "website": "https://shop.mgnl.ru/contacts/stores/", "brand": "Magnolia"}, "geometry": {"type": "Point", "coordinates": [37.52501, 55.77974]}},
{"type": "Feature", "id": "vqYgpf7-cVRlW2BEZ21oiozJh60=", "properties": {"ref": "4", "@spider": "magnolia_dac", "addr:full": "\u0416\u0438\u0432\u043e\u043f\u0438\u0441\u043d\u0430\u044f \u0434\u043e\u043c 6/1,", "addr:country": "Russia", "website": "https://shop.mgnl.ru/contacts/stores/", "brand": "Magnolia"}, "geometry": {"type": "Point", "coordinates": [37.457034, 55.78186]}},
{"type": "Feature", "id": "If75TqSe9HDenBH5-UMCJGgYlzE=", "properties": {"ref": "5", "@spider": "magnolia_dac", "addr:full": "\u041f\u043e\u043a\u0440\u043e\u0432\u043a\u0430, \u0434.2/1, \u0441\u0442\u0440.1,", "addr:country": "Russia", "website": "https://shop.mgnl.ru/contacts/stores/", "brand": "Magnolia"}, "geometry": {"type": "Point", "coordinates": [37.639051, 55.75799]}},
{"type": "Feature", "id": "sMpfLGtSIqGI9-dCzqlHbRrtFIA=", "properties": {"ref": "6", "@spider": "magnolia_dac", "addr:full": "\u041b\u0443\u0433\u0430\u043d\u0441\u043a\u0430\u044f, \u0434.7, \u043a\u043e\u0440\u043f.2,", "addr:country": "Russia", "website": "https://shop.mgnl.ru/contacts/stores/", "brand": "Magnolia"}, "geometry": {"type": "Point", "coordinates": [37.667555, 55.62466]}},
{"type": "Feature", "id": "Q7aPAMBmDfqhVcYHHoUqU34BCNc=", "properties": {"ref": "7", "@spider": "magnolia_dac", "addr:full": "\u0413\u0430\u0440\u0438\u0431\u0430\u043b\u044c\u0434\u0438 \u0434.29 \u043a.4,", "addr:country": "Russia", "website": "https://shop.mgnl.ru/contacts/stores/", "brand": "Magnolia"}, "geometry": {"type": "Point", "coordinates": [37.560107, 55.66918]}},
{"type": "Feature", "id": "Q2bp-uQddWlNfqTuWL-jWUy_wiM=", "properties": {"ref": "8", "@spider": "magnolia_dac", "addr:full": "\u041a\u0440\u0430\u0441\u043d\u043e\u0434\u043e\u043d\u0441\u043a\u0430\u044f, \u0434. 12.,", "addr:country": "Russia", "website": "https://shop.mgnl.ru/contacts/stores/", "brand": "Magnolia"}, "geometry": {"type": "Point", "coordinates": [37.748619, 55.6811]}},
{"type": "Feature", "id": "5FdL0ftaStsL97HUmg0tQjR9q-I=", "properties": {"ref": "9", "@spider": "magnolia_dac", "addr:full": "1-\u044f \u0414\u0443\u0431\u0440\u043e\u0432\u0441\u043a\u0430\u044f \u0443\u043b\u0438\u0446\u0430, \u0434\u043e\u043c 1, \u043a\u043e\u0440\u043f\u0443\u0441 3,", "addr:country": "Russia", "website": "https://shop.mgnl.ru/contacts/stores/", "brand": "Magnolia"}, "geometry": {"type": "Point", "coordinates": [37.670052, 55.72738]}},
{"type": "Feature", "id": "jAUgc0uPlCCjrTm1LELpvG6mr1Y=", "properties": {"ref": "10", "@spider": "magnolia_dac", "addr:full": "\u0412\u043e\u043b\u043e\u043a\u043e\u043b\u0430\u043c\u0441\u043a\u043e\u0435 \u0448\u043e\u0441\u0441\u0435, \u0434. 15/22,", "addr:country": "Russia", "website": "https://shop.mgnl.ru/contacts/stores/", "brand": "Magnolia"}, "geometry": {"type": "Point", "coordinates": [37.493228, 55.80877]}},
{"type": "Feature", "id": "ukuChhN9BKIg3Mkxbe-XOvN9GDg=", "properties": {"ref": "11", "@spider": "magnolia_dac", "addr:full": "\u041b\u0435\u043d\u0438\u043d\u0433\u0440\u0430\u0434\u0441\u043a\u0438\u0439 \u043f\u0440\u043e\u0441\u043f\u0435\u043a\u0442, \u0434. 27, \u043a\u043e\u0440\u043f. 1.,", "addr:country": "Russia", "website": "https://shop.mgnl.ru/contacts/stores/", "brand": "Magnolia"}, "geometry": {"type": "Point", "coordinates": [37.566494, 55.78413]}},
{"type": "Feature", "id": "e2qDjf1zTmEy1IXurhaSLNqsVBg=", "properties": {"ref": "12", "@spider": "magnolia_dac", "addr:full": "\u041d\u043e\u0432\u043e\u0441\u043b\u043e\u0431\u043e\u0434\u0441\u043a\u0430\u044f, \u0434.46.,", "addr:country": "Russia", "website": "https://shop.mgnl.ru/contacts/stores/", "brand": "Magnolia"}, "geometry": {"type": "Point", "coordinates": [37.596031, 55.78541]}},
{"type": "Feature", "id": "h9DPIfNEOkT26EtvN8pwx60RJAA=", "properties": {"ref": "13", "@spider": "magnolia_dac", "addr:full": "3-\u0439 \u041f\u0430\u0432\u0435\u043b\u0435\u0446\u043a\u0438\u0439 \u043f\u0440\u043e\u0435\u0437\u0434, \u0434.3,", "addr:country": "Russia", "website": "https://shop.mgnl.ru/contacts/stores/", "brand": "Magnolia"}, "geometry": {"type": "Point", "coordinates": [37.643857, 55.71114]}},
{"type": "Feature", "id": "eAUcynnegIFZ_PR5XWnrgriKXsQ=", "properties": {"ref": "14", "@spider": "magnolia_dac", "addr:full": "\u0421\u0432\u043e\u0431\u043e\u0434\u044b, \u0434. 89, \u043a\u043e\u0440\u043f. 5.,", "addr:country": "Russia", "website": "https://shop.mgnl.ru/contacts/stores/", "brand": "Magnolia"}, "geometry": {"type": "Point", "coordinates": [37.442284, 55.86588]}},
{"type": "Feature", "id": "fozMo6OXl0dPHOhlp4UJc-cZoiI=", "properties": {"ref": "15", "@spider": "magnolia_dac", "addr:full": "\u0421\u0442\u0430\u0440\u044b\u0439 \u0417\u044b\u043a\u043e\u0432\u0441\u043a\u0438\u0439 \u043f\u0440., \u0434.3,", "addr:country": "Russia", "website": "https://shop.mgnl.ru/contacts/stores/", "brand": "Magnolia"}, "geometry": {"type": "Point", "coordinates": [37.543425, 55.80136]}},
{"type": "Feature", "id": "da_RSk3oG8d_ZzbD4_DDjs8aCjQ=", "properties": {"ref": "16", "@spider": "magnolia_dac", "addr:full": "\u0421\u0442\u0440\u0430\u0441\u0442\u043d\u043e\u0439 \u0431\u0443\u043b\u044c\u0432\u0430\u0440, \u0434.8\u0430,", "addr:country": "Russia", "website": "https://shop.mgnl.ru/contacts/stores/", "brand": "Magnolia"}, "geometry": {"type": "Point", "coordinates": [37.610826, 55.76625]}},
{"type": "Feature", "id": "dGRN3upC6FYkFquH92MRhmIoW9E=", "properties": {"ref": "17", "@spider": "magnolia_dac", "addr:full": "\u0422\u043e\u043a\u043c\u0430\u043a\u043e\u0432 \u043f\u0435\u0440\u0435\u0443\u043b\u043e\u043a \u0434.12/20,", "addr:country": "Russia", "website": "https://shop.mgnl.ru/contacts/stores/", "brand": "Magnolia"}, "geometry": {"type": "Point", "coordinates": [37.669809, 55.76539]}},
{"type": "Feature", "id": "gAghDUSe7gS9dJH_kPWIVfyopnI=", "properties": {"ref": "18", "@spider": "magnolia_dac", "addr:full": "\u042f\u0431\u043b\u043e\u0447\u043a\u043e\u0432\u0430, \u0434. 36.,", "addr:country": "Russia", "website": "https://shop.mgnl.ru/contacts/stores/", "brand": "Magnolia"}, "geometry": {"type": "Point", "coordinates": [37.579699, 55.82735]}},
{"type": "Feature", "id": "FATY_4kEZLYUuk9XhkaPmmxO-v8=", "properties": {"ref": "19", "@spider": "magnolia_dac", "addr:full": "\u0433. \u0411\u0430\u043b\u0430\u0448\u0438\u0445\u0430 \u043c\u0438\u043a\u0440.1 \u041c\u0430\u044f \u043a\u043e\u0440\u043f.36,", "addr:country": "Russia", "website": "https://shop.mgnl.ru/contacts/stores/", "brand": "Magnolia"}, "geometry": {"type": "Point", "coordinates": [37.846086, 55.80304]}},
{"type": "Feature", "id": "KT4O3z_C2p6M16JypRN8SzRhBf4=", "properties": {"ref": "20", "@spider": "magnolia_dac", "addr:full": "\u0433. \u041b\u044b\u0442\u043a\u0430\u0440\u0438\u043d\u043e, \u041e\u043a\u0442\u044f\u0431\u0440\u044c\u0441\u043a\u0430\u044f, \u0434.12,", "addr:country": "Russia", "website": "https://shop.mgnl.ru/contacts/stores/", "brand": "Magnolia"}, "geometry": {"type": "Point", "coordinates": [37.908357, 55.57664]}},
{"type": "Feature", "id": "osVfyvWaSepN_diyBv9TrUw877c=", "properties": {"ref": "21", "@spider": "magnolia_dac", "addr:full": "\u0433. \u041f\u043e\u0434\u043e\u043b\u044c\u0441\u043a 2, \u041f\u043e\u0434\u043e\u043b\u044c\u0441\u043a\u0438\u0445 \u043a\u0443\u0440\u0441\u0430\u043d\u0442\u043e\u0432, \u0434. 2,", "addr:country": "Russia", "website": "https://shop.mgnl.ru/contacts/stores/", "brand": "Magnolia"}, "geometry": {"type": "Point", "coordinates": [37.546498, 55.41729]}},
{"type": "Feature", "id": "7h00_qO2aWFIb4ILR8Zs0UnAC7I=", "properties": {"ref": "22", "@spider": "magnolia_dac", "addr:full": "\u0433. \u0420\u0435\u0443\u0442\u043e\u0432, \u042e\u0431\u0438\u043b\u0435\u0439\u043d\u044b\u0439 \u043f\u0440-\u0442, \u0434. 33,", "addr:country": "Russia", "website": "https://shop.mgnl.ru/contacts/stores/", "brand": "Magnolia"}, "geometry": {"type": "Point", "coordinates": [37.869846, 55.75131]}},
{"type": "Feature", "id": "HHGEQbsivtYVxPImaHIDEr-VuOE=", "properties": {"ref": "23", "@spider": "magnolia_dac", "addr:full": "\u0417\u0435\u043b\u0435\u043d\u043e\u0433\u0440\u0430\u0434\u0441\u043a\u0430\u044f, \u0434.41.,", "addr:country": "Russia", "website": "https://shop.mgnl.ru/contacts/stores/", "brand": "Magnolia"}, "geometry": {"type": "Point", "coordinates": [37.486418, 55.87797]}},
{"type": "Feature", "id": "qcjwN-GoAjWPotAYi4ADEPE9Dy4=", "properties": {"ref": "24", "@spider": "magnolia_dac", "addr:full": "\u041a\u0443\u0440\u043a\u0438\u043d\u0441\u043a\u043e\u0435 \u0448\u043e\u0441\u0441\u0435, \u0434. 17, \u043a\u043e\u0440\u043f\u0443\u0441 1.,", "addr:country": "Russia", "website": "https://shop.mgnl.ru/contacts/stores/", "brand": "Magnolia"}, "geometry": {"type": "Point", "coordinates": [37.395823, 55.88509]}},
{"type": "Feature", "id": "MqNxl6EaNmHudCsiI-Se7ln9O0I=", "properties": {"ref": "25", "@spider": "magnolia_dac", "addr:full": "\u041c\u043e\u0436\u0430\u0439\u0441\u043a\u0438\u0439 \u0432\u0430\u043b, \u0434. 3,", "addr:country": "Russia", "website": "https://shop.mgnl.ru/contacts/stores/", "brand": "Magnolia"}, "geometry": {"type": "Point", "coordinates": [37.558004, 55.74529]}},
{"type": "Feature", "id": "lnLsjZ4oeJfaluqVdGQIVbqS-4s=", "properties": {"ref": "26", "@spider": "magnolia_dac", "addr:full": "\u041c\u043e\u0436\u0430\u0439\u0441\u043a\u043e\u0435 \u0448\u043e\u0441\u0441\u0435, \u0434.20, \u043a\u043e\u0440\u043f.1,", "addr:country": "Russia", "website": "https://shop.mgnl.ru/contacts/stores/", "brand": "Magnolia"}, "geometry": {"type": "Point", "coordinates": [37.427183, 55.7209]}},
{"type": "Feature", "id": "pulXDdY7uhA9Ndnf3T5k0QXw8iA=", "properties": {"ref": "27", "@spider": "magnolia_dac", "addr:full": "\u041f\u0435\u0442\u0440\u043e\u0432\u043e \u0414\u0430\u043b\u044c\u043d\u0435\u0435, \u043f\u043e\u0441. \u041c\u0435\u0447\u043d\u0438\u043a\u043e\u0432\u043e \u0434, 26,", "addr:country": "Russia", "website": "https://shop.mgnl.ru/contacts/stores/", "brand": "Magnolia"}, "geometry": {"type": "Point", "coordinates": [37.162692, 55.75231]}},
{"type": "Feature", "id": "SguC2v5gAVUQowZ6hzSzesRgEBw=", "properties": {"ref": "28", "@spider": "magnolia_dac", "addr:full": "\u041e\u0431\u0440\u0443\u0447\u0435\u0432\u0430 ,\u0434.11,", "addr:country": "Russia", "website": "https://shop.mgnl.ru/contacts/stores/", "brand": "Magnolia"}, "geometry": {"type": "Point", "coordinates": [37.514751, 55.66036]}},
{"type": "Feature", "id": "mlsIw09OKGzGIHRtFsAe_VT0AhQ=", "properties": {"ref": "29", "@spider": "magnolia_dac", "addr:full": "\u0421\u0443\u043c\u0441\u043a\u043e\u0439 \u043f\u0440\u043e\u0435\u0437\u0434, \u0434. 15, \u043a\u043e\u0440\u043f. 1,", "addr:country": "Russia", "website": "https://shop.mgnl.ru/contacts/stores/", "brand": "Magnolia"}, "geometry": {"type": "Point", "coordinates": [37.596965, 55.6331]}},
{"type": "Feature", "id": "Gxnd0knz4iMQDTSOGi4u65K4bO0=", "properties": {"ref": "30", "@spider": "magnolia_dac", "addr:full": "\u0427\u0435\u0440\u0435\u043f\u043e\u0432\u0435\u0446\u043a\u0430\u044f, \u0434.12.,", "addr:country": "Russia", "website": "https://shop.mgnl.ru/contacts/stores/", "brand": "Magnolia"}, "geometry": {"type": "Point", "coordinates": [37.572252, 55.89782]}},
{"type": "Feature", "id": "d7pw2h3w9PVwtX8grVS1nZinynE=", "properties": {"ref": "31", "@spider": "magnolia_dac", "addr:full": "\u0411\u043e\u043b\u044c\u0448\u0430\u044f \u041c\u043e\u043b\u0447\u0430\u043d\u043e\u0432\u043a\u0430, \u0434.23, \u0441\u0442\u0440.2,", "addr:country": "Russia", "website": "https://shop.mgnl.ru/contacts/stores/", "brand": "Magnolia"}, "geometry": {"type": "Point", "coordinates": [37.590192, 55.7531]}},
{"type": "Feature", "id": "dIMiRBzKKmRiZbE6kz3776ORCOA=", "properties": {"ref": "32", "@spider": "magnolia_dac", "addr:full": "\u0410\u0437\u043e\u0432\u0441\u043a\u0430\u044f \u0443\u043b\u0438\u0446\u0430 24\u043a2,", "addr:country": "Russia", "website": "https://shop.mgnl.ru/contacts/stores/", "brand": "Magnolia"}, "geometry": {"type": "Point", "coordinates": [37.597396, 55.65084]}},
{"type": "Feature", "id": "Qi4qibuqa-W5nsfgitVXg4fmjG0=", "properties": {"ref": "33", "@spider": "magnolia_dac", "addr:full": "\u0410\u043a\u0430\u0434\u0435\u043c\u0438\u043a\u0430 \u0411\u043e\u0447\u0432\u0430\u0440\u0430, \u0434.7, \u043a\u043e\u0440\u043f.1.,", "addr:country": "Russia", "website": "https://shop.mgnl.ru/contacts/stores/", "brand": "Magnolia"}, "geometry": {"type": "Point", "coordinates": [37.461903, 55.80595]}},
{"type": "Feature", "id": "FoTi_DJ11fBb9garpnTR3D9rvOI=", "properties": {"ref": "34", "@spider": "magnolia_dac", "addr:full": "\u0410\u043a\u0430\u0434\u0435\u043c\u0438\u043a\u0430 \u041a\u043e\u0440\u043e\u043b\u0435\u0432\u0430, \u0434.5,", "addr:country": "Russia", "website": "https://shop.mgnl.ru/contacts/stores/", "brand": "Magnolia"}, "geometry": {"type": "Point", "coordinates": [37.628316, 55.82088]}},
{"type": "Feature", "id": "fzeOO2wdoitPqNhFn8Bd731LXms=", "properties": {"ref": "35", "@spider": "magnolia_dac", "addr:full": "\u0410\u043c\u0438\u043d\u044c\u0435\u0432\u0441\u043a\u043e\u0435 \u0448\u043e\u0441\u0441\u0435 \u0434.14 \u043a\u043e\u0440\u043f.1,", "addr:country": "Russia", "website": "https://shop.mgnl.ru/contacts/stores/", "brand": "Magnolia"}, "geometry": {"type": "Point", "coordinates": [37.454223, 55.71312]}},
{"type": "Feature", "id": "jdahpVL2cPHhD9Ad6tXMQE1BRDw=", "properties": {"ref": "36", "@spider": "magnolia_dac", "addr:full": "\u0410\u0440\u0442\u0430\u043c\u043e\u043d\u043e\u0432\u0430, \u0434. 19.,", "addr:country": "Russia", "website": "https://shop.mgnl.ru/contacts/stores/", "brand": "Magnolia"}, "geometry": {"type": "Point", "coordinates": [37.453477, 55.71808]}},
{"type": "Feature", "id": "sjVOWze77P_9ECFUBx9jSmiFqlA=", "properties": {"ref": "37", "@spider": "magnolia_dac", "addr:full": "\u0411\u0430\u0436\u043e\u0432\u0430, \u0434. 7.,", "addr:country": "Russia", "website": "https://shop.mgnl.ru/contacts/stores/", "brand": "Magnolia"}, "geometry": {"type": "Point", "coordinates": [37.661015, 55.8343]}},
{"type": "Feature", "id": "VKCqChuK3fi1PthCUqSmz8BmNEM=", "properties": {"ref": "38", "@spider": "magnolia_dac", "addr:full": "\u0411\u0430\u0440\u043a\u043b\u0430\u044f, \u0434. 16, \u043a\u043e\u0440\u043f.1.,", "addr:country": "Russia", "website": "https://shop.mgnl.ru/contacts/stores/", "brand": "Magnolia"}, "geometry": {"type": "Point", "coordinates": [37.496614, 55.74586]}},
{"type": "Feature", "id": "EAmI69eHwZ73guYZ2OQtPSeT7jE=", "properties": {"ref": "39", "@spider": "magnolia_dac", "addr:full": "\u0411\u0430\u0448\u0438\u043b\u043e\u0432\u0441\u043a\u0430\u044f, \u0434.29.,", "addr:country": "Russia", "website": "https://shop.mgnl.ru/contacts/stores/", "brand": "Magnolia"}, "geometry": {"type": "Point", "coordinates": [37.572504, 55.8054]}},
{"type": "Feature", "id": "iP4xdwOt4cYY_FGMz88mAHVIhbA=", "properties": {"ref": "40", "@spider": "magnolia_dac", "addr:full": "\u0411\u0435\u0433\u043e\u0432\u0430\u044f, \u0434. 13/2.,", "addr:country": "Russia", "website": "https://shop.mgnl.ru/contacts/stores/", "brand": "Magnolia"}, "geometry": {"type": "Point", "coordinates": [37.558867, 55.78119]}},
{"type": "Feature", "id": "3-rLmwC59lp-zpkdA1e18x-ciwk=", "properties": {"ref": "41", "@spider": "magnolia_dac", "addr:full": "\u0411\u043e\u0436\u0435\u043d\u043a\u043e, \u0434. 14, \u043a\u043e\u0440\u043f. 1,", "addr:country": "Russia", "website": "https://shop.mgnl.ru/contacts/stores/", "brand": "Magnolia"}, "geometry": {"type": "Point", "coordinates": [37.406585, 55.73272]}},
{"type": "Feature", "id": "gukXRvH4_7dZWOgU_kc1F7dxYzg=", "properties": {"ref": "42", "@spider": "magnolia_dac", "addr:full": "\u0411\u043e\u043b\u044c\u0448\u0430\u044f \u0410\u043a\u0430\u0434\u0435\u043c\u0438\u0447\u0435\u0441\u043a\u0430\u044f, \u0434. 39.,", "addr:country": "Russia", "website": "https://shop.mgnl.ru/contacts/stores/", "brand": "Magnolia"}, "geometry": {"type": "Point", "coordinates": [37.532286, 55.83284]}},
{"type": "Feature", "id": "G_oYR6xek9b9fgepzXL7jP89a5I=", "properties": {"ref": "43", "@spider": "magnolia_dac", "addr:full": "\u0411\u043e\u043b\u044c\u0448\u0430\u044f \u041f\u0438\u043e\u043d\u0435\u0440\u0441\u043a\u0430\u044f, \u0434. 40, \u0441\u0442\u0440. 1,", "addr:country": "Russia", "website": "https://shop.mgnl.ru/contacts/stores/", "brand": "Magnolia"}, "geometry": {"type": "Point", "coordinates": [37.634056, 55.72547]}},
{"type": "Feature", "id": "efhTKx7qTexJLucGg_QMvCsjPUE=", "properties": {"ref": "44", "@spider": "magnolia_dac", "addr:full": "\u0411\u043e\u043b\u044c\u0448\u0430\u044f \u041f\u0438\u0440\u043e\u0433\u043e\u0432\u0441\u043a\u0430\u044f \u0443\u043b., \u0434. 53-55,", "addr:country": "Russia", "website": "https://shop.mgnl.ru/contacts/stores/", "brand": "Magnolia"}, "geometry": {"type": "Point", "coordinates": [37.560927, 55.72723]}},
{"type": "Feature", "id": "0sgQb25a-wZiRi0KcNpBxulCNHw=", "properties": {"ref": "45", "@spider": "magnolia_dac", "addr:full": "\u0411\u043e\u043b\u044c\u0448\u0430\u044f \u041f\u043e\u043b\u044f\u043d\u043a\u0430, \u0434.7/10, \u0441\u0442\u0440.1.,", "addr:country": "Russia", "website": "https://shop.mgnl.ru/contacts/stores/", "brand": "Magnolia"}, "geometry": {"type": "Point", "coordinates": [37.617159, 55.74062]}},
{"type": "Feature", "id": "u4LPpWc50mMdu6HMoFCNFs1TDPY=", "properties": {"ref": "46", "@spider": "magnolia_dac", "addr:full": "\u0411\u043e\u043b\u044c\u0448\u0430\u044f \u041f\u043e\u043b\u044f\u043d\u043a\u0430, \u0434\u043e\u043c 42, \u0441\u0442\u0440.1,", "addr:country": "Russia", "website": "https://shop.mgnl.ru/contacts/stores/", "brand": "Magnolia"}, "geometry": {"type": "Point", "coordinates": [37.6192, 55.73]}},
{"type": "Feature", "id": "Xd0Br8Gmm01dvxXXUMw0oVBfFcU=", "properties": {"ref": "47", "@spider": "magnolia_dac", "addr:full": "\u0411\u043e\u043b\u044c\u0448\u0430\u044f \u0421\u0435\u043c\u0451\u043d\u043e\u0432\u0441\u043a\u0430\u044f \u0443\u043b\u0438\u0446\u0430, 17\u0410,", "addr:country": "Russia", "website": "https://shop.mgnl.ru/contacts/stores/", "brand": "Magnolia"}, "geometry": {"type": "Point", "coordinates": [37.7058, 55.782]}},
{"type": "Feature", "id": "pQueYo3KCtBSOFIga-z7JOwCnwI=", "properties": {"ref": "48", "@spider": "magnolia_dac", "addr:full": "\u0411\u043e\u043b\u044c\u0448\u0430\u044f \u0421\u043f\u0430\u0441\u0441\u043a\u0430\u044f, \u0434. 33, \u0441\u0442\u0440. 1.,", "addr:country": "Russia", "website": "https://shop.mgnl.ru/contacts/stores/", "brand": "Magnolia"}, "geometry": {"type": "Point", "coordinates": [37.645636, 55.77643]}},
{"type": "Feature", "id": "20Kyhx7UtXUfN7TH2UKLXJBjakg=", "properties": {"ref": "49", "@spider": "magnolia_dac", "addr:full": "\u0411\u043e\u043b\u044c\u0448\u0430\u044f \u0422\u0430\u0442\u0430\u0440\u0441\u043a\u0430\u044f, \u0434.13, \u0441\u0442\u0440.5,", "addr:country": "Russia", "website": "https://shop.mgnl.ru/contacts/stores/", "brand": "Magnolia"}, "geometry": {"type": "Point", "coordinates": [37.634236, 55.74251]}},
{"type": "Feature", "id": "AQ99WfvSQxo_cEQxTXsObBHBT8g=", "properties": {"ref": "50", "@spider": "magnolia_dac", "addr:full": "\u0411\u043e\u043b\u044c\u0448\u0430\u044f \u0427\u0435\u0440\u043a\u0438\u0437\u043e\u0432\u0441\u043a\u0430\u044f, \u0434. 6,", "addr:country": "Russia", "website": "https://shop.mgnl.ru/contacts/stores/", "brand": "Magnolia"}, "geometry": {"type": "Point", "coordinates": [37.719594, 55.7962]}},
{"type": "Feature", "id": "7cw3DwzhN3v5l-1otF4KJIrCMJc=", "properties": {"ref": "51", "@spider": "magnolia_dac", "addr:full": "\u0411\u043e\u043b\u044c\u0448\u043e\u0439 \u041a\u0430\u0440\u0435\u0442\u043d\u044b\u0439 \u043f\u0435\u0440., \u0434.20, \u0441\u0442\u0440.1,", "addr:country": "Russia", "website": "https://shop.mgnl.ru/contacts/stores/", "brand": "Magnolia"}, "geometry": {"type": "Point", "coordinates": [37.616393, 55.77172]}},
{"type": "Feature", "id": "Zq5e9nyP3EtNLTCHP_9PJfaV5ow=", "properties": {"ref": "52", "@spider": "magnolia_dac", "addr:full": "\u0411\u043e\u043b\u044c\u0448\u043e\u0439 \u0421\u0443\u0445\u0430\u0440\u0435\u0432\u0441\u043a\u0438\u0439 \u043f\u0435\u0440., \u0434. 13, \u0441\u0442\u0440.2,", "addr:country": "Russia", "website": "https://shop.mgnl.ru/contacts/stores/", "brand": "Magnolia"}, "geometry": {"type": "Point", "coordinates": [37.627792, 55.7706]}},
{"type": "Feature", "id": "u8FyyApzpgriozR93Hxp9jD0jBQ=", "properties": {"ref": "53", "@spider": "magnolia_dac", "addr:full": "\u0411\u043e\u043b\u044c\u0448\u043e\u0439 \u0424\u0430\u043a\u0435\u043b\u044c\u043d\u044b\u0439 \u0434. 2/22,", "addr:country": "Russia", "website": "https://shop.mgnl.ru/contacts/stores/", "brand": "Magnolia"}, "geometry": {"type": "Point", "coordinates": [37.661743, 55.74318]}},
{"type": "Feature", "id": "w8Cidsyd26Z-zSwQR1gmxizx_48=", "properties": {"ref": "54", "@spider": "magnolia_dac", "addr:full": "\u0411\u043e\u0447\u043a\u043e\u0432\u0430, \u0434. 6, \u043a\u043e\u0440\u043f. 1.,", "addr:country": "Russia", "website": "https://shop.mgnl.ru/contacts/stores/", "brand": "Magnolia"}, "geometry": {"type": "Point", "coordinates": [37.633544, 55.8105]}},
{"type": "Feature", "id": "5k_mGrHkdmGgB9-II3a2tVSFeLo=", "properties": {"ref": "55", "@spider": "magnolia_dac", "addr:full": "\u0412\u0430\u0432\u0438\u043b\u043e\u0432\u0430, \u0434.8,", "addr:country": "Russia", "website": "https://shop.mgnl.ru/contacts/stores/", "brand": "Magnolia"}, "geometry": {"type": "Point", "coordinates": [37.585727, 55.70616]}},
{"type": "Feature", "id": "vPPDlPnuef47-83VJTyyzti44e4=", "properties": {"ref": "56", "@spider": "magnolia_dac", "addr:full": "\u0412\u0430\u0440\u0448\u0430\u0432\u0441\u043a\u043e\u0435, 16,", "addr:country": "Russia", "website": "https://shop.mgnl.ru/contacts/stores/", "brand": "Magnolia"}, "geometry": {"type": "Point", "coordinates": [37.620465, 55.69368]}},
{"type": "Feature", "id": "D_29En_SK-AIF--ziUB7WVgTv3s=", "properties": {"ref": "57", "@spider": "magnolia_dac", "addr:full": "\u0412\u0435\u0440\u043d\u0430\u0434\u0441\u043a\u043e\u0433\u043e \u043f\u0440-\u0442., \u0434. 9/10,", "addr:country": "Russia", "website": "https://shop.mgnl.ru/contacts/stores/", "brand": "Magnolia"}, "geometry": {"type": "Point", "coordinates": [37.534342, 55.69095]}},
{"type": "Feature", "id": "04fuWqrpuvQ_sVix_fSvfQpV8B4=", "properties": {"ref": "58", "@spider": "magnolia_dac", "addr:full": "\u0412\u0435\u0440\u043d\u0430\u0434\u0441\u043a\u043e\u0433\u043e \u043f\u0440-\u0442., \u0434.21/2,", "addr:country": "Russia", "website": "https://shop.mgnl.ru/contacts/stores/", "brand": "Magnolia"}, "geometry": {"type": "Point", "coordinates": [37.521138, 55.6843]}},
{"type": "Feature", "id": "cZvuuMoKZRQBOhZnvt6A438MdyY=", "properties": {"ref": "59", "@spider": "magnolia_dac", "addr:full": "\u0412\u0435\u0440\u0445\u043d\u044f\u044f \u041a\u0440\u0430\u0441\u043d\u043e\u0441\u0435\u043b\u044c\u0441\u043a\u0430\u044f, \u0434. 24.,", "addr:country": "Russia", "website": "https://shop.mgnl.ru/contacts/stores/", "brand": "Magnolia"}, "geometry": {"type": "Point", "coordinates": [37.663288, 55.78163]}},
{"type": "Feature", "id": "rWBQOrDxbcrn9hlulD3redQzZWU=", "properties": {"ref": "60", "@spider": "magnolia_dac", "addr:full": "\u0412\u0435\u0440\u0445\u043d\u044f\u044f \u041f\u0435\u0440\u0432\u043e\u043c\u0430\u0439\u0441\u043a\u0430\u044f, \u0434. 24/17, \u0441\u0442\u0440.1,", "addr:country": "Russia", "website": "https://shop.mgnl.ru/contacts/stores/", "brand": "Magnolia"}, "geometry": {"type": "Point", "coordinates": [37.793373, 55.79897]}},
{"type": "Feature", "id": "C_FQR1tHXtohaQex_egXpVNriq0=", "properties": {"ref": "61", "@spider": "magnolia_dac", "addr:full": "2-\u0439 \u0412\u043e\u0439\u043a\u043e\u0432\u0441\u043a\u0438\u0439 \u043f\u0440-\u0434, 2/11,", "addr:country": "Russia", "website": "https://shop.mgnl.ru/contacts/stores/", "brand": "Magnolia"}, "geometry": {"type": "Point", "coordinates": [37.496839, 55.81762]}},
{"type": "Feature", "id": "gcM0rK8QfCQFEbXyOmQBjn-ECXo=", "properties": {"ref": "62", "@spider": "magnolia_dac", "addr:full": "\u0412\u043e\u043b\u0433\u043e\u0433\u0440\u0430\u0434\u0441\u043a\u0438\u0439 \u043f\u0440\u043e\u0441\u043f\u0435\u043a\u0442, \u0434. 105.,", "addr:country": "Russia", "website": "https://shop.mgnl.ru/contacts/stores/", "brand": "Magnolia"}, "geometry": {"type": "Point", "coordinates": [37.756155, 55.70718]}},
{"type": "Feature", "id": "MMQ0GbNGr5ImbgDrHVZW0aWTjg4=", "properties": {"ref": "63", "@spider": "magnolia_dac", "addr:full": "\u0412\u043e\u043b\u043e\u043a\u043e\u043b\u0430\u043c\u0441\u043a\u043e\u0435 \u0448\u043e\u0441\u0441\u0435, \u0434. 10,", "addr:country": "Russia", "website": "https://shop.mgnl.ru/contacts/stores/", "brand": "Magnolia"}, "geometry": {"type": "Point", "coordinates": [37.497746, 55.80887]}},
{"type": "Feature", "id": "8XzPehHDlZ6PYjgfgOzF0UFpF7E=", "properties": {"ref": "64", "@spider": "magnolia_dac", "addr:full": "\u0412\u043e\u043b\u043e\u043a\u043e\u043b\u0430\u043c\u0441\u043a\u043e\u0435 \u0448., \u0434.18,", "addr:country": "Russia", "website": "https://shop.mgnl.ru/contacts/stores/", "brand": "Magnolia"}, "geometry": {"type": "Point", "coordinates": [37.4916, 55.81015]}},
{"type": "Feature", "id": "7Hpfk1stidZLLNTmSgr7myTpRnM=", "properties": {"ref": "65", "@spider": "magnolia_dac", "addr:full": "\u0412\u043e\u0440\u043e\u043d\u0446\u043e\u0432\u0441\u043a\u0430\u044f \u0434.35\u0411, \u043a\u043e\u0440\u043f.3,", "addr:country": "Russia", "website": "https://shop.mgnl.ru/contacts/stores/", "brand": "Magnolia"}, "geometry": {"type": "Point", "coordinates": [37.664438, 55.73437]}},
{"type": "Feature", "id": "1SrmGBWm1d872EdppIEb85_1aJg=", "properties": {"ref": "66", "@spider": "magnolia_dac", "addr:full": "\u0412\u043e\u0440\u043e\u043d\u0446\u043e\u0432\u0441\u043a\u0430\u044f \u0434.44,", "addr:country": "Russia", "website": "https://shop.mgnl.ru/contacts/stores/", "brand": "Magnolia"}, "geometry": {"type": "Point", "coordinates": [37.662497, 55.7333]}},
{"type": "Feature", "id": "qTlFtmOpRdVAw3XLeUd2GO-7Tq0=", "properties": {"ref": "67", "@spider": "magnolia_dac", "addr:full": "\u0412\u043e\u0441\u0442\u043e\u0447\u043d\u0430\u044f, \u0434.2, \u043a\u043e\u0440\u043f. 1.,", "addr:country": "Russia", "website": "https://shop.mgnl.ru/contacts/stores/", "brand": "Magnolia"}, "geometry": {"type": "Point", "coordinates": [37.660368, 55.71628]}},
{"type": "Feature", "id": "TUcMXGP2CMoz2Fb1xghjkUbmKr8=", "properties": {"ref": "68", "@spider": "magnolia_dac", "addr:full": "\u0417\u0435\u043c\u043b\u044f\u043d\u043e\u0439 \u0412\u0430\u043b \u0434. 29 \u0441\u0442\u0440. 14,", "addr:country": "Russia", "website": "https://shop.mgnl.ru/contacts/stores/", "brand": "Magnolia"}, "geometry": {"type": "Point", "coordinates": [37.65939246, 55.7585813]}},
{"type": "Feature", "id": "LO80OUZ1pfWI8PfE8GNVqcyuSPU=", "properties": {"ref": "69", "@spider": "magnolia_dac", "addr:full": "\u0413\u0430\u0440\u0438\u0431\u0430\u043b\u044c\u0434\u0438, \u0434. 21,", "addr:country": "Russia", "website": "https://shop.mgnl.ru/contacts/stores/", "brand": "Magnolia"}, "geometry": {"type": "Point", "coordinates": [37.550693, 55.67222]}},
{"type": "Feature", "id": "pmzria2G1Q_LyaCNHsBLWTlonKk=", "properties": {"ref": "70", "@spider": "magnolia_dac", "addr:full": "\u0413\u0430\u0448\u0435\u043a\u0430, \u0434. 2, \u0441\u0442\u0440. 1,", "addr:country": "Russia", "website": "https://shop.mgnl.ru/contacts/stores/", "brand": "Magnolia"}, "geometry": {"type": "Point", "coordinates": [37.588222, 55.76787]}},
{"type": "Feature", "id": "YXAd2BonrhHqJ9FT_RYhvi901S0=", "properties": {"ref": "71", "@spider": "magnolia_dac", "addr:full": "\u0413\u0435\u0440\u0430\u0441\u0438\u043c\u0430 \u041a\u0443\u0440\u0438\u043d\u0430, \u0434 20,", "addr:country": "Russia", "website": "https://shop.mgnl.ru/contacts/stores/", "brand": "Magnolia"}, "geometry": {"type": "Point", "coordinates": [37.4679, 55.73]}},
{"type": "Feature", "id": "pWbV5yf4sItG9id4m0dvvBOlKgY=", "properties": {"ref": "72", "@spider": "magnolia_dac", "addr:full": "\u0413\u043e\u0433\u043e\u043b\u0435\u0432\u0441\u043a\u0438\u0439 \u0431-\u0440, \u0434.17, \u0441\u0442\u0440.1,", "addr:country": "Russia", "website": "https://shop.mgnl.ru/contacts/stores/", "brand": "Magnolia"}, "geometry": {"type": "Point", "coordinates": [37.599031, 55.74676]}},
{"type": "Feature", "id": "qIedeli-adXShhza8D9i4Dw74j0=", "properties": {"ref": "73", "@spider": "magnolia_dac", "addr:full": "\u0413\u043e\u043b\u044c\u044f\u043d\u043e\u0432\u0441\u043a\u0430\u044f, \u0434. 7 \u043a\u043e\u0440\u043f. 2,", "addr:country": "Russia", "website": "https://shop.mgnl.ru/contacts/stores/", "brand": "Magnolia"}, "geometry": {"type": "Point", "coordinates": [37.708868, 55.77571]}},
{"type": "Feature", "id": "t2RTUgL_DIaAkaVf7Gl3FS6h_Gs=", "properties": {"ref": "74", "@spider": "magnolia_dac", "addr:full": "\u0413\u0440\u0443\u0437\u0438\u043d\u0441\u043a\u0438\u0439 \u0432\u0430\u043b, \u0434.18/15/2 \u0441\u0442\u0440.1,", "addr:country": "Russia", "website": "https://shop.mgnl.ru/contacts/stores/", "brand": "Magnolia"}, "geometry": {"type": "Point", "coordinates": [37.57886, 55.77313]}},
{"type": "Feature", "id": "EQvA5BQ1igiZQXzuF5dvz8eeUJc=", "properties": {"ref": "75", "@spider": "magnolia_dac", "addr:full": "\u0414\u043c\u0438\u0442\u0440\u0438\u044f \u0423\u043b\u044c\u044f\u043d\u043e\u0432\u0430 \u0434.10,", "addr:country": "Russia", "website": "https://shop.mgnl.ru/contacts/stores/", "brand": "Magnolia"}, "geometry": {"type": "Point", "coordinates": [37.566476, 55.68966]}},
{"type": "Feature", "id": "tkknKHhRFeXxKDQttAQ7Xsq9dMc=", "properties": {"ref": "76", "@spider": "magnolia_dac", "addr:full": "\u0414\u043c\u0438\u0442\u0440\u0438\u044f \u0423\u043b\u044c\u044f\u043d\u043e\u0432\u0430, \u0434.4, \u043a\u043e\u0440.1,", "addr:country": "Russia", "website": "https://shop.mgnl.ru/contacts/stores/", "brand": "Magnolia"}, "geometry": {"type": "Point", "coordinates": [37.557502, 55.69339]}},
{"type": "Feature", "id": "eVxgbgn4scFostFv40MPhvnu0G0=", "properties": {"ref": "77", "@spider": "magnolia_dac", "addr:full": "\u0414\u043c\u0438\u0442\u0440\u043e\u0432\u0441\u043a\u043e\u0435 \u0448\u043e\u0441\u0441\u0435, \u0434. 64 \u043a.3,", "addr:country": "Russia", "website": "https://shop.mgnl.ru/contacts/stores/", "brand": "Magnolia"}, "geometry": {"type": "Point", "coordinates": [37.56256, 55.85659]}},
{"type": "Feature", "id": "X1KWPywD1Yxwf1hYLITopUVfojs=", "properties": {"ref": "78", "@spider": "magnolia_dac", "addr:full": "\u0414\u043e\u0432\u0430\u0442\u043e\u0440\u0430, 12,", "addr:country": "Russia", "website": "https://shop.mgnl.ru/contacts/stores/", "brand": "Magnolia"}, "geometry": {"type": "Point", "coordinates": [37.56604721, 55.7230722]}},
{"type": "Feature", "id": "t671cqiJtV-UyaAHKKSthiZlKTE=", "properties": {"ref": "79", "@spider": "magnolia_dac", "addr:full": "\u0414\u0443\u0431\u043a\u0438, \u0434. 2\u0430,", "addr:country": "Russia", "website": "https://shop.mgnl.ru/contacts/stores/", "brand": "Magnolia"}, "geometry": {"type": "Point", "coordinates": [37.569261, 55.81723]}},
{"type": "Feature", "id": "PRaEoD8TMXnJSbjm3qX3fF9ikec=", "properties": {"ref": "80", "@spider": "magnolia_dac", "addr:full": "2-\u0430\u044f \u0414\u0443\u0431\u0440\u043e\u0432\u0441\u043a\u0430\u044f, \u0434. 6.,", "addr:country": "Russia", "website": "https://shop.mgnl.ru/contacts/stores/", "brand": "Magnolia"}, "geometry": {"type": "Point", "coordinates": [37.671049, 55.7275]}},
{"type": "Feature", "id": "DHtakT15LdWoxciMAKdZy7VHJR4=", "properties": {"ref": "81", "@spider": "magnolia_dac", "addr:full": "\u0415\u043d\u0438\u0441\u0435\u0439\u0441\u043a\u0430\u044f \u0434.29,", "addr:country": "Russia", "website": "https://shop.mgnl.ru/contacts/stores/", "brand": "Magnolia"}, "geometry": {"type": "Point", "coordinates": [37.664842, 55.8733]}},
{"type": "Feature", "id": "4ciZ2tSFF41vHzmIYph7YNHCHwc=", "properties": {"ref": "82", "@spider": "magnolia_dac", "addr:full": "\u0417\u0430\u043c\u043e\u0440\u0435\u043d\u043e\u0432\u0430 \u0434.40,", "addr:country": "Russia", "website": "https://shop.mgnl.ru/contacts/stores/", "brand": "Magnolia"}, "geometry": {"type": "Point", "coordinates": [37.564868, 55.76194]}},
{"type": "Feature", "id": "Mli0jNBZRiYI9bMMdZKmG_eYYEU=", "properties": {"ref": "83", "@spider": "magnolia_dac", "addr:full": "\u041a\u0430\u0441\u0442\u0430\u043d\u0430\u0435\u0432\u0441\u043a\u0430\u044f, \u0434.49.,", "addr:country": "Russia", "website": "https://shop.mgnl.ru/contacts/stores/", "brand": "Magnolia"}, "geometry": {"type": "Point", "coordinates": [37.461948, 55.73213]}},
{"type": "Feature", "id": "GKhI7pS_G7qi0G_uMQTZUbZeYPY=", "properties": {"ref": "84", "@spider": "magnolia_dac", "addr:full": "\u041a\u0438\u0431\u0430\u043b\u044c\u0447\u0438\u0447\u0430, 4/6,", "addr:country": "Russia", "website": "https://shop.mgnl.ru/contacts/stores/", "brand": "Magnolia"}, "geometry": {"type": "Point", "coordinates": [37.647414, 55.81515]}},
{"type": "Feature", "id": "v1VTmBGsjvYlymQL_ccRZpHJv-M=", "properties": {"ref": "85", "@spider": "magnolia_dac", "addr:full": "\u041a\u0438\u0435\u0432\u0441\u043a\u0430\u044f, \u0434.18, \u0441\u0442\u0440.1.,", "addr:country": "Russia", "website": "https://shop.mgnl.ru/contacts/stores/", "brand": "Magnolia"}, "geometry": {"type": "Point", "coordinates": [37.548294, 55.73929]}},
{"type": "Feature", "id": "BI0QJ6fIFOuRgDjVUQBdRB1v5ws=", "properties": {"ref": "86", "@spider": "magnolia_dac", "addr:full": "\u041a\u043e\u043b\u043e\u043a\u043e\u043b\u044c\u043d\u0438\u043a\u043e\u0432, 3,", "addr:country": "Russia", "website": "https://shop.mgnl.ru/contacts/stores/", "brand": "Magnolia"}, "geometry": {"type": "Point", "coordinates": [37.624786, 55.76812]}},
{"type": "Feature", "id": "mQVDsFysfuwtVT0SghDwzNHQQp0=", "properties": {"ref": "87", "@spider": "magnolia_dac", "addr:full": "\u041a\u043e\u043c\u0441\u043e\u043c\u043e\u043b\u044c\u0441\u043a\u0438\u0439 \u043f\u0440-\u043a\u0442, \u0434. 25.,", "addr:country": "Russia", "website": "https://shop.mgnl.ru/contacts/stores/", "brand": "Magnolia"}, "geometry": {"type": "Point", "coordinates": [37.582197, 55.72653]}},
{"type": "Feature", "id": "q55JgLHAPHvOfPrcCHz1AiYF_Yg=", "properties": {"ref": "88", "@spider": "magnolia_dac", "addr:full": "\u041a\u043e\u0440\u043e\u043b\u0435\u043d\u043a\u043e \u0434.4/14,", "addr:country": "Russia", "website": "https://shop.mgnl.ru/contacts/stores/", "brand": "Magnolia"}, "geometry": {"type": "Point", "coordinates": [37.6903, 55.79651]}},
{"type": "Feature", "id": "t7K3uIJsk4tFEkVMcdp-XlmQSyQ=", "properties": {"ref": "89", "@spider": "magnolia_dac", "addr:full": "\u041a\u0440\u0430\u0441\u043d\u043e\u0433\u043e\u0440\u0441\u043a\u0438\u0439 \u0440-\u043e\u043d, \u0441\u0435\u043b\u043e \u0418\u043b\u044c\u0438\u043d\u0441\u043a\u043e\u0435, \u0443\u043b.\u041b\u0435\u043d\u0438\u043d\u0430, \u0434.28,,", "addr:country": "Russia", "website": "https://shop.mgnl.ru/contacts/stores/", "brand": "Magnolia"}, "geometry": {"type": "Point", "coordinates": [37.242634, 55.7607]}},
{"type": "Feature", "id": "3gP1KGKmHbaiicGm4pXcAQOEnTE=", "properties": {"ref": "90", "@spider": "magnolia_dac", "addr:full": "\u041a\u0440\u0430\u0441\u043d\u043e\u043f\u0440\u0435\u0441\u043d\u0435\u043d\u0441\u043a\u0430\u044f \u043d\u0430\u0431\u0435\u0440\u0435\u0436\u043d\u0430\u044f 2/1,", "addr:country": "Russia", "website": "https://shop.mgnl.ru/contacts/stores/", "brand": "Magnolia"}, "geometry": {"type": "Point", "coordinates": [37.56892, 55.75459]}},
{"type": "Feature", "id": "pTRwCw4TOMzEgf-td0dg6ZILjfs=", "properties": {"ref": "91", "@spider": "magnolia_dac", "addr:full": "\u041a\u0440\u0430\u0441\u043d\u043e\u043f\u0440\u0443\u0434\u043d\u0430\u044f \u0434.11,", "addr:country": "Russia", "website": "https://shop.mgnl.ru/contacts/stores/", "brand": "Magnolia"}, "geometry": {"type": "Point", "coordinates": [37.664914, 55.77936]}},
{"type": "Feature", "id": "hyfpWOJbC7gtSB99AFiUzM65UB0=", "properties": {"ref": "92", "@spider": "magnolia_dac", "addr:full": "\u041a\u0440\u0438\u0432\u043e\u043a\u043e\u043b\u0435\u043d\u043d\u044b\u0439 \u043f\u0435\u0440\u0435\u0443\u043b\u043e\u043a, 12\u04411,", "addr:country": "Russia", "website": "https://shop.mgnl.ru/contacts/stores/", "brand": "Magnolia"}, "geometry": {"type": "Point", "coordinates": [37.636504, 55.76226]}},
{"type": "Feature", "id": "KKIf0tYoEoK3alKhFTpcZUApy3c=", "properties": {"ref": "93", "@spider": "magnolia_dac", "addr:full": "\u041a\u0443\u0442\u0443\u0437\u043e\u0432\u0441\u043a\u0438\u0439 \u043f\u0440-\u0442, \u0434. 35,", "addr:country": "Russia", "website": "https://shop.mgnl.ru/contacts/stores/", "brand": "Magnolia"}, "geometry": {"type": "Point", "coordinates": [37.536871, 55.74005]}},
{"type": "Feature", "id": "YSLG_FRfw4WFMUPcMaRmyn9NqlM=", "properties": {"ref": "94", "@spider": "magnolia_dac", "addr:full": "\u041a\u0443\u0442\u0443\u0437\u043e\u0432\u0441\u043a\u0438\u0439 \u043f\u0440\u043e\u0441\u043f\u0435\u043a\u0442, \u0434. 41,", "addr:country": "Russia", "website": "https://shop.mgnl.ru/contacts/stores/", "brand": "Magnolia"}, "geometry": {"type": "Point", "coordinates": [37.530889, 55.73866]}},
{"type": "Feature", "id": "5ubbIpjIi8B0X9zFjqTau4d-pnM=", "properties": {"ref": "95", "@spider": "magnolia_dac", "addr:full": "\u041a\u0443\u0442\u0443\u0437\u043e\u0432\u0441\u043a\u0438\u0439 \u043f\u0440-\u0442, \u0434. 5/3.,", "addr:country": "Russia", "website": "https://shop.mgnl.ru/contacts/stores/", "brand": "Magnolia"}, "geometry": {"type": "Point", "coordinates": [37.567051, 55.74984]}},
{"type": "Feature", "id": "0At-sNBXgU7T5R7CKkovUEhQnE0=", "properties": {"ref": "96", "@spider": "magnolia_dac", "addr:full": "\u041a\u0443\u0442\u0443\u0437\u043e\u0432\u0441\u043a\u0438\u0439 \u043f\u0440-\u0442, \u0434.45, \u0441\u0442\u0440.1.,", "addr:country": "Russia", "website": "https://shop.mgnl.ru/contacts/stores/", "brand": "Magnolia"}, "geometry": {"type": "Point", "coordinates": [37.525738, 55.7369]}},
{"type": "Feature", "id": "Lc2yUxD2sdvYm0ue3j1d8nUgUwQ=", "properties": {"ref": "97", "@spider": "magnolia_dac", "addr:full": "\u041a\u0443\u0442\u0443\u0437\u043e\u0432\u0441\u043a\u0438\u0439 \u043f\u0440\u043e\u0441\u043f\u0435\u043a\u0442, \u0434\u043e\u043c 26,", "addr:country": "Russia", "website": "https://shop.mgnl.ru/contacts/stores/", "brand": "Magnolia"}, "geometry": {"type": "Point", "coordinates": [37.542392, 55.74332]}},
{"type": "Feature", "id": "lsf4m-wqKYwYQ5zVZ-XyP12tHLY=", "properties": {"ref": "98", "@spider": "magnolia_dac", "addr:full": "\u041a\u0443\u0442\u0443\u0437\u043e\u0432\u0441\u043a\u0438\u0439 \u043f\u0440\u043e\u0441\u043f\u0435\u043a\u0442, \u0434\u043e\u043c 29,", "addr:country": "Russia", "website": "https://shop.mgnl.ru/contacts/stores/", "brand": "Magnolia"}, "geometry": {"type": "Point", "coordinates": [37.5442764, 55.743115]}},
{"type": "Feature", "id": "u0ZLcvbmazaWYkfidcguPyAsmUw=", "properties": {"ref": "99", "@spider": "magnolia_dac", "addr:full": "\u041a\u0443\u0443\u0441\u0438\u043d\u0435\u043d\u0430 \u0443\u043b., \u0434.6 \u043a\u043e\u0440\u043f.2,", "addr:country": "Russia", "website": "https://shop.mgnl.ru/contacts/stores/", "brand": "Magnolia"}, "geometry": {"type": "Point", "coordinates": [37.515795, 55.78171]}},
{"type": "Feature", "id": "S8d2UcBIftVhHWdVcG8HBkmVciU=", "properties": {"ref": "100", "@spider": "magnolia_dac", "addr:full": "\u041b\u0430\u0434\u043e\u0436\u0441\u043a\u0430\u044f \u0434.2/37,", "addr:country": "Russia", "website": "https://shop.mgnl.ru/contacts/stores/", "brand": "Magnolia"}, "geometry": {"type": "Point", "coordinates": [37.679871, 55.7711]}},
{"type": "Feature", "id": "OBZPHmsQpaObvtGqt2kysK6khLw=", "properties": {"ref": "101", "@spider": "magnolia_dac", "addr:full": "\u041b\u0435\u043d\u0438\u043d\u0433\u0440\u0430\u0434\u0441\u043a\u0438\u0439 \u043f\u0440.,78,", "addr:country": "Russia", "website": "https://shop.mgnl.ru/contacts/stores/", "brand": "Magnolia"}, "geometry": {"type": "Point", "coordinates": [37.513296, 55.80605]}},
{"type": "Feature", "id": "rt0oKto9OZgy7gcrCTH2I3fnR5M=", "properties": {"ref": "102", "@spider": "magnolia_dac", "addr:full": "\u041b\u0435\u043d\u0438\u043d\u0433\u0440\u0430\u0434\u0441\u043a\u0438\u0439 \u043f\u0440\u043e\u0441\u043f\u0435\u043a\u0442, \u0434. 75, \u043a\u043e\u0440\u043f. 1.,", "addr:country": "Russia", "website": "https://shop.mgnl.ru/contacts/stores/", "brand": "Magnolia"}, "geometry": {"type": "Point", "coordinates": [37.513476, 55.80424]}},
{"type": "Feature", "id": "ICJYYVZiMNN9YDKUAASPWUZOxhA=", "properties": {"ref": "103", "@spider": "magnolia_dac", "addr:full": "\u041b\u0435\u043d\u0438\u043d\u0433\u0440\u0430\u0434\u0441\u043a\u043e\u0435 \u0448\u043e\u0441\u0441\u0435, \u0434. 94, \u043a\u043e\u0440. 1.,", "addr:country": "Russia", "website": "https://shop.mgnl.ru/contacts/stores/", "brand": "Magnolia"}, "geometry": {"type": "Point", "coordinates": [37.470374, 55.85585]}},
{"type": "Feature", "id": "A9xFYfcUZzHhmnwyRPT2qqHMn04=", "properties": {"ref": "104", "@spider": "magnolia_dac", "addr:full": "\u041b\u0435\u043d\u0438\u043d\u0433\u0440\u0430\u0434\u0441\u043a\u043e\u0435 \u0448\u043e\u0441\u0441\u0435, \u0434.15,", "addr:country": "Russia", "website": "https://shop.mgnl.ru/contacts/stores/", "brand": "Magnolia"}, "geometry": {"type": "Point", "coordinates": [37.49513, 55.81983]}},
{"type": "Feature", "id": "7DYJXAR8oOF8awl8_Ih2fGIRUVs=", "properties": {"ref": "105", "@spider": "magnolia_dac", "addr:full": "\u041b\u0435\u043d\u0438\u043d\u0441\u043a\u0438\u0439 \u043f\u0440-\u0442 \u0434.86,", "addr:country": "Russia", "website": "https://shop.mgnl.ru/contacts/stores/", "brand": "Magnolia"}, "geometry": {"type": "Point", "coordinates": [37.527507, 55.67676]}},
{"type": "Feature", "id": "x-AHX4ExXj55QVHM6UIabswktUc=", "properties": {"ref": "106", "@spider": "magnolia_dac", "addr:full": "\u041b\u0435\u043d\u0438\u043d\u0441\u043a\u0438\u0439 \u043f\u0440-\u0442, 87,", "addr:country": "Russia", "website": "https://shop.mgnl.ru/contacts/stores/", "brand": "Magnolia"}, "geometry": {"type": "Point", "coordinates": [37.533885, 55.67942]}},
{"type": "Feature", "id": "-tJ9LxObNkwmFL3Z1Q2nGkPPxfM=", "properties": {"ref": "107", "@spider": "magnolia_dac", "addr:full": "\u041b\u0435\u043d\u0438\u043d\u0441\u043a\u0438\u0439 \u043f\u0440\u043e\u0441\u043f\u0435\u043a\u0442, \u0434. 62/1,", "addr:country": "Russia", "website": "https://shop.mgnl.ru/contacts/stores/", "brand": "Magnolia"}, "geometry": {"type": "Point", "coordinates": [37.554457, 55.69399]}},
{"type": "Feature", "id": "JxslwAu48Hskmwjlgb496XZB9EI=", "properties": {"ref": "108", "@spider": "magnolia_dac", "addr:full": "\u041b\u0435\u043d\u0438\u043d\u0441\u043a\u0438\u0439 \u043f\u0440\u043e\u0441\u043f\u0435\u043a\u0442, \u0434. 79, \u043a\u043e\u0440\u043f.2.,", "addr:country": "Russia", "website": "https://shop.mgnl.ru/contacts/stores/", "brand": "Magnolia"}, "geometry": {"type": "Point", "coordinates": [37.543075, 55.6845]}},
{"type": "Feature", "id": "VV1040sbZkHmiGvapIMrDIsh65Y=", "properties": {"ref": "109", "@spider": "magnolia_dac", "addr:full": "\u041b\u0435\u043d\u0438\u043d\u0441\u043a\u0438\u0439 \u043f\u0440\u043e\u0441\u043f\u0435\u043a\u0442, \u0434\u043e\u043c 69,", "addr:country": "Russia", "website": "https://shop.mgnl.ru/contacts/stores/", "brand": "Magnolia"}, "geometry": {"type": "Point", "coordinates": [37.55042941, 55.6903897]}},
{"type": "Feature", "id": "zw9ekpvtVYFlyZJQ5HmtsT42LLw=", "properties": {"ref": "110", "@spider": "magnolia_dac", "addr:full": "\u041b\u0435\u0441\u0442\u0435\u0432\u0430, 11,", "addr:country": "Russia", "website": "https://shop.mgnl.ru/contacts/stores/", "brand": "Magnolia"}, "geometry": {"type": "Point", "coordinates": [37.612982, 55.71441]}},
{"type": "Feature", "id": "mIlbx7qtqkPxH4v6XU8McM0e4RY=", "properties": {"ref": "111", "@spider": "magnolia_dac", "addr:full": "\u041b\u0435\u0444\u043e\u0440\u0442\u043e\u0432\u0441\u043a\u0438\u0439 \u0432\u0430\u043b, \u0434\u043e\u043c 11,", "addr:country": "Russia", "website": "https://shop.mgnl.ru/contacts/stores/", "brand": "Magnolia"}, "geometry": {"type": "Point", "coordinates": [37.700065, 55.75785]}},
{"type": "Feature", "id": "_ISsqO4qX-A1z-XB-ca90j3IuvU=", "properties": {"ref": "112", "@spider": "magnolia_dac", "addr:full": "\u041b\u0438\u0445\u043e\u0432 \u043f\u0435\u0440\u0435\u0443\u043b\u043e\u043a, 5,", "addr:country": "Russia", "website": "https://shop.mgnl.ru/contacts/stores/", "brand": "Magnolia"}, "geometry": {"type": "Point", "coordinates": [37.612156, 55.77251]}},
{"type": "Feature", "id": "zG-hMpMSe8RBNZh4PMeQopdJhQs=", "properties": {"ref": "113", "@spider": "magnolia_dac", "addr:full": "\u041b\u043e\u043c\u043e\u043d\u043e\u0441\u043e\u0432\u0441\u043a\u0438\u0439 \u043f\u0440-\u0442., \u0434.18,", "addr:country": "Russia", "website": "https://shop.mgnl.ru/contacts/stores/", "brand": "Magnolia"}, "geometry": {"type": "Point", "coordinates": [37.539092, 55.69221]}},
{"type": "Feature", "id": "vGsyEWZB4_zynRT31AdqGuyzgxQ=", "properties": {"ref": "114", "@spider": "magnolia_dac", "addr:full": "\u041b\u044c\u0432\u0430 \u0422\u043e\u043b\u0441\u0442\u043e\u0433\u043e, \u0434. 3,", "addr:country": "Russia", "website": "https://shop.mgnl.ru/contacts/stores/", "brand": "Magnolia"}, "geometry": {"type": "Point", "coordinates": [37.589743, 55.73188]}},
{"type": "Feature", "id": "OjzWZ_CnKfzeXPclwNF6SGEiUlI=", "properties": {"ref": "115", "@spider": "magnolia_dac", "addr:full": "\u041b\u044f\u043b\u0438\u043d \u043f\u0435\u0440\u0435\u0443\u043b\u043e\u043a, \u0434.5 \u0441\u0442\u0440.1,", "addr:country": "Russia", "website": "https://shop.mgnl.ru/contacts/stores/", "brand": "Magnolia"}, "geometry": {"type": "Point", "coordinates": [37.651886, 55.75996]}},
{"type": "Feature", "id": "TlPrPj4s6MI9Nvcx8USLat1jrw8=", "properties": {"ref": "116", "@spider": "magnolia_dac", "addr:full": "\u041c\u0430\u043b\u0430\u044f \u0411\u0440\u043e\u043d\u043d\u0430\u044f \u0443\u043b., \u0434. 31/13,", "addr:country": "Russia", "website": "https://shop.mgnl.ru/contacts/stores/", "brand": "Magnolia"}, "geometry": {"type": "Point", "coordinates": [37.591427, 55.7652]}},
{"type": "Feature", "id": "COUHaSN6oQvE8WS4493HS3Wfe8Y=", "properties": {"ref": "117", "@spider": "magnolia_dac", "addr:full": "\u041c\u0430\u043b\u0430\u044f \u041a\u0430\u043b\u0438\u0442\u043d\u0438\u043a\u043e\u0432\u0441\u043a\u0430\u044f, \u0434.47\u0410,", "addr:country": "Russia", "website": "https://shop.mgnl.ru/contacts/stores/", "brand": "Magnolia"}, "geometry": {"type": "Point", "coordinates": [37.684946, 55.73446]}},
{"type": "Feature", "id": "phmClC1HZOh92W_j2Ct-oByGehg=", "properties": {"ref": "118", "@spider": "magnolia_dac", "addr:full": "\u041c\u0430\u043b\u0430\u044f \u041e\u0441\u0442\u0440\u043e\u0443\u043c\u043e\u0432\u0441\u043a\u0430\u044f \u0434.1 \u0441\u0442\u0440.3,", "addr:country": "Russia", "website": "https://shop.mgnl.ru/contacts/stores/", "brand": "Magnolia"}, "geometry": {"type": "Point", "coordinates": [37.690614, 55.794]}},
{"type": "Feature", "id": "vw_85A7C77MNu7WGO1d1316p8N8=", "properties": {"ref": "119", "@spider": "magnolia_dac", "addr:full": "\u041c\u0430\u0440\u0448\u0430\u043b\u0430 \u0411\u0438\u0440\u044e\u0437\u043e\u0432\u0430 \u0443\u043b., \u0434.4,", "addr:country": "Russia", "website": "https://shop.mgnl.ru/contacts/stores/", "brand": "Magnolia"}, "geometry": {"type": "Point", "coordinates": [37.500026, 55.79056]}},
{"type": "Feature", "id": "MaAD0_XVKz_it-OOwiOMUqGfTJQ=", "properties": {"ref": "120", "@spider": "magnolia_dac", "addr:full": "\u041c\u0430\u0440\u0448\u0430\u043b\u0430 \u041c\u0430\u043b\u0438\u043d\u043e\u0432\u0441\u043a\u043e\u0433\u043e \u0434.8,", "addr:country": "Russia", "website": "https://shop.mgnl.ru/contacts/stores/", "brand": "Magnolia"}, "geometry": {"type": "Point", "coordinates": [37.493587, 55.79264]}},
{"type": "Feature", "id": "CGu1A5WV7656rW6UIf-WG-gDfbU=", "properties": {"ref": "121", "@spider": "magnolia_dac", "addr:full": "\u041c\u0430\u0440\u0448\u0430\u043b\u0430 \u0420\u044b\u0431\u0430\u043b\u043a\u043e, \u0434.3,", "addr:country": "Russia", "website": "https://shop.mgnl.ru/contacts/stores/", "brand": "Magnolia"}, "geometry": {"type": "Point", "coordinates": [37.494099, 55.79604]}},
{"type": "Feature", "id": "4dAcmKdUtAi5HAnMn6MWHJC7PfU=", "properties": {"ref": "122", "@spider": "magnolia_dac", "addr:full": "2-\u044f \u0443\u043b. \u041c\u0430\u0440\u044c\u0438\u043d\u043e\u0439 \u0420\u043e\u0449\u0438, \u0434. 14,", "addr:country": "Russia", "website": "https://shop.mgnl.ru/contacts/stores/", "brand": "Magnolia"}, "geometry": {"type": "Point", "coordinates": [37.619419, 55.79715]}},
{"type": "Feature", "id": "D8itWkxR1s0g59Gu9RiTL48n9Yk=", "properties": {"ref": "123", "@spider": "magnolia_dac", "addr:full": "1-\u044f \u041c\u0430\u0448\u0438\u043d\u043e\u0441\u0442\u0440\u043e\u0435\u043d\u0438\u044f, 18/36,", "addr:country": "Russia", "website": "https://shop.mgnl.ru/contacts/stores/", "brand": "Magnolia"}, "geometry": {"type": "Point", "coordinates": [37.676169, 55.71513]}},
{"type": "Feature", "id": "RK9cuC4dcO0N8O54nRJma_5HgZg=", "properties": {"ref": "124", "@spider": "magnolia_dac", "addr:full": "\u041c\u0435\u0449\u0430\u043d\u0441\u043a\u0430\u044f \u0434.14, \u0441\u0442\u0440.1,", "addr:country": "Russia", "website": "https://shop.mgnl.ru/contacts/stores/", "brand": "Magnolia"}, "geometry": {"type": "Point", "coordinates": [37.628379, 55.77738]}},
{"type": "Feature", "id": "8OO3nDuvF5RlA7wnlPbqs3W0SVA=", "properties": {"ref": "125", "@spider": "magnolia_dac", "addr:full": "1-\u044f \u041c\u0438\u0443\u0441\u0441\u043a\u0430\u044f, \u0434.24/22,", "addr:country": "Russia", "website": "https://shop.mgnl.ru/contacts/stores/", "brand": "Magnolia"}, "geometry": {"type": "Point", "coordinates": [37.593318, 55.78129]}},
{"type": "Feature", "id": "cpqRL4_YFmSvXp1pEd_nKHkSue4=", "properties": {"ref": "126", "@spider": "magnolia_dac", "addr:full": "\u041c\u043d\u0435\u0432\u043d\u0438\u043a\u0438, \u0434. 19.,", "addr:country": "Russia", "website": "https://shop.mgnl.ru/contacts/stores/", "brand": "Magnolia"}, "geometry": {"type": "Point", "coordinates": [37.482583, 55.77367]}},
{"type": "Feature", "id": "hf-1wUrHBRGOPKGqF4WMd5mnLVU=", "properties": {"ref": "127", "@spider": "magnolia_dac", "addr:full": "\u041c\u043e\u0436\u0430\u0439\u0441\u043a\u043e\u0435 \u0448\u043e\u0441\u0441\u0435, \u0434.3/1.,", "addr:country": "Russia", "website": "https://shop.mgnl.ru/contacts/stores/", "brand": "Magnolia"}, "geometry": {"type": "Point", "coordinates": [37.445087, 55.72206]}},
{"type": "Feature", "id": "uPyH9dbutw9RtVyZBPDlebZiBa8=", "properties": {"ref": "128", "@spider": "magnolia_dac", "addr:full": "\u041c\u043e\u0436\u0430\u0439\u0441\u043a\u043e\u0435 \u0448\u043e\u0441\u0441\u0435, \u0434.9, \u0441\u0442\u0440.1.,", "addr:country": "Russia", "website": "https://shop.mgnl.ru/contacts/stores/", "brand": "Magnolia"}, "geometry": {"type": "Point", "coordinates": [37.438727, 55.72037]}},
{"type": "Feature", "id": "gcuDUkdx4AKcqxmDdcxUgg__6bs=", "properties": {"ref": "129", "@spider": "magnolia_dac", "addr:full": "\u0443\u043b. \u041c\u0430\u043b\u0430\u044f \u0421\u0443\u0445\u0430\u0440\u0435\u0432\u0441\u043a\u0430\u044f \u043f\u043b\u043e\u0449\u0430\u0434\u044c, \u0434\u043e\u043c 12,", "addr:country": "Russia", "website": "https://shop.mgnl.ru/contacts/stores/", "brand": "Magnolia"}, "geometry": {"type": "Point", "coordinates": [37.6314527, 55.7724]}},
{"type": "Feature", "id": "crwFnZ20JhwI2YBoAhaOggGmPng=", "properties": {"ref": "130", "@spider": "magnolia_dac", "addr:full": "\u0427\u0438\u0441\u0442\u043e\u043f\u0440\u0443\u0434\u043d\u044b\u0439 \u0431\u0443\u043b\u044c\u0432\u0430\u0440, 7/2,", "addr:country": "Russia", "website": "https://shop.mgnl.ru/contacts/stores/", "brand": "Magnolia"}, "geometry": {"type": "Point", "coordinates": [37.64295, 55.76323]}},
{"type": "Feature", "id": "wmgwerfGrofztT1AFqxlcbapPSU=", "properties": {"ref": "131", "@spider": "magnolia_dac", "addr:full": "\u041c\u043e\u0441\u0444\u0438\u043b\u044c\u043c\u043e\u0432\u0441\u043a\u0430\u044f, \u0434.2\u0412,", "addr:country": "Russia", "website": "https://shop.mgnl.ru/contacts/stores/", "brand": "Magnolia"}, "geometry": {"type": "Point", "coordinates": [37.532475, 55.72571]}},
{"type": "Feature", "id": "nre5pQUsO_2EsCLxihPhbhJnujU=", "properties": {"ref": "132", "@spider": "magnolia_dac", "addr:full": "\u041c\u044f\u0441\u043d\u0438\u0446\u043a\u0438\u0439 \u043f\u0440\u043e\u0435\u0437\u0434, \u0434.4, \u0441\u0442\u0440.1,", "addr:country": "Russia", "website": "https://shop.mgnl.ru/contacts/stores/", "brand": "Magnolia"}, "geometry": {"type": "Point", "coordinates": [37.646777, 55.76837]}},
{"type": "Feature", "id": "T0hko8nn9Iogg4o5rxUrAZfNnpQ=", "properties": {"ref": "133", "@spider": "magnolia_dac", "addr:full": "\u041d\u0430\u0433\u0430\u0442\u0438\u043d\u0441\u043a\u0430\u044f \u043d\u0430\u0431., \u0434\u043e\u043c 40/1, \u043a\u043e\u0440.1,", "addr:country": "Russia", "website": "https://shop.mgnl.ru/contacts/stores/", "brand": "Magnolia"}, "geometry": {"type": "Point", "coordinates": [37.673663, 55.68549]}},
{"type": "Feature", "id": "xn1lMBVxN8nHNhZYzy1VNQ3b7xg=", "properties": {"ref": "134", "@spider": "magnolia_dac", "addr:full": "\u041d\u0430\u0433\u0430\u0442\u0438\u043d\u0441\u043a\u0430\u044f \u0443\u043b, \u0434.33,", "addr:country": "Russia", "website": "https://shop.mgnl.ru/contacts/stores/", "brand": "Magnolia"}, "geometry": {"type": "Point", "coordinates": [37.659829, 55.67764]}},
{"type": "Feature", "id": "cbwy72sUiE9MMV3IdWld7If5e0Q=", "properties": {"ref": "135", "@spider": "magnolia_dac", "addr:full": "\u041d\u0430\u0445\u0438\u043c\u043e\u0432\u0441\u043a\u0438\u0439 \u043f\u0440\u043e\u0441\u043f\u0435\u043a\u0442, \u0434. 9\u0410.,", "addr:country": "Russia", "website": "https://shop.mgnl.ru/contacts/stores/", "brand": "Magnolia"}, "geometry": {"type": "Point", "coordinates": [37.608077, 55.66356]}},
{"type": "Feature", "id": "Nzf0tNEjhJVV_x7T1vh5xWC4Dso=", "properties": {"ref": "136", "@spider": "magnolia_dac", "addr:full": "\u041d\u0430\u0445\u0438\u043c\u043e\u0432\u0441\u043a\u0438\u0439 \u043f\u0440\u043e\u0441\u043f\u0435\u043a\u0442, \u0434.25\u0410,", "addr:country": "Russia", "website": "https://shop.mgnl.ru/contacts/stores/", "brand": "Magnolia"}, "geometry": {"type": "Point", "coordinates": [37.589105, 55.66793]}},
{"type": "Feature", "id": "AOBQ8RUIPGgoKvlEkpNNaaCVgK4=", "properties": {"ref": "137", "@spider": "magnolia_dac", "addr:full": "\u041d\u0435\u043e\u043f\u0430\u043b\u0438\u043c\u043e\u0432\u0441\u043a\u0438\u0439 \u043f\u0435\u0440., 8,", "addr:country": "Russia", "website": "https://shop.mgnl.ru/contacts/stores/", "brand": "Magnolia"}, "geometry": {"type": "Point", "coordinates": [37.580706, 55.7408]}},
{"type": "Feature", "id": "EStCe3HkG3qkqACGTIlbj1gfsyk=", "properties": {"ref": "138", "@spider": "magnolia_dac", "addr:full": "\u041d\u0438\u0436\u043d\u0438\u0439 \u041a\u0438\u0441\u043b\u043e\u0432\u0441\u043a\u0438\u0439 \u043f\u0435\u0440., \u0434. 7, \u0441\u0442\u0440. 1,", "addr:country": "Russia", "website": "https://shop.mgnl.ru/contacts/stores/", "brand": "Magnolia"}, "geometry": {"type": "Point", "coordinates": [37.60346, 55.75371]}},
{"type": "Feature", "id": "SkTa39SVNYBA0_BtK7vRf-jb9RQ=", "properties": {"ref": "139", "@spider": "magnolia_dac", "addr:full": "\u041d\u0438\u0436\u043d\u044f\u044f \u041c\u0430\u0441\u043b\u043e\u0432\u043a\u0430, \u0434.5,", "addr:country": "Russia", "website": "https://shop.mgnl.ru/contacts/stores/", "brand": "Magnolia"}, "geometry": {"type": "Point", "coordinates": [37.583391, 55.79166]}},
{"type": "Feature", "id": "TRKDeLudhECdl5_dMa-WZSfOMMs=", "properties": {"ref": "140", "@spider": "magnolia_dac", "addr:full": "\u041d\u043e\u0432\u0430\u044f \u0411\u0430\u0441\u043c\u0430\u043d\u043d\u0430\u044f, \u0434. 25/2 \u0441\u0442\u0440.1,", "addr:country": "Russia", "website": "https://shop.mgnl.ru/contacts/stores/", "brand": "Magnolia"}, "geometry": {"type": "Point", "coordinates": [37.663728, 55.77004]}},
{"type": "Feature", "id": "iQCY8ceOPPjhF09AaUohA3szp_w=", "properties": {"ref": "141", "@spider": "magnolia_dac", "addr:full": "\u041d\u043e\u0432\u0438\u043a\u043e\u0432\u0430-\u041f\u0440\u0438\u0431\u043e\u044f \u043d\u0430\u0431., \u0434. 10, \u043a\u043e\u0440\u043f.1.,", "addr:country": "Russia", "website": "https://shop.mgnl.ru/contacts/stores/", "brand": "Magnolia"}, "geometry": {"type": "Point", "coordinates": [37.448518, 55.7839]}},
{"type": "Feature", "id": "BQlQw0PtsAFD9L1lkYChENgrgLo=", "properties": {"ref": "142", "@spider": "magnolia_dac", "addr:full": "\u041d\u043e\u0432\u0438\u043d\u043a\u0438, \u0434.31,", "addr:country": "Russia", "website": "https://shop.mgnl.ru/contacts/stores/", "brand": "Magnolia"}, "geometry": {"type": "Point", "coordinates": [37.678236, 55.67648]}},
{"type": "Feature", "id": "jY4B3H69p3wKVe7jnJ6Rj51wqeY=", "properties": {"ref": "143", "@spider": "magnolia_dac", "addr:full": "\u041d\u043e\u0432\u043e\u0437\u0430\u0432\u043e\u0434\u0441\u043a\u0430\u044f, \u0434. 25, \u043a\u043e\u0440\u043f. 6,", "addr:country": "Russia", "website": "https://shop.mgnl.ru/contacts/stores/", "brand": "Magnolia"}, "geometry": {"type": "Point", "coordinates": [37.500549, 55.75116]}},
{"type": "Feature", "id": "2-zSpHvvT_xW79xMPEqBdd06ZgY=", "properties": {"ref": "144", "@spider": "magnolia_dac", "addr:full": "\u041d\u043e\u0432\u043e\u043f\u0435\u0441\u0447\u0430\u043d\u0430\u044f \u0443\u043b., \u0434. 16/1,", "addr:country": "Russia", "website": "https://shop.mgnl.ru/contacts/stores/", "brand": "Magnolia"}, "geometry": {"type": "Point", "coordinates": [37.511529, 55.79563]}},
{"type": "Feature", "id": "j3fuHDmZsuWPaKhMGgae0vkIslQ=", "properties": {"ref": "145", "@spider": "magnolia_dac", "addr:full": "\u041d\u043e\u0432\u043e\u043f\u0435\u0441\u0447\u0430\u043d\u0430\u044f, \u0434. 19/10, \u043a\u043e\u0440\u043f. 31.,", "addr:country": "Russia", "website": "https://shop.mgnl.ru/contacts/stores/", "brand": "Magnolia"}, "geometry": {"type": "Point", "coordinates": [37.512883, 55.79591]}},
{"type": "Feature", "id": "qcx4r5HFVwWvLvry6d9h2OD77UM=", "properties": {"ref": "146", "@spider": "magnolia_dac", "addr:full": "\u041e\u043a\u0442\u044f\u0431\u0440\u044c\u0441\u043a\u0430\u044f, \u0434. 35.,", "addr:country": "Russia", "website": "https://shop.mgnl.ru/contacts/stores/", "brand": "Magnolia"}, "geometry": {"type": "Point", "coordinates": [37.612641, 55.78968]}},
{"type": "Feature", "id": "7A2mn9K4rdbUcWJMAHKG5r1OsQ0=", "properties": {"ref": "147", "@spider": "magnolia_dac", "addr:full": "\u041e\u0440\u0434\u0436\u043e\u043d\u0438\u043a\u0438\u0434\u0437\u0435 \u0443\u043b., \u0434. 7,", "addr:country": "Russia", "website": "https://shop.mgnl.ru/contacts/stores/", "brand": "Magnolia"}, "geometry": {"type": "Point", "coordinates": [37.599777, 55.71017]}},
{"type": "Feature", "id": "z3meTvlaqvv7Is7U1WS5zQegiUo=", "properties": {"ref": "148", "@spider": "magnolia_dac", "addr:full": "\u041f\u0430\u0432\u043b\u0430 \u0410\u043d\u0434\u0440\u0435\u0435\u0432\u0430, \u0434. 28, \u043a. 7,", "addr:country": "Russia", "website": "https://shop.mgnl.ru/contacts/stores/", "brand": "Magnolia"}, "geometry": {"type": "Point", "coordinates": [37.618057, 55.72054]}},
{"type": "Feature", "id": "ZHzf4ky2AOxh9hmXh6OA-O108vI=", "properties": {"ref": "149", "@spider": "magnolia_dac", "addr:full": "\u041f\u0430\u0432\u043b\u0430 \u041a\u043e\u0440\u0447\u0430\u0433\u0438\u043d\u0430, \u0434. 8, \u0441\u0442\u0440. 1.,", "addr:country": "Russia", "website": "https://shop.mgnl.ru/contacts/stores/", "brand": "Magnolia"}, "geometry": {"type": "Point", "coordinates": [37.657871, 55.81423]}},
{"type": "Feature", "id": "RC0zd8ja1uze7oUGiUELWWNYpBE=", "properties": {"ref": "150", "@spider": "magnolia_dac", "addr:full": "13-\u0430\u044f \u041f\u0430\u0440\u043a\u043e\u0432\u0430\u044f, \u0434. 32, \u0441\u0442\u0440. 1.,", "addr:country": "Russia", "website": "https://shop.mgnl.ru/contacts/stores/", "brand": "Magnolia"}, "geometry": {"type": "Point", "coordinates": [37.812462, 55.80657]}},
{"type": "Feature", "id": "M5D-ic4wAbZyAehTSPVBTuTvgz8=", "properties": {"ref": "151", "@spider": "magnolia_dac", "addr:full": "9-\u044f \u041f\u0430\u0440\u043a\u043e\u0432\u0430\u044f \u0434\u043e\u043c 30, \u0441\u0442\u0440.1,", "addr:country": "Russia", "website": "https://shop.mgnl.ru/contacts/stores/", "brand": "Magnolia"}, "geometry": {"type": "Point", "coordinates": [37.799912, 55.79504]}},
{"type": "Feature", "id": "x8Qu-YUFXKpKa_1jLDeMdF0kAOo=", "properties": {"ref": "152", "@spider": "magnolia_dac", "addr:full": "\u041f\u0435\u0442\u0440\u043e\u0432\u0441\u043a\u043e-\u0420\u0430\u0437\u0443\u043c\u043e\u0432\u0441\u043a\u0438\u0439 \u043f\u0440\u043e\u0435\u0437\u0434, \u0434. 18.,", "addr:country": "Russia", "website": "https://shop.mgnl.ru/contacts/stores/", "brand": "Magnolia"}, "geometry": {"type": "Point", "coordinates": [37.567671, 55.7989]}},
{"type": "Feature", "id": "g8Wvxkfli7fKH9LcO8ZCaejzgsk=", "properties": {"ref": "153", "@spider": "magnolia_dac", "addr:full": "\u041f\u043b\u043e\u0449\u0430\u0434\u044c \u041f\u043e\u0431\u0435\u0434\u044b \u0443\u043b., \u0434. 1\u043a\u0411,", "addr:country": "Russia", "website": "https://shop.mgnl.ru/contacts/stores/", "brand": "Magnolia"}, "geometry": {"type": "Point", "coordinates": [37.518512, 55.73532]}},
{"type": "Feature", "id": "NXwu9XQQg0o2vg8sUVuY2cZ8fUI=", "properties": {"ref": "154", "@spider": "magnolia_dac", "addr:full": "\u041f\u043b\u044e\u0449\u0438\u0445\u0430, 26/2,", "addr:country": "Russia", "website": "https://shop.mgnl.ru/contacts/stores/", "brand": "Magnolia"}, "geometry": {"type": "Point", "coordinates": [37.577364, 55.74252]}},
{"type": "Feature", "id": "LNe0pc9rY8QWelayN23bNEuUnLI=", "properties": {"ref": "155", "@spider": "magnolia_dac", "addr:full": "\u041f\u043e\u043a\u0440\u043e\u0432\u043a\u0430 \u0434.43 \u0441\u0442\u0440. 2,", "addr:country": "Russia", "website": "https://shop.mgnl.ru/contacts/stores/", "brand": "Magnolia"}, "geometry": {"type": "Point", "coordinates": [37.652652, 55.76261]}},
{"type": "Feature", "id": "05zT9wxyUhU3VR4ix3SDwNvexMk=", "properties": {"ref": "156", "@spider": "magnolia_dac", "addr:full": "\u041f\u043e\u043b\u0442\u0430\u0432\u0441\u043a\u0430\u044f, \u0434.4,", "addr:country": "Russia", "website": "https://shop.mgnl.ru/contacts/stores/", "brand": "Magnolia"}, "geometry": {"type": "Point", "coordinates": [37.574103, 55.79409]}},
{"type": "Feature", "id": "9ic0MaceepuhiVQF0eVzQoB_1-E=", "properties": {"ref": "157", "@spider": "magnolia_dac", "addr:full": "\u041f\u0440\u0435\u0447\u0438\u0441\u0442\u0435\u043d\u043a\u0430 \u0434.25/13,", "addr:country": "Russia", "website": "https://shop.mgnl.ru/contacts/stores/", "brand": "Magnolia"}, "geometry": {"type": "Point", "coordinates": [37.591674, 55.74052]}},
{"type": "Feature", "id": "r_PSUQAQ-sL0AJSuTPL9Zi8dG78=", "properties": {"ref": "158", "@spider": "magnolia_dac", "addr:full": "\u041f\u0440\u043e\u043b\u0435\u0442\u0430\u0440\u0441\u043a\u0438\u0439 \u043f\u0440-\u0442, \u0434 31,", "addr:country": "Russia", "website": "https://shop.mgnl.ru/contacts/stores/", "brand": "Magnolia"}, "geometry": {"type": "Point", "coordinates": [37.658634, 55.63468]}},
{"type": "Feature", "id": "PI4nm3iQYvOixqtAK-uj8iDcPgI=", "properties": {"ref": "159", "@spider": "magnolia_dac", "addr:full": "\u041f\u0440\u043e\u0441\u043f\u0435\u043a\u0442 \u041c\u0438\u0440\u0430, 70,", "addr:country": "Russia", "website": "https://shop.mgnl.ru/contacts/stores/", "brand": "Magnolia"}, "geometry": {"type": "Point", "coordinates": [37.635323, 55.7881]}},
{"type": "Feature", "id": "QJ9sJu8qaghEB7RlcliXBp8Zxf0=", "properties": {"ref": "160", "@spider": "magnolia_dac", "addr:full": "\u041f\u0440\u043e\u0441\u043f\u0435\u043a\u0442 \u041c\u0438\u0440\u0430, \u0434. 180.,", "addr:country": "Russia", "website": "https://shop.mgnl.ru/contacts/stores/", "brand": "Magnolia"}, "geometry": {"type": "Point", "coordinates": [37.646157, 55.8238]}},
{"type": "Feature", "id": "Eam-pj9h5Q7lz0s_e7Kx68qZXKk=", "properties": {"ref": "161", "@spider": "magnolia_dac", "addr:full": "\u041f\u0443\u043b\u043a\u043e\u0432\u0441\u043a\u0430\u044f, \u0434. 4, \u043a\u043e\u0440\u043f. 2.,", "addr:country": "Russia", "website": "https://shop.mgnl.ru/contacts/stores/", "brand": "Magnolia"}, "geometry": {"type": "Point", "coordinates": [37.48623, 55.84476]}},
{"type": "Feature", "id": "bzsu2owYfwUmjf3b1ecITjODzl4=", "properties": {"ref": "162", "@spider": "magnolia_dac", "addr:full": "\u0420\u0435\u043c\u0438\u0437\u043e\u0432\u0430, \u0434. 2/19, \u043a\u043e\u0440\u043f.4.,", "addr:country": "Russia", "website": "https://shop.mgnl.ru/contacts/stores/", "brand": "Magnolia"}, "geometry": {"type": "Point", "coordinates": [37.595815, 55.67851]}},
{"type": "Feature", "id": "B5x1szN6GJKIrNlS8WoyPh3JDXA=", "properties": {"ref": "163", "@spider": "magnolia_dac", "addr:full": "\u0420\u0443\u0431\u043b\u0435\u0432\u0441\u043a\u043e\u0435 \u0448\u043e\u0441\u0441\u0435 \u0434.22 \u043a\u043e\u0440\u043f. 1,", "addr:country": "Russia", "website": "https://shop.mgnl.ru/contacts/stores/", "brand": "Magnolia"}, "geometry": {"type": "Point", "coordinates": [37.427848, 55.74319]}},
{"type": "Feature", "id": "TfQpji5MbQRjo_7Aankn41gCKM4=", "properties": {"ref": "164", "@spider": "magnolia_dac", "addr:full": "\u0420\u0443\u0441\u0442\u0430\u0432\u0435\u043b\u0438, \u0434. 14, \u0441\u0442\u0440.1.,", "addr:country": "Russia", "website": "https://shop.mgnl.ru/contacts/stores/", "brand": "Magnolia"}, "geometry": {"type": "Point", "coordinates": [37.595402, 55.81227]}},
{"type": "Feature", "id": "lvWRVVElefF1dw921dVLwl5YjN8=", "properties": {"ref": "165", "@spider": "magnolia_dac", "addr:full": "\u0420\u044f\u0437\u0430\u043d\u0441\u043a\u0438\u0439 \u043f\u0440\u043e\u0441\u043f\u0435\u043a\u0442, 27,", "addr:country": "Russia", "website": "https://shop.mgnl.ru/contacts/stores/", "brand": "Magnolia"}, "geometry": {"type": "Point", "coordinates": [37.747379, 55.7299]}},
{"type": "Feature", "id": "BDjx1EG0l8pngiWD_IMq1SsMNxY=", "properties": {"ref": "166", "@spider": "magnolia_dac", "addr:full": "\u0421\u0435\u043b\u0435\u0437\u043d\u0435\u0432\u0441\u043a\u0430\u044f \u0434. 30 \u043a\u043e\u0440\u043f \u0431-\u0432,", "addr:country": "Russia", "website": "https://shop.mgnl.ru/contacts/stores/", "brand": "Magnolia"}, "geometry": {"type": "Point", "coordinates": [37.609928, 55.78053]}},
{"type": "Feature", "id": "Y8st3CFwdCSVlCdrBwm32hqM7Nc=", "properties": {"ref": "167", "@spider": "magnolia_dac", "addr:full": "\u0421\u0435\u043b\u0438\u0433\u0435\u0440\u0441\u043a\u0430\u044f, \u0434.24,", "addr:country": "Russia", "website": "https://shop.mgnl.ru/contacts/stores/", "brand": "Magnolia"}, "geometry": {"type": "Point", "coordinates": [37.550854, 55.86801]}},
{"type": "Feature", "id": "m6D7Xzc8RiVV18zaqlrDeiZfrp4=", "properties": {"ref": "168", "@spider": "magnolia_dac", "addr:full": "\u0421\u0435\u0440\u043f\u0443\u0445\u043e\u0432\u0441\u043a\u043e\u0439 \u0432\u0430\u043b \u0434. 5,", "addr:country": "Russia", "website": "https://shop.mgnl.ru/contacts/stores/", "brand": "Magnolia"}, "geometry": {"type": "Point", "coordinates": [37.616494, 55.71111]}},
{"type": "Feature", "id": "GZ-Z26Ke3oVmqNCX-b0U5ruQ4Fc=", "properties": {"ref": "169", "@spider": "magnolia_dac", "addr:full": "\u0421\u0435\u0441\u043b\u0430\u0432\u0438\u043d\u0441\u043a\u0430\u044f \u0434. 24,", "addr:country": "Russia", "website": "https://shop.mgnl.ru/contacts/stores/", "brand": "Magnolia"}, "geometry": {"type": "Point", "coordinates": [37.49241, 55.7429]}},
{"type": "Feature", "id": "kTT4xupNexRJcPXC8yMgbx5oVTE=", "properties": {"ref": "170", "@spider": "magnolia_dac", "addr:full": "\u0421\u043c\u043e\u043b\u0435\u043d\u0441\u043a\u0438\u0439 \u0431\u0443\u043b\u044c\u0432\u0430\u0440 1/2,", "addr:country": "Russia", "website": "https://shop.mgnl.ru/contacts/stores/", "brand": "Magnolia"}, "geometry": {"type": "Point", "coordinates": [37.584649, 55.73891]}},
{"type": "Feature", "id": "qw3Vry8xEjA2qzd3tWzNCImXanQ=", "properties": {"ref": "171", "@spider": "magnolia_dac", "addr:full": "\u0421\u043e\u043a\u043e\u043b\u043e\u0432\u043e-\u041c\u0435\u0449\u0435\u0440\u0441\u043a\u0430\u044f, \u0434. 14,", "addr:country": "Russia", "website": "https://shop.mgnl.ru/contacts/stores/", "brand": "Magnolia"}, "geometry": {"type": "Point", "coordinates": [37.390038, 55.896]}},
{"type": "Feature", "id": "h8bdgq7vdn4BEWA4jDK2KVKpF2M=", "properties": {"ref": "172", "@spider": "magnolia_dac", "addr:full": "\u0421\u043f\u0430\u0440\u0442\u0430\u043a\u043e\u0432\u0441\u043a\u0430\u044f \u0434.18 \u0441\u0442\u0440.1,", "addr:country": "Russia", "website": "https://shop.mgnl.ru/contacts/stores/", "brand": "Magnolia"}, "geometry": {"type": "Point", "coordinates": [37.676313, 55.77206]}},
{"type": "Feature", "id": "yrJ-BkdJsNZA871XSIiGXkw0GPI=", "properties": {"ref": "173", "@spider": "magnolia_dac", "addr:full": "\u0421\u0440\u0435\u0442\u0435\u043d\u0441\u043a\u0438\u0439 \u0431\u0443\u043b\u044c\u0432\u0430\u0440, \u0434.6/1, \u0441\u0442\u0440\u043e\u0435\u043d\u0438\u0435 2,", "addr:country": "Russia", "website": "https://shop.mgnl.ru/contacts/stores/", "brand": "Magnolia"}, "geometry": {"type": "Point", "coordinates": [37.634982, 55.76592]}},
{"type": "Feature", "id": "P3SkW7CEBWffHywYMp7ADZ_MvYA=", "properties": {"ref": "174", "@spider": "magnolia_dac", "addr:full": "\u0422\u0430\u0442\u0430\u0440\u0441\u043a\u0430\u044f \u0434.7 \u0441.1,", "addr:country": "Russia", "website": "https://shop.mgnl.ru/contacts/stores/", "brand": "Magnolia"}, "geometry": {"type": "Point", "coordinates": [37.638835, 55.73365]}},
{"type": "Feature", "id": "dTiFop6NFMN7CzhuCc2W6MeHsPc=", "properties": {"ref": "175", "@spider": "magnolia_dac", "addr:full": "1-\u044f \u0422\u0432\u0435\u0440\u0441\u043a\u0430\u044f-\u042f\u043c\u0441\u043a\u0430\u044f, 9,", "addr:country": "Russia", "website": "https://shop.mgnl.ru/contacts/stores/", "brand": "Magnolia"}, "geometry": {"type": "Point", "coordinates": [37.59189, 55.77212]}},
{"type": "Feature", "id": "F0oNSofMQthZeMZ9B2yQsIOsmQs=", "properties": {"ref": "176", "@spider": "magnolia_dac", "addr:full": "1-\u0430\u044f \u0422\u0432\u0435\u0440\u0441\u043a\u0430\u044f-\u042f\u043c\u0441\u043a\u0430\u044f, \u0434.29, \u0441\u0442\u0440.1,", "addr:country": "Russia", "website": "https://shop.mgnl.ru/contacts/stores/", "brand": "Magnolia"}, "geometry": {"type": "Point", "coordinates": [37.585188, 55.776]}},
{"type": "Feature", "id": "PuVPGQCFgz1Zp2mHJHaU6-bNTZM=", "properties": {"ref": "177", "@spider": "magnolia_dac", "addr:full": "2-\u0430\u044f \u0422\u0432\u0435\u0440\u0441\u043a\u0430\u044f-\u042f\u043c\u0441\u043a\u0430\u044f, \u0434.20-22, \u0441\u0442\u0440. 2.,", "addr:country": "Russia", "website": "https://shop.mgnl.ru/contacts/stores/", "brand": "Magnolia"}, "geometry": {"type": "Point", "coordinates": [37.594234, 55.77202]}},
{"type": "Feature", "id": "N0SqwBmCIhCiky9lCN4JevQiKqc=", "properties": {"ref": "178", "@spider": "magnolia_dac", "addr:full": "\u0422\u043e\u043b\u0431\u0443\u0445\u0438\u043d\u0430, \u0434. 9, \u043a\u043e\u0440\u043f. 1.,", "addr:country": "Russia", "website": "https://shop.mgnl.ru/contacts/stores/", "brand": "Magnolia"}, "geometry": {"type": "Point", "coordinates": [37.40045, 55.72101]}},
{"type": "Feature", "id": "8qmUU8XX9jnv3cRIUaaF0BatvTI=", "properties": {"ref": "179", "@spider": "magnolia_dac", "addr:full": "\u0422\u0440\u0438\u0444\u043e\u043d\u043e\u0432\u0441\u043a\u0430\u044f, 56,", "addr:country": "Russia", "website": "https://shop.mgnl.ru/contacts/stores/", "brand": "Magnolia"}, "geometry": {"type": "Point", "coordinates": [37.631424, 55.78931]}},
{"type": "Feature", "id": "0e1KACbecSqGizU8u3zi3VOFkag=", "properties": {"ref": "180", "@spider": "magnolia_dac", "addr:full": "\u0422\u0440\u043e\u0444\u0438\u043c\u043e\u0432\u0430, \u0434. 21, \u043a\u043e\u0440. 1.,", "addr:country": "Russia", "website": "https://shop.mgnl.ru/contacts/stores/", "brand": "Magnolia"}, "geometry": {"type": "Point", "coordinates": [37.676843, 55.70298]}},
{"type": "Feature", "id": "9cGpnN92XNJmwExE_akpmf8iv58=", "properties": {"ref": "181", "@spider": "magnolia_dac", "addr:full": "8 \u041c\u0430\u0440\u0442\u0430, \u0434. 6, \u0441\u0442\u0440.1.,", "addr:country": "Russia", "website": "https://shop.mgnl.ru/contacts/stores/", "brand": "Magnolia"}, "geometry": {"type": "Point", "coordinates": [37.55531, 55.80185]}},
{"type": "Feature", "id": "XKZ9VIjxUN-Oq8Yd8lV4Xw259JQ=", "properties": {"ref": "182", "@spider": "magnolia_dac", "addr:full": "2-\u0430\u044f \u041c\u0430\u0440\u044c\u0438\u043d\u043e\u0439 \u0440\u043e\u0449\u0438, \u0434. 10/14.,", "addr:country": "Russia", "website": "https://shop.mgnl.ru/contacts/stores/", "brand": "Magnolia"}, "geometry": {"type": "Point", "coordinates": [37.619549, 55.79489]}},
{"type": "Feature", "id": "8VedIW0lg77XVsc5aX73rplb2NY=", "properties": {"ref": "183", "@spider": "magnolia_dac", "addr:full": "\u0424\u0440\u0443\u043d\u0437\u0435\u043d\u0441\u043a\u0430\u044f 3-\u044f, \u0434.3,", "addr:country": "Russia", "website": "https://shop.mgnl.ru/contacts/stores/", "brand": "Magnolia"}, "geometry": {"type": "Point", "coordinates": [37.579465, 55.7193]}},
{"type": "Feature", "id": "KYTR_lw3fryGoxV7b7sHH-Vpt3E=", "properties": {"ref": "184", "@spider": "magnolia_dac", "addr:full": "\u0424\u0443\u0440\u043c\u0430\u043d\u043d\u044b\u0439 \u043f\u0435\u0440. \u0434.2/7,", "addr:country": "Russia", "website": "https://shop.mgnl.ru/contacts/stores/", "brand": "Magnolia"}, "geometry": {"type": "Point", "coordinates": [37.647483, 55.76329]}},
{"type": "Feature", "id": "7M2JoHzFMZ8iEPT0NvP4RCqqYmY=", "properties": {"ref": "185", "@spider": "magnolia_dac", "addr:full": "\u0426\u044e\u0440\u0443\u043f\u044b, \u0434.28,", "addr:country": "Russia", "website": "https://shop.mgnl.ru/contacts/stores/", "brand": "Magnolia"}, "geometry": {"type": "Point", "coordinates": [37.567087, 55.66719]}},
{"type": "Feature", "id": "Dg_C5KDpySEuyw4tPvaYXRAYsq4=", "properties": {"ref": "186", "@spider": "magnolia_dac", "addr:full": "\u0427\u0430\u044f\u043d\u043e\u0432\u0430, \u0434. 16,", "addr:country": "Russia", "website": "https://shop.mgnl.ru/contacts/stores/", "brand": "Magnolia"}, "geometry": {"type": "Point", "coordinates": [37.597342, 55.7765]}},
{"type": "Feature", "id": "XA_fvoA2EjgM0GhjNK1zZ3VgyCc=", "properties": {"ref": "187", "@spider": "magnolia_dac", "addr:full": "\u0428\u0430\u0431\u043e\u043b\u043e\u0432\u043a\u0430 \u0443\u043b., \u0434.34, \u0441\u0442\u0440.3,", "addr:country": "Russia", "website": "https://shop.mgnl.ru/contacts/stores/", "brand": "Magnolia"}, "geometry": {"type": "Point", "coordinates": [37.607596, 55.71788]}},
{"type": "Feature", "id": "_oVo37DPZNlcMS6tNCrXRHlkh7g=", "properties": {"ref": "188", "@spider": "magnolia_dac", "addr:full": "\u0428\u0442\u0443\u0440\u0432\u0430\u043b\u044c\u043d\u0430\u044f, \u0434. 3, \u0441\u0442\u0440.1.,", "addr:country": "Russia", "website": "https://shop.mgnl.ru/contacts/stores/", "brand": "Magnolia"}, "geometry": {"type": "Point", "coordinates": [37.445734, 55.84667]}},
{"type": "Feature", "id": "cEvc6JyqJYaMuYFmwbJIP2WpunU=", "properties": {"ref": "189", "@spider": "magnolia_dac", "addr:full": "\u042e\u043d\u044b\u0445 \u041b\u0435\u043d\u0438\u043d\u0446\u0435\u0432, \u0434. 71, \u043a\u043e\u0440\u043f.1.,", "addr:country": "Russia", "website": "https://shop.mgnl.ru/contacts/stores/", "brand": "Magnolia"}, "geometry": {"type": "Point", "coordinates": [37.767519, 55.70015]}},
{"type": "Feature", "id": "QOmu9qY00SMg4faZbVNDqQ-JKf0=", "properties": {"ref": "190", "@spider": "magnolia_dac", "addr:full": "\u042f\u0437\u044b\u043a\u043e\u0432\u0441\u043a\u0438\u0439 \u043f\u0435\u0440., \u0434\u043e\u043c 5/9, \u043a.6,", "addr:country": "Russia", "website": "https://shop.mgnl.ru/contacts/stores/", "brand": "Magnolia"}, "geometry": {"type": "Point", "coordinates": [37.582556, 55.73094]}},
{"type": "Feature", "id": "idhALgPAdrXOShcVIHgBIXy0JHM=", "properties": {"ref": "191", "@spider": "magnolia_dac", "addr:full": "\u042f\u0440\u0446\u0435\u0432\u0441\u043a\u0430\u044f \u0434.22 \u0441\u0442\u0440.1,", "addr:country": "Russia", "website": "https://shop.mgnl.ru/contacts/stores/", "brand": "Magnolia"}, "geometry": {"type": "Point", "coordinates": [37.413484, 55.73836]}}]}