[
{"ref": 1, "brand": "Maxi", "addr_full": "Гипермаркет Макси, г. Северодвинск, Архангельское ш., 120", "country": "Россия", "phone": "88001002727", "website": "https://maxi-retail.ru/", "email": ["crm@maxi-net.ru"], "opening_hours": "08:00-23:00", "extras": {"@spider": "maxi_dac"}},
{"ref": 2, "brand": "Maxi", "addr_full": "Гипермаркет Макси, г. Северодвинск, Архангельское ш., 120", "country": "Россия", "phone": "88001002727", "website": "https://maxi-retail.ru/", "email": ["crm@maxi-net.ru"], "opening_hours": "08:00-23:00", "extras": {"@spider": "maxi_dac"}},
{"ref": 3, "brand": "Maxi", "addr_full": "Супермаркет Макси, г. Северодвинск, пр. Труда, 72", "country": "Россия", "phone": "88001002727", "website": "https://maxi-retail.ru/", "email": ["crm@maxi-net.ru"], "opening_hours": "08:00-23:00", "extras": {"@spider": "maxi_dac"}},
{"ref": 4, "brand": "Maxi", "addr_full": "Супермаркет Макси, г. Северодвинск, пр. Труда, 30", "country": "Россия", "phone": "88001002727", "website": "https://maxi-retail.ru/", "email": ["crm@maxi-net.ru"], "opening_hours": "08:00-22:00", "extras": {"@spider": "maxi_dac"}},
{"ref": 5, "brand": "Maxi", "addr_full": "Супермаркет Макси, г. Северодвинск, Ломоносова, 85 к.2", "country": "Россия", "phone": "88001002727", "website": "https://maxi-retail.ru/", "email": ["crm@maxi-net.ru"], "opening_hours": "08:00-23:00", "extras": {"@spider": "maxi_dac"}},
{"ref": 6, "brand": "Maxi", "addr_full": "Супермаркет Макси, г. Северодвинск, Морской пр., 70", "country": "Россия", "phone": "88001002727", "website": "https://maxi-retail.ru/", "email": ["crm@maxi-net.ru"], "opening_hours": "08:00-22:00", "extras": {"@spider": "maxi_dac"}},
{"ref": 7, "brand": "Maxi", "addr_full": "Гипермаркет Макси, г. Архангельск, Ленинградский пр., 38", "country": "Россия", "phone": "88001002727", "website": "https://maxi-retail.ru/", "email": ["crm@maxi-net.ru"], "opening_hours": "08:00-23:00", "extras": {"@spider": "maxi_dac"}},
{"ref": 8, "brand": "Maxi", "addr_full": "Гипермаркет Макси, г. Архангельск, Урицкого, 45/3", "country": "Россия", "phone": "88001002727", "website": "https://maxi-retail.ru/", "email": ["crm@maxi-net.ru"], "opening_hours": "08:00-23:00", "extras": {"@spider": "maxi_dac"}},
{"ref": 9, "brand": "Maxi", "addr_full": "Гипермаркет Макси, г. Архангельск, Московский пр., 46", "country": "Россия", "phone": "88001002727", "website": "https://maxi-retail.ru/", "email": ["crm@maxi-net.ru"], "opening_hours": "08:00-23:00", "extras": {"@spider": "maxi_dac"}},
{"ref": 10, "brand": "Maxi", "addr_full": "Гипермаркет Макси, г. Архангельск, Розинга, 10", "country": "Россия", "phone": "88001002727", "website": "https://maxi-retail.ru/", "email": ["crm@maxi-net.ru"], "opening_hours": "08:00-23:00", "extras": {"@spider": "maxi_dac"}},
{"ref": 11, "brand": "Maxi", "addr_full": "Супермаркет Макси, г. Архангельск, Попова, 45", "country": "Россия", "phone": "88001002727", "website": "https://maxi-retail.ru/", "email": ["crm@maxi-net.ru"], "opening_hours": "08:00-22:00", "extras": {"@spider": "maxi_dac"}},
{"ref": 12, "brand": "Maxi", "addr_full": "Супермаркет Макси, г. Архангельск, пр. Ломоносова, 286", "country": "Россия", "phone": "88001002727", "website": "https://maxi-retail.ru/", "email": ["crm@maxi-net.ru"], "opening_hours": "08:00-22:00", "extras": {"@spider": "maxi_dac"}},
{"ref": 13, "brand": "Maxi", "addr_full": "Супермаркет Макси, г. Архангельск, пр. Ломоносова, 88", "country": "Россия", "phone": "88001002727", "website": "https://maxi-retail.ru/", "email": ["crm@maxi-net.ru"], "opening_hours": "08:00-22:00", "extras": {"@spider": "maxi_dac"}},
{"ref": 14, "brand": "Maxi", "addr_full": "Супермаркет Макси, г. Архангельск, пр. Обводный канал, 76", "country": "Россия", "phone": "88001002727", "website": "https://maxi-retail.ru/", "email": ["crm@maxi-net.ru"], "opening_hours": "08:00-22:00", "extras": {"@spider": "maxi_dac"}},
{"ref": 15, "brand": "Maxi", "addr_full": "Супермаркет Макси, г. Архангельск, Логинова, 51", "country": "Россия", "phone": "88001002727", "website": "https://maxi-retail.ru/", "email": ["crm@maxi-net.ru"], "opening_hours": "08:00-22:00", "extras": {"@spider": "maxi_dac"}},
{"ref": 16, "brand": "Maxi", "addr_full": "Супермаркет Макси, г. Архангельск, Гайдара, 18", "country": "Россия", "phone": "88001002727", "website": "https://maxi-retail.ru/", "email": ["crm@maxi-net.ru"], "opening_hours": "08:00-22:00", "extras": {"@spider": "maxi_dac"}},
{"ref": 17, "brand": "Maxi", "addr_full": "Супермаркет Макси, г. Архангельск, Троицкий пр., 17", "country": "Россия", "phone": "88001002727", "website": "https://maxi-retail.ru/", "email": ["crm@maxi-net.ru"], "opening_hours": "08:00-23:00", "extras": {"@spider": "maxi_dac"}},
{"ref": 18, "brand": "Maxi", "addr_full": "Супермаркет Макси, г. Архангельск, Воскресенская, 20", "country": "Россия", "phone": "88001002727", "website": "https://maxi-retail.ru/", "email": ["crm@maxi-net.ru"], "opening_hours": "08:00-23:00", "extras": {"@spider": "maxi_dac"}},
{"ref": 19, "brand": "Maxi", "addr_full": "Гипермаркет Макси, г. Череповец, пр. Победы, 200", "country": "Россия", "phone": "88001002727", "website": "https://maxi-retail.ru/", "email": ["crm@maxi-net.ru"], "opening_hours": "08:00-23:00", "extras": {"@spider": "maxi_dac"}},
{"ref": 20, "brand": "Maxi", "addr_full": "Гипермаркет Макси, г. Череповец, Архангельская, 43", "country": "Россия", "phone": "88001002727", "website": "https://maxi-retail.ru/", "email": ["crm@maxi-net.ru"], "opening_hours": "08:00-23:00", "extras": {"@spider": "maxi_dac"}},
{"ref": 21, "brand": "Maxi", "addr_full": "Гипермаркет Макси, г. Череповец, Октябрьский пр., 25", "country": "Россия", "phone": "88001002727", "website": "https://maxi-retail.ru/", "email": ["crm@maxi-net.ru"], "opening_hours": "08:00-23:00", "extras": {"@spider": "maxi_dac"}},
{"ref": 22, "brand": "Maxi", "addr_full": "Супермаркет Макси, г. Череповец, Наседкина, 15", "country": "Россия", "phone": "88001002727", "website": "https://maxi-retail.ru/", "email": ["crm@maxi-net.ru"], "opening_hours": "08:00-23:00", "extras": {"@spider": "maxi_dac"}},
{"ref": 23, "brand": "Maxi", "addr_full": "Супермаркет Макси, г. Череповец, Сталеваров, 55", "country": "Россия", "phone": "88001002727", "website": "https://maxi-retail.ru/", "email": ["crm@maxi-net.ru"], "opening_hours": "08:00-23:00", "extras": {"@spider": "maxi_dac"}},
{"ref": 24, "brand": "Maxi", "addr_full": "Супермаркет Макси, г. Череповец, Октябрьский пр., 88", "country": "Россия", "phone": "88001002727", "website": "https://maxi-retail.ru/", "email": ["crm@maxi-net.ru"], "opening_hours": "08:00-23:00", "extras": {"@spider": "maxi_dac"}},
{"ref": 25, "brand": "Maxi", "addr_full": "Супермаркет Макси, г. Череповец, Архангельская, 70б", "country": "Россия", "phone": "88001002727", "website": "https://maxi-retail.ru/", "email": ["crm@maxi-net.ru"], "opening_hours": "08:00-23:00", "extras": {"@spider": "maxi_dac"}},
{"ref": 26, "brand": "Maxi", "addr_full": "Супермаркет Макси, г. Череповец, Московский пр.,  51", "country": "Россия", "phone": "88001002727", "website": "https://maxi-retail.ru/", "email": ["crm@maxi-net.ru"], "opening_hours": "08:00-23:00", "extras": {"@spider": "maxi_dac"}},
{"ref": 27, "brand": "Maxi", "addr_full": "Супермаркет Макси, г. Череповец, Первомайская, 21", "country": "Россия", "phone": "88001002727", "website": "https://maxi-retail.ru/", "email": ["crm@maxi-net.ru"], "opening_hours": "08:00-23:00", "extras": {"@spider": "maxi_dac"}},
{"ref": 28, "brand": "Maxi", "addr_full": "Супермаркет Макси, г. Череповец, Шекснинский пр., 23а", "country": "Россия", "phone": "88001002727", "website": "https://maxi-retail.ru/", "email": ["crm@maxi-net.ru"], "opening_hours": "08:00-23:00", "extras": {"@spider": "maxi_dac"}},
{"ref": 29, "brand": "Maxi", "addr_full": "Супермаркет Макси, г. Череповец, Горького, 40", "country": "Россия", "phone": "88001002727", "website": "https://maxi-retail.ru/", "email": ["crm@maxi-net.ru"], "opening_hours": "08:00-23:00", "extras": {"@spider": "maxi_dac"}},
{"ref": 30, "brand": "Maxi", "addr_full": "Супермаркет Макси, г. Череповец, Советский пр., 113", "country": "Россия", "phone": "88001002727", "website": "https://maxi-retail.ru/", "email": ["crm@maxi-net.ru"], "opening_hours": "08:00-23:00", "extras": {"@spider": "maxi_dac"}},
{"ref": 31, "brand": "Maxi", "addr_full": "Супермаркет Макси, г. Череповец, Беляева, 29", "country": "Россия", "phone": "88001002727", "website": "https://maxi-retail.ru/", "email": ["crm@maxi-net.ru"], "opening_hours": "08:00-23:00", "extras": {"@spider": "maxi_dac"}},
{"ref": 32, "brand": "Maxi", "addr_full": "Супермаркет Макси, г. Череповец, Ленинградская, 1", "country": "Россия", "phone": "88001002727", "website": "https://maxi-retail.ru/", "email": ["crm@maxi-net.ru"], "opening_hours": "09:00-22:00", "extras": {"@spider": "maxi_dac"}},
{"ref": 33, "brand": "Maxi", "addr_full": "Гипермаркет Макси, г. Рыбинск, ул. Фурманова, 4", "country": "Россия", "phone": "88001002727", "website": "https://maxi-retail.ru/", "email": ["crm@maxi-net.ru"], "opening_hours": "09:00-22:00", "extras": {"@spider": "maxi_dac"}},
{"ref": 34, "brand": "Maxi", "addr_full": "Супермаркет Макси, г. Ярославль, пр. Фрунзе, 52б", "country": "Россия", "phone": "88001002727", "website": "https://maxi-retail.ru/", "email": ["crm@maxi-net.ru"], "opening_hours": "08:00-23:00", "extras": {"@spider": "maxi_dac"}},
{"ref": 35, "brand": "Maxi", "addr_full": "Гипермаркет Макси, г. Киров, Московская, 102/1", "country": "Россия", "phone": "88001002727", "website": "https://maxi-retail.ru/", "email": ["crm@maxi-net.ru"], "opening_hours": "08:00-23:00", "extras": {"@spider": "maxi_dac"}},
{"ref": 36, "brand": "Maxi", "addr_full": "Гипермаркет Макси, г. Киров, Ивана Попова, 83", "country": "Россия", "phone": "88001002727", "website": "https://maxi-retail.ru/", "email": ["crm@maxi-net.ru"], "opening_hours": "08:00-23:00", "extras": {"@spider": "maxi_dac"}},
{"ref": 37, "brand": "Maxi", "addr_full": "Гипермаркет Макси, г. Киров, Луганская, 53/2", "country": "Россия", "phone": "88001002727", "website": "https://maxi-retail.ru/", "email": ["crm@maxi-net.ru"], "opening_hours": "09:00-23:00", "extras": {"@spider": "maxi_dac"}},
{"ref": 38, "brand": "Maxi", "addr_full": "Гипермаркет Макси, г. Вологда, Пошехонское ш., 22", "country": "Россия", "phone": "88001002727", "website": "https://maxi-retail.ru/", "email": ["crm@maxi-net.ru"], "opening_hours": "08:00-23:00", "extras": {"@spider": "maxi_dac"}},
{"ref": 39, "brand": "Maxi", "addr_full": "Гипермаркет Макси, г. Вологда, Дальняя, 33", "country": "Россия", "phone": "88001002727", "website": "https://maxi-retail.ru/", "email": ["crm@maxi-net.ru"], "opening_hours": "08:00-23:00", "extras": {"@spider": "maxi_dac"}},
{"ref": 40, "brand": "Maxi", "addr_full": "Гипермаркет Макси, г. Вологда, Маршала Конева, 30", "country": "Россия", "phone": "88001002727", "website": "https://maxi-retail.ru/", "email": ["crm@maxi-net.ru"], "opening_hours": "08:00-23:00", "extras": {"@spider": "maxi_dac"}},
{"ref": 41, "brand": "Maxi", "addr_full": "Супермаркет Макси, г. Вологда, Мира, 82", "country": "Россия", "phone": "88001002727", "website": "https://maxi-retail.ru/", "email": ["crm@maxi-net.ru"], "opening_hours": "08:00-23:00", "extras": {"@spider": "maxi_dac"}},
{"ref": 42, "brand": "Maxi", "addr_full": "Супермаркет Макси, г. Вологда, Ленинградская, 100 (ТЦ «Форум»)", "country": "Россия", "phone": "88001002727", "website": "https://maxi-retail.ru/", "email": ["crm@maxi-net.ru"], "opening_hours": "08:00-23:00", "extras": {"@spider": "maxi_dac"}},
{"ref": 43, "brand": "Maxi", "addr_full": "Супермаркет Макси, г. Вологда, Ярославская, 32", "country": "Россия", "phone": "88001002727", "website": "https://maxi-retail.ru/", "email": ["crm@maxi-net.ru"], "opening_hours": "08:00-23:00", "extras": {"@spider": "maxi_dac"}},
{"ref": 44, "brand": "Maxi", "addr_full": "Супермаркет Макси, г. Вологда, Псковская, 2", "country": "Россия", "phone": "88001002727", "website": "https://maxi-retail.ru/", "email": ["crm@maxi-net.ru"], "opening_hours": "08:00-23:00", "extras": {"@spider": "maxi_dac"}},
{"ref": 45, "brand": "Maxi", "addr_full": "Супермаркет Макси, г. Вологда, Некрасова, 23", "country": "Россия", "phone": "88001002727", "website": "https://maxi-retail.ru/", "email": ["crm@maxi-net.ru"], "opening_hours": "08:00-23:00", "extras": {"@spider": "maxi_dac"}},
{"ref": 46, "brand": "Maxi", "addr_full": "Супермаркет Макси, г. Вологда, Герцена, 124", "country": "Россия", "phone": "88001002727", "website": "https://maxi-retail.ru/", "email": ["crm@maxi-net.ru"], "opening_hours": "08:00-23:00", "extras": {"@spider": "maxi_dac"}},
{"ref": 47, "brand": "Maxi", "addr_full": "Супермаркет Макси, г. Вологда, Преминина, 4", "country": "Россия", "phone": "88001002727", "website": "https://maxi-retail.ru/", "email": ["crm@maxi-net.ru"], "opening_hours": "08:00-23:00", "extras": {"@spider": "maxi_dac"}},
{"ref": 48, "brand": "Maxi", "addr_full": "Супермаркет Макси, г. Вологда, Мира, 38", "country": "Россия", "phone": "88001002727", "website": "https://maxi-retail.ru/", "email": ["crm@maxi-net.ru"], "opening_hours": "08:00-23:00", "extras": {"@spider": "maxi_dac"}},
{"ref": 49, "brand": "Maxi", "addr_full": "Супермаркет Макси, г. Вологда, Горького, 122", "country": "Россия", "phone": "88001002727", "website": "https://maxi-retail.ru/", "email": ["crm@maxi-net.ru"], "opening_hours": "08:00-23:00", "extras": {"@spider": "maxi_dac"}},
{"ref": 50, "brand": "Maxi", "addr_full": "Супермаркет Макси, г. Вологда, Ильюшина, 8", "country": "Россия", "phone": "88001002727", "website": "https://maxi-retail.ru/", "email": ["crm@maxi-net.ru"], "opening_hours": "08:00-23:00", "extras": {"@spider": "maxi_dac"}},
{"ref": 51, "brand": "Maxi", "addr_full": "Супермаркет Макси, г. Вологда, Карла Маркса, 109", "country": "Россия", "phone": "88001002727", "website": "https://maxi-retail.ru/", "email": ["crm@maxi-net.ru"], "opening_hours": "08:00-23:00", "extras": {"@spider": "maxi_dac"}},
{"ref": 52, "brand": "Maxi", "addr_full": "Супермаркет Макси, г. Вологда, Маршала Конева, 14а", "country": "Россия", "phone": "88001002727", "website": "https://maxi-retail.ru/", "email": ["crm@maxi-net.ru"], "opening_hours": "08:00-23:00", "extras": {"@spider": "maxi_dac"}},
{"ref": 53, "brand": "Maxi", "addr_full": "Супермаркет Макси, г. Вологда, Маршала Конева, 6", "country": "Россия", "phone": "88001002727", "website": "https://maxi-retail.ru/", "email": ["crm@maxi-net.ru"], "opening_hours": "08:00-23:00", "extras": {"@spider": "maxi_dac"}},
{"ref": 54, "brand": "Maxi", "addr_full": "Супермаркет Макси, г. Вологда, Советский пр. 72", "country": "Россия", "phone": "88001002727", "website": "https://maxi-retail.ru/", "email": ["crm@maxi-net.ru"], "opening_hours": "08:00-23:00", "extras": {"@spider": "maxi_dac"}},
{"ref": 55, "brand": "Maxi", "addr_full": "Супермаркет Макси, г. Вологда, Беляева, 5", "country": "Россия", "phone": "88001002727", "website": "https://maxi-retail.ru/", "email": ["crm@maxi-net.ru"], "opening_hours": "08:00-23:00", "extras": {"@spider": "maxi_dac"}},
{"ref": 56, "brand": "Maxi", "addr_full": "Супермаркет Макси, г. Вологда, Окружное ш., 28", "country": "Россия", "phone": "88001002727", "website": "https://maxi-retail.ru/", "email": ["crm@maxi-net.ru"], "opening_hours": "08:00-23:00", "extras": {"@spider": "maxi_dac"}},
{"ref": 57, "brand": "Maxi", "addr_full": "Супермаркет Макси, г. Вологда, Гагарина, 58", "country": "Россия", "phone": "88001002727", "website": "https://maxi-retail.ru/", "email": ["crm@maxi-net.ru"], "opening_hours": "08:00-23:00", "extras": {"@spider": "maxi_dac"}},
{"ref": 58, "brand": "Maxi", "addr_full": "Супермаркет Макси, г. Вологда, Возрождения, 25", "country": "Россия", "phone": "88001002727", "website": "https://maxi-retail.ru/", "email": ["crm@maxi-net.ru"], "opening_hours": "08:00-23:00", "extras": {"@spider": "maxi_dac"}},
{"ref": 59, "brand": "Maxi", "addr_full": "Супермаркет Макси, г. Вологда, Чернышевского, 88", "country": "Россия", "phone": "88001002727", "website": "https://maxi-retail.ru/", "email": ["crm@maxi-net.ru"], "opening_hours": "08:00-23:00", "extras": {"@spider": "maxi_dac"}},
{"ref": 60, "brand": "Maxi", "addr_full": "Супермаркет Макси, г. Вологда, Октябрьская, 67", "country": "Россия", "phone": "88001002727", "website": "https://maxi-retail.ru/", "email": ["crm@maxi-net.ru"], "opening_hours": "08:00-23:00", "extras": {"@spider": "maxi_dac"}},
{"ref": 61, "brand": "Maxi", "addr_full": "Супермаркет Макси, г. Вологда, Архангельская, 12 ", "country": "Россия", "phone": "88001002727", "website": "https://maxi-retail.ru/", "email": ["crm@maxi-net.ru"], "opening_hours": "08:00-23:00", "extras": {"@spider": "maxi_dac"}},
{"ref": 62, "brand": "Maxi", "addr_full": "Супермаркет Макси, г. Вологда, Карла Маркса, 18", "country": "Россия", "phone": "88001002727", "website": "https://maxi-retail.ru/", "email": ["crm@maxi-net.ru"], "opening_hours": "08:00-23:00", "extras": {"@spider": "maxi_dac"}},
{"ref": 63, "brand": "Maxi", "addr_full": "Супермаркет Макси, г. Вологда, Добролюбова, 26", "country": "Россия", "phone": "88001002727", "website": "https://maxi-retail.ru/", "email": ["crm@maxi-net.ru"], "opening_hours": "08:00-23:00", "extras": {"@spider": "maxi_dac"}}
]