{"type":"FeatureCollection","features":[{"type": "Feature", "id": "FQhW3AlNH7JYZ23tp4tjL1ZUeyI=", "properties": {"ref": "2122", "@spider": "okmarkets_dac", "addr:full": "E\u03bc\u03bc. \u039c\u03c0\u03b5\u03bd\u03ac\u03ba\u03b7 90", "addr:country": "\u0395\u03bb\u03bb\u03ac\u03b4\u03b1", "name": "\u0395\u03bc\u03bc. \u039c\u03c0\u03b5\u03bd\u03ac\u03ba\u03b7 90 (\u0395\u03be\u03ac\u03c1\u03c7\u03b5\u03b9\u03b1)", "phone": "2103801025", "website": "http://www.okmarkets.gr/"}, "geometry": {"type": "Point", "coordinates": [23.736161, 37.986212]}},
{"type": "Feature", "id": "9w4GpStpJM9o75dB-GfCwUNFQz4=", "properties": {"ref": "2147", "@spider": "okmarkets_dac", "addr:full": "\u03a4\u03bf\u03c3\u03af\u03c4\u03c3\u03b1 17", "addr:country": "\u0395\u03bb\u03bb\u03ac\u03b4\u03b1", "name": "\u03a4\u03bf\u03c3\u03af\u03c4\u03c3\u03b1 17 (\u03a4\u03bf\u03c3\u03af\u03c4\u03c3\u03b1)", "phone": "2108834683", "website": "http://www.okmarkets.gr/"}, "geometry": {"type": "Point", "coordinates": [23.735427, 37.987994]}},
{"type": "Feature", "id": "6-CkmxqbmS6J9zkdo04H86WUFOA=", "properties": {"ref": "2134", "@spider": "okmarkets_dac", "addr:full": "\u03a0\u03b9\u03bd\u03b4\u03ac\u03c1\u03bf\u03c5 38 & \u03a4\u03c3\u03b1\u03ba\u03ac\u03bb\u03c9\u03c6 20", "addr:country": "\u0395\u03bb\u03bb\u03ac\u03b4\u03b1", "name": "\u03a0\u03b9\u03bd\u03b4\u03ac\u03c1\u03bf\u03c5 38 &#038; \u03a4\u03c3\u03b1\u03ba\u03ac\u03bb\u03c9\u03c6 20 (\u03a0\u03b9\u03bd\u03b4\u03ac\u03c1\u03bf\u03c5)", "phone": "2114111499", "website": "http://www.okmarkets.gr/"}, "geometry": {"type": "Point", "coordinates": [23.740147, 37.978786]}},
{"type": "Feature", "id": "-qESQyNkTNesGuB3k1ukjJaEZYk=", "properties": {"ref": "1968", "@spider": "okmarkets_dac", "addr:full": "\u0391\u03c3\u03ba\u03bb\u03b7\u03c0\u03b9\u03bf\u03cd 82 & \u03a4\u03c3\u03b9\u03bc\u03b9\u03c3\u03ba\u03ae", "addr:country": "\u0395\u03bb\u03bb\u03ac\u03b4\u03b1", "name": "\u0391\u03c3\u03ba\u03bb\u03b7\u03c0\u03b9\u03bf\u03cd 82 &#038; \u03a4\u03c3\u03b9\u03bc\u03b9\u03c3\u03ba\u03ae (\u0391\u03c3\u03ba\u03bb\u03b7\u03c0\u03b9\u03bf\u03cd 82)", "phone": "2117150223", "website": "http://www.okmarkets.gr/"}, "geometry": {"type": "Point", "coordinates": [23.742145, 37.985416]}},
{"type": "Feature", "id": "4uPFHndcdjakDnrW7gYYtvnSoq8=", "properties": {"ref": "1974", "@spider": "okmarkets_dac", "addr:full": "\u0392\u03b1\u03c4\u03b1\u03c4\u03b6\u03ae 65-67", "addr:country": "\u0395\u03bb\u03bb\u03ac\u03b4\u03b1", "name": "\u0392\u03b1\u03c4\u03b1\u03c4\u03b6\u03ae 65-67 (\u0392\u03b1\u03c4\u03b1\u03c4\u03b6\u03ae)", "phone": "2106460043", "website": "http://www.okmarkets.gr/"}, "geometry": {"type": "Point", "coordinates": [23.741095, 37.989832]}},
{"type": "Feature", "id": "Lau0nCDGB3YHZ4CJyRygpa9coDo=", "properties": {"ref": "1947", "@spider": "okmarkets_dac", "addr:full": "\u0393\u0384\u03a3\u03b5\u03c0\u03c4\u03b5\u03bc\u03b2\u03c1\u03af\u03bf\u03c5 138 & \u03a4\u03c1\u03bf\u03af\u03b1\u03c2", "addr:country": "\u0395\u03bb\u03bb\u03ac\u03b4\u03b1", "name": "\u0393\u0384\u03a3\u03b5\u03c0\u03c4\u03b5\u03bc\u03b2\u03c1\u03af\u03bf\u03c5 138 &#038; \u03a4\u03c1\u03bf\u03af\u03b1\u03c2 ( \u0393\u0384\u03a3\u03b5\u03c0\u03c4\u03b5\u03bc\u03b2\u03c1\u03af\u03bf\u03c5)", "phone": "2108235072", "website": "http://www.okmarkets.gr/"}, "geometry": {"type": "Point", "coordinates": [23.731272, 37.99667]}},
{"type": "Feature", "id": "1x8TZ6sqTuzmJCr16L1NpPTO35c=", "properties": {"ref": "2213", "@spider": "okmarkets_dac", "addr:full": "\u039a\u03b1\u03c1\u03bd\u03b5\u03ac\u03b4\u03bf\u03c5 3", "addr:country": "\u0395\u03bb\u03bb\u03ac\u03b4\u03b1", "name": "\u039a\u03b1\u03c1\u03bd\u03b5\u03ac\u03b4\u03bf\u03c5 3 (\u039a\u03b1\u03c1\u03bd\u03b5\u03ac\u03b4\u03bf\u03c5)", "phone": "2107249870", "website": "http://www.okmarkets.gr/"}, "geometry": {"type": "Point", "coordinates": [23.742915, 37.976714]}},
{"type": "Feature", "id": "JPjK_Wqczjlyki7rACoo-6oht8Y=", "properties": {"ref": "1957", "@spider": "okmarkets_dac", "addr:full": "\u039a\u03c5\u03c8\u03ad\u03bb\u03b7\u03c2 15", "addr:country": "\u0395\u03bb\u03bb\u03ac\u03b4\u03b1", "name": "\u039a\u03c5\u03c8\u03ad\u03bb\u03b7\u03c2 15 (\u039a\u03c5\u03c8\u03ad\u03bb\u03b7)", "phone": "2108843010", "website": "http://www.okmarkets.gr/"}, "geometry": {"type": "Point", "coordinates": [23.735349, 37.996448]}},
{"type": "Feature", "id": "mhYHAtICt34hH5Ie_ZQif-ZXm08=", "properties": {"ref": "1976", "@spider": "okmarkets_dac", "addr:full": "\u0391\u03c3\u03ba\u03bb\u03b7\u03c0\u03b9\u03bf\u03cd 151", "addr:country": "\u0395\u03bb\u03bb\u03ac\u03b4\u03b1", "name": "\u0391\u03c3\u03ba\u03bb\u03b7\u03c0\u03b9\u03bf\u03cd 151 (\u0391\u03c3\u03ba\u03bb\u03b7\u03c0\u03b9\u03bf\u03cd 151)", "phone": "2106467744", "website": "http://www.okmarkets.gr/"}, "geometry": {"type": "Point", "coordinates": [23.745154, 37.987084]}},
{"type": "Feature", "id": "1xTbibp_P98Ej8qcs4oIgQTFl9I=", "properties": {"ref": "5036", "@spider": "okmarkets_dac", "addr:full": "\u039e\u03b5\u03bd\u03bf\u03ba\u03c1\u03ac\u03c4\u03bf\u03c5\u03c2 43", "addr:country": "\u0395\u03bb\u03bb\u03ac\u03b4\u03b1", "name": "Grocery: \u039e\u03b5\u03bd\u03bf\u03ba\u03c1\u03ac\u03c4\u03bf\u03c5\u03c2 43 (\u039a\u03bf\u03bb\u03c9\u03bd\u03ac\u03ba\u03b9)", "phone": "210 7253863", "website": "http://www.okmarkets.gr/"}, "geometry": {"type": "Point", "coordinates": [23.746215, 37.979771]}},
{"type": "Feature", "id": "qfGo4p98yk1KKrvnT4atA70VqA0=", "properties": {"ref": "1986", "@spider": "okmarkets_dac", "addr:full": "\u03a4\u03c1\u03b9\u03ce\u03bd \u0399\u03b5\u03c1\u03b1\u03c1\u03c7\u03ce\u03bd 46", "addr:country": "\u0395\u03bb\u03bb\u03ac\u03b4\u03b1", "name": "\u03a4\u03c1\u03b9\u03ce\u03bd \u0399\u03b5\u03c1\u03b1\u03c1\u03c7\u03ce\u03bd 46 (\u03a4\u03c1\u03b9\u03ce\u03bd \u0399\u03b5\u03c1\u03b1\u03c1\u03c7\u03ce\u03bd)", "phone": "2103465300", "website": "http://www.okmarkets.gr/"}, "geometry": {"type": "Point", "coordinates": [23.713039, 37.97336]}},
{"type": "Feature", "id": "hEk7Uep-MxbN6FugEfnbgTuTN3c=", "properties": {"ref": "2007", "@spider": "okmarkets_dac", "addr:full": "\u039a\u03b1\u03c1\u03c5\u03ac\u03c4\u03b9\u03b4\u03c9\u03bd 15", "addr:country": "\u0395\u03bb\u03bb\u03ac\u03b4\u03b1", "name": "\u039a\u03b1\u03c1\u03c5\u03ac\u03c4\u03b9\u03b4\u03c9\u03bd 15 (\u039a\u03b1\u03c1\u03c5\u03ac\u03c4\u03b9\u03b4\u03c9\u03bd)", "phone": "2109212012", "website": "http://www.okmarkets.gr/"}, "geometry": {"type": "Point", "coordinates": [23.726569, 37.967889]}},
{"type": "Feature", "id": "WJg7Jzm5gQZH4jD0bU72lgRkXAM=", "properties": {"ref": "2108", "@spider": "okmarkets_dac", "addr:full": "\u0392\u03b1\u03bb\u03c4\u03b9\u03bd\u03ce\u03bd 15 & \u039a\u03bf\u03c5\u03bc\u03b1\u03bd\u03ac\u03b4\u03b7", "addr:country": "\u0395\u03bb\u03bb\u03ac\u03b4\u03b1", "name": "\u0392\u03b1\u03bb\u03c4\u03b9\u03bd\u03ce\u03bd 15 &#038; \u039a\u03bf\u03c5\u03bc\u03b1\u03bd\u03ac\u03b4\u03b7 (\u0392\u03b1\u03bb\u03c4\u03b9\u03bd\u03ce\u03bd)", "phone": "2106446040", "website": "http://www.okmarkets.gr/"}, "geometry": {"type": "Point", "coordinates": [23.745541, 37.993114]}},
{"type": "Feature", "id": "n3LW-4xLhzbUOGlvW1ednzJSd4E=", "properties": {"ref": "2179", "@spider": "okmarkets_dac", "addr:full": "\u0391\u03c1\u03b3\u03bf\u03c3\u03c4\u03bf\u03bb\u03af\u03bf\u03c5 9", "addr:country": "\u0395\u03bb\u03bb\u03ac\u03b4\u03b1", "name": "\u0391\u03c1\u03b3\u03bf\u03c3\u03c4\u03bf\u03bb\u03af\u03bf\u03c5 9 (\u0391\u03c1\u03b3\u03bf\u03c3\u03c4\u03bf\u03bb\u03af\u03bf\u03c5)", "phone": "2111833893", "website": "http://www.okmarkets.gr/"}, "geometry": {"type": "Point", "coordinates": [23.742028, 37.997369]}},
{"type": "Feature", "id": "uLY42hJlwzUqauutPaNsPXqGi7k=", "properties": {"ref": "2172", "@spider": "okmarkets_dac", "addr:full": "\u0391\u03bc\u03cd\u03bd\u03c4\u03b1 8", "addr:country": "\u0395\u03bb\u03bb\u03ac\u03b4\u03b1", "name": "\u0391\u03bc\u03cd\u03bd\u03c4\u03b1 8 (\u0391\u03bc\u03cd\u03bd\u03c4\u03b1)", "phone": "2107255436", "website": "http://www.okmarkets.gr/"}, "geometry": {"type": "Point", "coordinates": [23.74465, 37.971998]}},
{"type": "Feature", "id": "8IQNmcsOEp5tfAot8ngHBeN5RCA=", "properties": {"ref": "2145", "@spider": "okmarkets_dac", "addr:full": "\u0391\u03bd\u03b1\u03c0\u03b1\u03cd\u03c3\u03b5\u03c9\u03c2 13", "addr:country": "\u0395\u03bb\u03bb\u03ac\u03b4\u03b1", "name": "\u0391\u03bd\u03b1\u03c0\u03b1\u03cd\u03c3\u03b5\u03c9\u03c2 13 (\u0391\u03bd\u03b1\u03c0\u03ac\u03c5\u03c3\u03b5\u03c9\u03c2)", "phone": "2109247004", "website": "http://www.okmarkets.gr/"}, "geometry": {"type": "Point", "coordinates": [23.734755, 37.966189]}},
{"type": "Feature", "id": "CKKdKw9NqhnLZI-NpMaXFkLvo18=", "properties": {"ref": "2158", "@spider": "okmarkets_dac", "addr:full": "\u039e\u03b1\u03bd\u03b8\u03af\u03c0\u03c0\u03b7\u03c2 114", "addr:country": "\u0395\u03bb\u03bb\u03ac\u03b4\u03b1", "name": "\u039e\u03b1\u03bd\u03b8\u03af\u03c0\u03c0\u03b7\u03c2 114 (\u039a\u03bf\u03bb\u03c9\u03bd\u03cc\u03c2)", "phone": "2111824358", "website": "http://www.okmarkets.gr/"}, "geometry": {"type": "Point", "coordinates": [23.713163, 37.998497]}},
{"type": "Feature", "id": "7cqvo74hE77zjF4kHm9zBGTNRNA=", "properties": {"ref": "2013", "@spider": "okmarkets_dac", "addr:full": "\u039b. \u0391\u03bb\u03b5\u03be\u03ac\u03bd\u03b4\u03c1\u03b1\u03c2 146", "addr:country": "\u0395\u03bb\u03bb\u03ac\u03b4\u03b1", "name": "\u039b. \u0391\u03bb\u03b5\u03be\u03ac\u03bd\u03b4\u03c1\u03b1\u03c2 146 (\u039b. \u0391\u03bb\u03b5\u03be\u03ac\u03bd\u03b4\u03c1\u03b1\u03c2)", "phone": "2106470300", "website": "http://www.okmarkets.gr/"}, "geometry": {"type": "Point", "coordinates": [23.751217, 37.988186]}},
{"type": "Feature", "id": "p0SMhHs0ADOwrMbE4kqQu3NVtio=", "properties": {"ref": "3146", "@spider": "okmarkets_dac", "addr:full": "\u03a6\u03c9\u03ba\u03af\u03c9\u03bd\u03bf\u03c2 \u039d\u03ad\u03b3\u03c1\u03b7 27", "addr:country": "\u0395\u03bb\u03bb\u03ac\u03b4\u03b1", "name": "\u03a6\u03c9\u03ba\u03af\u03c9\u03bd\u03bf\u03c2 \u039d\u03ad\u03b3\u03c1\u03b7 27, (\u039a\u03c5\u03c8\u03ad\u03bb\u03b7)", "phone": "2108661201", "website": "http://www.okmarkets.gr/"}, "geometry": {"type": "Point", "coordinates": [23.73735, 38.001389]}},
{"type": "Feature", "id": "2FIoo_jXgxFhaoZF7wap6ra1Oik=", "properties": {"ref": "3611", "@spider": "okmarkets_dac", "addr:full": "27, Fokionos Negri", "addr:country": "\u0395\u03bb\u03bb\u03ac\u03b4\u03b1", "name": "27, Fokionos Negri St (Kipseli)", "phone": "2108661201", "website": "http://www.okmarkets.gr/"}, "geometry": {"type": "Point", "coordinates": [23.73735, 38.001389]}},
{"type": "Feature", "id": "lYv1ZW2pCBvM-4CbnzYWeG9Mq4w=", "properties": {"ref": "2193", "@spider": "okmarkets_dac", "addr:full": "\u039a\u03b5\u03b9\u03c1\u03b9\u03ac\u03b4\u03c9\u03bd 80 & \u0391\u03b3\u03af\u03b1\u03c2 \u0391\u03b9\u03ba\u03b1\u03c4\u03b5\u03c1\u03af\u03bd\u03b7\u03c2", "addr:country": "\u0395\u03bb\u03bb\u03ac\u03b4\u03b1", "name": "\u039a\u03b5\u03b9\u03c1\u03b9\u03ac\u03b4\u03c9\u03bd 80 &#038; \u0391\u03b3\u03af\u03b1\u03c2 \u0391\u03b9\u03ba\u03b1\u03c4\u03b5\u03c1\u03af\u03bd\u03b7\u03c2 (\u03a0\u03b5\u03c4\u03c1\u03ac\u03bb\u03c9\u03bd\u03b1)", "phone": "2111821397", "website": "http://www.okmarkets.gr/"}, "geometry": {"type": "Point", "coordinates": [23.708359, 37.969409]}},
{"type": "Feature", "id": "u3U0l5M0GCsUzOzXZ5DfclT7Q70=", "properties": {"ref": "1959", "@spider": "okmarkets_dac", "addr:full": "\u039c\u03b9\u03c7\u03b1\u03bb\u03b1\u03ba\u03bf\u03c0\u03bf\u03cd\u03bb\u03bf\u03c5 41-43", "addr:country": "\u0395\u03bb\u03bb\u03ac\u03b4\u03b1", "name": "\u039c\u03b9\u03c7\u03b1\u03bb\u03b1\u03ba\u03bf\u03c0\u03bf\u03cd\u03bb\u03bf\u03c5 41-43 (\u039c\u03b9\u03c7\u03b1\u03bb\u03b1\u03ba\u03bf\u03c0\u03bf\u03cd\u03bb\u03bf\u03c5)", "phone": "2107250407", "website": "http://www.okmarkets.gr/"}, "geometry": {"type": "Point", "coordinates": [23.753172, 37.976165]}},
{"type": "Feature", "id": "oocbMwcf3qPPXR4QMS3a28vDmPk=", "properties": {"ref": "1978", "@spider": "okmarkets_dac", "addr:full": "\u0395\u03bc\u03c0\u03b5\u03b4\u03bf\u03ba\u03bb\u03ad\u03bf\u03c5\u03c2 21-23", "addr:country": "\u0395\u03bb\u03bb\u03ac\u03b4\u03b1", "name": "\u0395\u03bc\u03c0\u03b5\u03b4\u03bf\u03ba\u03bb\u03ad\u03bf\u03c5\u03c2 21-23 (\u03a0\u03bb. \u0392\u03b1\u03c1\u03bd\u03ac\u03b2\u03b1)", "phone": "2114012079", "website": "http://www.okmarkets.gr/"}, "geometry": {"type": "Point", "coordinates": [23.743199, 37.965963]}},
{"type": "Feature", "id": "iSfoYEZ9Qjg0q8NFVtWbdEu5_CM=", "properties": {"ref": "1927", "@spider": "okmarkets_dac", "addr:full": "\u03a6\u03c1\u03cd\u03bd\u03b7\u03c2 6", "addr:country": "\u0395\u03bb\u03bb\u03ac\u03b4\u03b1", "name": "\u03a6\u03c1\u03cd\u03bd\u03b7\u03c2 6 (\u03a6\u03c1\u03cd\u03bd\u03b7\u03c2)", "phone": "2107011747", "website": "http://www.okmarkets.gr/"}, "geometry": {"type": "Point", "coordinates": [23.747316, 37.967607]}},
{"type": "Feature", "id": "JPwP1dMfW56S0NO2fugHOZCttgo=", "properties": {"ref": "2195", "@spider": "okmarkets_dac", "addr:full": "\u0399\u03c0\u03c0\u03ac\u03c1\u03c7\u03bf\u03c5 66", "addr:country": "\u0395\u03bb\u03bb\u03ac\u03b4\u03b1", "name": "\u0399\u03c0\u03c0\u03ac\u03c1\u03c7\u03bf\u03c5 66 (\u0399\u03c0\u03c0\u03ac\u03c1\u03c7\u03bf\u03c5)", "phone": "2109219615", "website": "http://www.okmarkets.gr/"}, "geometry": {"type": "Point", "coordinates": [23.729947, 37.960175]}},
{"type": "Feature", "id": "CveZUuBwnXr1AXYcgr1BCDoGwLY=", "properties": {"ref": "2112", "@spider": "okmarkets_dac", "addr:full": "\u03a3\u03b9\u03ba\u03af\u03bd\u03bf\u03c5 80", "addr:country": "\u0395\u03bb\u03bb\u03ac\u03b4\u03b1", "name": "\u03a3\u03b9\u03ba\u03af\u03bd\u03bf\u03c5 80 (\u03a3\u03b9\u03ba\u03af\u03bd\u03bf\u03c5)", "phone": "2108642534", "website": "http://www.okmarkets.gr/"}, "geometry": {"type": "Point", "coordinates": [23.739569, 38.00633]}},
{"type": "Feature", "id": "OsXovjwdiitWJFAHrYI4RqivnCY=", "properties": {"ref": "2970", "@spider": "okmarkets_dac", "addr:full": "\u039b. \u0395\u03b8\u03bd. \u0391\u03bd\u03c4\u03b9\u03c3\u03c4\u03ac\u03c3\u03b5\u03c9\u03c2 & \u03a5\u03bc\u03b7\u03c4\u03c4\u03bf\u03cd 55", "addr:country": "\u0395\u03bb\u03bb\u03ac\u03b4\u03b1", "name": "\u039b. \u0395\u03b8\u03bd.\u0391\u03bd\u03c4\u03b9\u03c3\u03c4\u03ac\u03c3\u03b5\u03c9\u03c2 &#038; \u03a5\u03bc\u03b7\u03c4\u03c4\u03bf\u03cd 55 (\u039a\u03b1\u03b9\u03c3\u03b1\u03c1\u03b9\u03b1\u03bd\u03ae)", "website": "http://www.okmarkets.gr/"}, "geometry": {"type": "Point", "coordinates": [23.75323, 37.96942]}},
{"type": "Feature", "id": "x6d5wab0x6BaEBM3d4f6p6rZUKs=", "properties": {"ref": "2116", "@spider": "okmarkets_dac", "addr:full": "\u039a\u03b1\u03c3\u03bf\u03bc\u03bf\u03cd\u03bb\u03b7 108", "addr:country": "\u0395\u03bb\u03bb\u03ac\u03b4\u03b1", "name": "\u039a\u03b1\u03c3\u03bf\u03bc\u03bf\u03cd\u03bb\u03b7 108 (\u039d\u03ad\u03bf\u03c2 \u039a\u03cc\u03c3\u03bc\u03bf\u03c2)", "phone": "2109010855", "website": "http://www.okmarkets.gr/"}, "geometry": {"type": "Point", "coordinates": [23.724324, 37.958706]}},
{"type": "Feature", "id": "e-hoNShFwvsXpCR0P-NsgUfAASY=", "properties": {"ref": "4621", "@spider": "okmarkets_dac", "addr:full": "\u03a6\u03b9\u03bb\u03bf\u03bb\u03ac\u03bf\u03c5 120", "addr:country": "\u0395\u03bb\u03bb\u03ac\u03b4\u03b1", "name": "\u03a6\u03b9\u03bb\u03bf\u03bb\u03ac\u03bf\u03c5 120 (\u03a0\u03b1\u03b3\u03ba\u03c1\u03ac\u03c4\u03b9)", "website": "http://www.okmarkets.gr/"}, "geometry": {"type": "Point", "coordinates": [23.746189, 37.963204]}},
{"type": "Feature", "id": "gMj3FwnPhZ8WAgyIt5OLQ74GdpU=", "properties": {"ref": "1589", "@spider": "okmarkets_dac", "addr:full": "\u0392\u03b1\u03ba\u03c7\u03c5\u03bb\u03af\u03b4\u03bf\u03c5 2 & \u039d\u03c5\u03bc\u03c6\u03b1\u03af\u03bf\u03c5", "addr:country": "\u0395\u03bb\u03bb\u03ac\u03b4\u03b1", "name": "\u0392\u03b1\u03ba\u03c7\u03c5\u03bb\u03af\u03b4\u03bf\u03c5 2 &#038; \u039d\u03c5\u03bc\u03c6\u03b1\u03af\u03bf\u03c5 (\u039d\u03c5\u03bc\u03c6\u03b1\u03af\u03bf\u03c5)", "phone": "210 7770086", "website": "http://www.okmarkets.gr/"}, "geometry": {"type": "Point", "coordinates": [23.758879, 37.97727]}},
{"type": "Feature", "id": "jCggqD-7RUAMvC4oYcxXgn8PrtQ=", "properties": {"ref": "2136", "@spider": "okmarkets_dac", "addr:full": "\u0388\u03b2\u03c1\u03bf\u03c5 52 & \u03a0\u03bf\u03bd\u03c4\u03bf\u03b7\u03c1\u03b1\u03ba\u03bb\u03b5\u03af\u03b1\u03c2 2-4", "addr:country": "\u0395\u03bb\u03bb\u03ac\u03b4\u03b1", "name": "\u0388\u03b2\u03c1\u03bf\u03c5 52 &#038; \u03a0\u03bf\u03bd\u03c4\u03bf\u03b7\u03c1\u03b1\u03ba\u03bb\u03b5\u03af\u03b1\u03c2 2-4 (\u0388\u03b2\u03c1\u03bf\u03c5)", "phone": "2167002144", "website": "http://www.okmarkets.gr/"}, "geometry": {"type": "Point", "coordinates": [23.760438, 37.983183]}},
{"type": "Feature", "id": "z0yRjztQOcU08yIn_BBq7gDSEgo=", "properties": {"ref": "1923", "@spider": "okmarkets_dac", "addr:full": "\u03a6\u03b9\u03bb\u03bf\u03bb\u03ac\u03bf\u03c5 33 & \u039b\u03b5\u03c5\u03ba\u03bf\u03b8\u03ad\u03b1\u03c2", "addr:country": "\u0395\u03bb\u03bb\u03ac\u03b4\u03b1", "name": "\u03a6\u03b9\u03bb\u03bf\u03bb\u03ac\u03bf\u03c5 33 &#038; \u039b\u03b5\u03c5\u03ba\u03bf\u03b8\u03ad\u03b1\u03c2 (\u03a6\u03b9\u03bb\u03bf\u03bb\u03ac\u03bf\u03c5)", "phone": "2107510277", "website": "http://www.okmarkets.gr/"}, "geometry": {"type": "Point", "coordinates": [23.752042, 37.966367]}},
{"type": "Feature", "id": "k0iFgkGreQ9pcCnb1Z1HknSB0Q4=", "properties": {"ref": "2202", "@spider": "okmarkets_dac", "addr:full": "\u03a7\u03b1\u03b9\u03c1\u03ad\u03c4\u03b7 \u0393\u03b9\u03ac\u03bd\u03bd\u03b1\u03c1\u03b7 24", "addr:country": "\u0395\u03bb\u03bb\u03ac\u03b4\u03b1", "name": "\u03a7\u03b1\u03b9\u03c1\u03ad\u03c4\u03b7 \u0393\u03b9\u03ac\u03bd\u03bd\u03b1\u03c1\u03b7 24 (\u0393\u03b9\u03ac\u03bd\u03bd\u03b1\u03c1\u03b7)", "phone": "2108543278", "website": "http://www.okmarkets.gr/"}, "geometry": {"type": "Point", "coordinates": [23.725664, 38.010348]}},
{"type": "Feature", "id": "wfN3A9muEILNvJt6GYpZvSbJuh4=", "properties": {"ref": "1583", "@spider": "okmarkets_dac", "addr:full": "\u0392\u03b1\u03b8\u03c5\u03ba\u03bb\u03ad\u03bf\u03c5\u03c2 19", "addr:country": "\u0395\u03bb\u03bb\u03ac\u03b4\u03b1", "name": "\u0392\u03b1\u03b8\u03c5\u03ba\u03bb\u03ad\u03bf\u03c5\u03c2 19, \u03a0\u03b1\u03b3\u03ba\u03c1\u03ac\u03c4\u03b9 (\u0393\u03bf\u03cd\u03b2\u03b1)", "phone": "210 7569123", "website": "http://www.okmarkets.gr/"}, "geometry": {"type": "Point", "coordinates": [23.740296, 37.958028]}},
{"type": "Feature", "id": "MiqtVqg8y2QyEXmaM2ZmG_0jz3c=", "properties": {"ref": "2003", "@spider": "okmarkets_dac", "addr:full": "\u03a1\u03bf\u03c5\u03bc\u03c0\u03ad\u03c3\u03b7 48-\u039b\u03b1\u03b3\u03bf\u03c5\u03bc\u03b9\u03c4\u03b6\u03ae 76- \u0393\u03b1\u03b2\u03c1\u03b9\u03ae\u03bb \u0391\u03bd\u03b1\u03c3\u03c4\u03b1\u03c3\u03af\u03bf\u03c5 5", "addr:country": "\u0395\u03bb\u03bb\u03ac\u03b4\u03b1", "name": "\u03a1\u03bf\u03c5\u03bc\u03c0\u03ad\u03c3\u03b7 48-\u039b\u03b1\u03b3\u03bf\u03c5\u03bc\u03b9\u03c4\u03b6\u03ae 76- \u0393\u03b1\u03b2\u03c1\u03b9\u03ae\u03bb \u0391\u03bd\u03b1\u03c3\u03c4\u03b1\u03c3\u03af\u03bf\u03c5 5 (\u03a1\u03bf\u03c5\u03bc\u03c0\u03ad\u03c3\u03b7)", "phone": "2109022015", "website": "http://www.okmarkets.gr/"}, "geometry": {"type": "Point", "coordinates": [23.725746, 37.954658]}},
{"type": "Feature", "id": "VHpJcAnzitX-mdy6IPeAMJDj1VE=", "properties": {"ref": "1937", "@spider": "okmarkets_dac", "addr:full": "\u039a\u03bf\u03bd\u03bf\u03c0\u03b9\u03c3\u03bf\u03c0\u03bf\u03cd\u03bb\u03bf\u03c5 11", "addr:country": "\u0395\u03bb\u03bb\u03ac\u03b4\u03b1", "name": "\u039a\u03bf\u03bd\u03bf\u03c0\u03b9\u03c3\u03bf\u03c0\u03bf\u03cd\u03bb\u03bf\u03c5 11 (\u0391\u03bc\u03c0\u03b5\u03bb\u03cc\u03ba\u03b7\u03c0\u03bf\u03b9)", "phone": "2106911060", "website": "http://www.okmarkets.gr/"}, "geometry": {"type": "Point", "coordinates": [23.762758, 37.99479]}},
{"type": "Feature", "id": "o8sOZYHoko0GG28VFrapGPbrDjg=", "properties": {"ref": "1970", "@spider": "okmarkets_dac", "addr:full": "\u03a3\u03b5\u03b2\u03b1\u03c3\u03c4\u03bf\u03c5\u03c0\u03cc\u03bb\u03b5\u03c9\u03c2 & \u0389\u03bb\u03b9\u03b4\u03bf\u03c2 8", "addr:country": "\u0395\u03bb\u03bb\u03ac\u03b4\u03b1", "name": "\u03a3\u03b5\u03b2\u03b1\u03c3\u03c4\u03bf\u03c5\u03c0\u03cc\u03bb\u03b5\u03c9\u03c2 &#038; \u0389\u03bb\u03b9\u03b4\u03bf\u03c2 8 (\u03a3\u03b5\u03b2\u03b1\u03c3\u03c4\u03bf\u03c5\u03c0\u03cc\u03bb\u03b5\u03c9\u03c2)", "phone": "2117059421", "website": "http://www.okmarkets.gr/"}, "geometry": {"type": "Point", "coordinates": [23.765582, 37.989336]}},
{"type": "Feature", "id": "CjLh20pqtnJronwVC3opqJolZME=", "properties": {"ref": "1585", "@spider": "okmarkets_dac", "addr:full": "\u039a\u03bf\u03c1\u03b4\u03b5\u03bb\u03b9\u03bf\u03cd 13-15", "addr:country": "\u0395\u03bb\u03bb\u03ac\u03b4\u03b1", "name": "\u039a\u03bf\u03c1\u03b4\u03b5\u03bb\u03b9\u03bf\u03cd 13-15, \u0392\u03cd\u03c1\u03c9\u03bd\u03b1\u03c2 (\u039a\u03bf\u03c1\u03b4\u03b5\u03bb\u03b9\u03bf\u03cd)", "phone": "210 7656997", "website": "http://www.okmarkets.gr/"}, "geometry": {"type": "Point", "coordinates": [23.755789, 37.962807]}},
{"type": "Feature", "id": "n4SSWQ_ALegyaspzPSaDsr6PIxc=", "properties": {"ref": "2200", "@spider": "okmarkets_dac", "addr:full": "\u0394\u03b1\u03b2\u03ac\u03ba\u03b7 \u03a0\u03af\u03bd\u03b4\u03bf\u03c5 48", "addr:country": "\u0395\u03bb\u03bb\u03ac\u03b4\u03b1", "name": "\u0394\u03b1\u03b2\u03ac\u03ba\u03b7 \u03a0\u03af\u03bd\u03b4\u03bf\u03c5 48 (\u0396\u03c9\u03b3\u03c1\u03ac\u03c6\u03bf\u03c5)", "phone": "2114025712", "website": "http://www.okmarkets.gr/"}, "geometry": {"type": "Point", "coordinates": [23.766638, 37.981879]}},
{"type": "Feature", "id": "ruDziZho8Lvhz_TIk4LvZU2bTls=", "properties": {"ref": "1934", "@spider": "okmarkets_dac", "addr:full": "\u0397\u03c1\u03b1\u03ba\u03bb\u03ad\u03bf\u03c5\u03c2 54 & \u0391\u03b3\u03af\u03c9\u03bd \u03a0\u03ac\u03bd\u03c4\u03c9\u03bd", "addr:country": "\u0395\u03bb\u03bb\u03ac\u03b4\u03b1", "name": "\u0397\u03c1\u03b1\u03ba\u03bb\u03ad\u03bf\u03c5\u03c2 54 &#038; \u0391\u03b3\u03af\u03c9\u03bd \u03a0\u03ac\u03bd\u03c4\u03c9\u03bd (\u0397\u03c1\u03b1\u03ba\u03bb\u03ad\u03bf\u03c5\u03c2)", "phone": "2109573003", "website": "http://www.okmarkets.gr/"}, "geometry": {"type": "Point", "coordinates": [23.711066, 37.955563]}},
{"type": "Feature", "id": "1fuxiRMKYgVqsU1ojVtt6F5-q18=", "properties": {"ref": "1587", "@spider": "okmarkets_dac", "addr:full": "\u0396\u03b1\u03b3\u03bf\u03c1\u03ac\u03c2 4 & \u0389\u03bb\u03b9\u03b4\u03bf\u03c2 36-38", "addr:country": "\u0395\u03bb\u03bb\u03ac\u03b4\u03b1", "name": "\u0396\u03b1\u03b3\u03bf\u03c1\u03ac\u03c2 4 &#038; \u0389\u03bb\u03b9\u03b4\u03bf\u03c2 36-38 (\u0393\u03bf\u03c5\u03b4\u03af)", "phone": "210 7701332", "website": "http://www.okmarkets.gr/"}, "geometry": {"type": "Point", "coordinates": [23.767709, 37.988251]}},
{"type": "Feature", "id": "CNtQDJt8C1-zahZ_0nTraJY-Fms=", "properties": {"ref": "2130", "@spider": "okmarkets_dac", "addr:full": "\u039a\u03b1\u03b2\u03b2\u03b1\u03b8\u03ac 8", "addr:country": "\u0395\u03bb\u03bb\u03ac\u03b4\u03b1", "name": "\u039a\u03b1\u03b2\u03b2\u03b1\u03b8\u03ac 8 (\u039a\u03b1\u03b2\u03b2\u03b1\u03b8\u03ac)", "phone": "2114045466", "website": "http://www.okmarkets.gr/"}, "geometry": {"type": "Point", "coordinates": [23.768026, 37.980205]}},
{"type": "Feature", "id": "svZCpmZJM6_DjIDI_hXu048DPME=", "properties": {"ref": "1963", "@spider": "okmarkets_dac", "addr:full": "\u039d\u03ac\u03be\u03bf\u03c5 134-136 & \u03a7\u03b1\u03c4\u03b6\u03b7\u03b4\u03ac\u03ba\u03b7", "addr:country": "\u0395\u03bb\u03bb\u03ac\u03b4\u03b1", "name": "\u039d\u03ac\u03be\u03bf\u03c5 134-136 &#038; \u03a7\u03b1\u03c4\u03b6\u03b7\u03b4\u03ac\u03ba\u03b7 (\u039d\u03ac\u03be\u03bf\u03c5)", "phone": "2102235841", "website": "http://www.okmarkets.gr/"}, "geometry": {"type": "Point", "coordinates": [23.73731, 38.015255]}},
{"type": "Feature", "id": "sGTw4-XgJOWQpY68BfbLHBvagzA=", "properties": {"ref": "2017", "@spider": "okmarkets_dac", "addr:full": "\u039c\u03b1\u03c1\u03ac\u03c4\u03bf\u03c5 54 & \u03a0\u03b5\u03c1\u03b9\u03ac\u03bd\u03b4\u03c1\u03bf\u03c5", "addr:country": "\u0395\u03bb\u03bb\u03ac\u03b4\u03b1", "name": "\u039c\u03b1\u03c1\u03ac\u03c4\u03bf\u03c5 54 &#038; \u03a0\u03b5\u03c1\u03b9\u03ac\u03bd\u03b4\u03c1\u03bf\u03c5 (\u039c\u03b1\u03c1\u03ac\u03c4\u03bf\u03c5)", "phone": "2107700603", "website": "http://www.okmarkets.gr/"}, "geometry": {"type": "Point", "coordinates": [23.767144, 37.974769]}},
{"type": "Feature", "id": "txqocHd_ARxMEAXotMnS9G0Ao-k=", "properties": {"ref": "2015", "@spider": "okmarkets_dac", "addr:full": "\u03a0\u03bb\u03b1\u03c4\u03b5\u03af\u03b1\u03c2 \u03a5\u03bc\u03b7\u03c4\u03c4\u03bf\u03cd 13", "addr:country": "\u0395\u03bb\u03bb\u03ac\u03b4\u03b1", "name": "\u03a0\u03bb\u03b1\u03c4\u03b5\u03af\u03b1\u03c2 \u03a5\u03bc\u03b7\u03c4\u03c4\u03bf\u03cd 13 (\u03a5\u03bc\u03b7\u03c4\u03c4\u03cc\u03c2)", "phone": "2107625233", "website": "http://www.okmarkets.gr/"}, "geometry": {"type": "Point", "coordinates": [23.74645, 37.954742]}},
{"type": "Feature", "id": "bD3jbdSvsgeY8CqMm9ppeiDR5K8=", "properties": {"ref": "2160", "@spider": "okmarkets_dac", "addr:full": "\u03a7\u03c1\u03c5\u03c3\u03bf\u03c3\u03c4\u03cc\u03bc\u03bf\u03c5 \u03a3\u03bc\u03cd\u03c1\u03bd\u03b7\u03c2 131", "addr:country": "\u0395\u03bb\u03bb\u03ac\u03b4\u03b1", "name": "\u03a7\u03c1\u03c5\u03c3\u03bf\u03c3\u03c4\u03cc\u03bc\u03bf\u03c5 \u03a3\u03bc\u03cd\u03c1\u03bd\u03b7\u03c2 131  (\u0392\u03cd\u03c1\u03c9\u03bd\u03b1\u03c2)", "phone": "2107647170", "website": "http://www.okmarkets.gr/"}, "geometry": {"type": "Point", "coordinates": [23.75494, 37.9593]}},
{"type": "Feature", "id": "9ZoBXN7jfovr3CkDvIpWxDWc3p4=", "properties": {"ref": "1988", "@spider": "okmarkets_dac", "addr:full": "\u039a\u03bf\u03c5\u03c1\u03c4\u03af\u03b4\u03bf\u03c5 98", "addr:country": "\u0395\u03bb\u03bb\u03ac\u03b4\u03b1", "name": "\u039a\u03bf\u03c5\u03c1\u03c4\u03af\u03b4\u03bf\u03c5 98 (\u039a\u03bf\u03c5\u03c1\u03c4\u03af\u03b4\u03bf\u03c5)", "phone": "2108395187", "website": "http://www.okmarkets.gr/"}, "geometry": {"type": "Point", "coordinates": [23.724518, 38.017675]}},
{"type": "Feature", "id": "nE2n_Hl-UpHqQiWMvOx42UK7jQ0=", "properties": {"ref": "2118", "@spider": "okmarkets_dac", "addr:full": "\u0397\u03bb\u03af\u03b1 \u0396\u03b5\u03c1\u03b2\u03bf\u03cd & \u03a7\u03ac\u03bd\u03c3\u03b5\u03bd 31", "addr:country": "\u0395\u03bb\u03bb\u03ac\u03b4\u03b1", "name": "\u0397\u03bb\u03af\u03b1 \u0396\u03b5\u03c1\u03b2\u03bf\u03cd &#038; \u03a7\u03ac\u03bd\u03c3\u03b5\u03bd 31 (\u03a7\u03ac\u03bd\u03c3\u03b5\u03bd)", "phone": "2102024230", "website": "http://www.okmarkets.gr/"}, "geometry": {"type": "Point", "coordinates": [23.732798, 38.017827]}},
{"type": "Feature", "id": "bwQLb6F7SmOyG7zXZUJaxZ0C8L0=", "properties": {"ref": "1955", "@spider": "okmarkets_dac", "addr:full": "\u0393\u03b1\u03bb\u03ae\u03bd\u03b7\u03c2 42", "addr:country": "\u0395\u03bb\u03bb\u03ac\u03b4\u03b1", "name": "\u0393\u03b1\u03bb\u03ae\u03bd\u03b7\u03c2 42 (\u0393\u03b1\u03bb\u03ae\u03bd\u03b7\u03c2)", "phone": "2107793376", "website": "http://www.okmarkets.gr/"}, "geometry": {"type": "Point", "coordinates": [23.770537, 37.973911]}},
{"type": "Feature", "id": "gugWhRNEDiY3NzZnm-B3zDFthCw=", "properties": {"ref": "1983", "@spider": "okmarkets_dac", "addr:full": "\u0395\u03b8\u03bd\u03ac\u03c1\u03c7\u03bf\u03c5 \u039c\u03b1\u03ba\u03b1\u03c1\u03af\u03bf\u03c5 131", "addr:country": "\u0395\u03bb\u03bb\u03ac\u03b4\u03b1", "name": "\u0395\u03b8\u03bd\u03ac\u03c1\u03c7\u03bf\u03c5 \u039c\u03b1\u03ba\u03b1\u03c1\u03af\u03bf\u03c5 131 (\u0394\u03ac\u03c6\u03bd\u03b7)", "phone": "2109769371", "website": "http://www.okmarkets.gr/"}, "geometry": {"type": "Point", "coordinates": [23.729671, 37.947953]}},
{"type": "Feature", "id": "V8ftmB23ts6GgQQEAMRQrMrs3mM=", "properties": {"ref": "2001", "@spider": "okmarkets_dac", "addr:full": "\u03a3\u03b1\u03c1\u03b1\u03bd\u03c4\u03b1\u03c0\u03cc\u03c1\u03bf\u03c5 8-10 & \u03a4\u03c3\u03af\u03bb\u03bb\u03b5\u03c1 55", "addr:country": "\u0395\u03bb\u03bb\u03ac\u03b4\u03b1", "name": "\u03a3\u03b1\u03c1\u03b1\u03bd\u03c4\u03b1\u03c0\u03cc\u03c1\u03bf\u03c5 8-10 &#038; \u03a4\u03c3\u03af\u03bb\u03bb\u03b5\u03c1 55 (\u03a3\u03b1\u03c1\u03b1\u03bd\u03c4\u03b1\u03c0\u03cc\u03c1\u03bf\u03c5)", "phone": "2102011030", "website": "http://www.okmarkets.gr/"}, "geometry": {"type": "Point", "coordinates": [23.734293, 38.019591]}},
{"type": "Feature", "id": "KZLhRi6qNTGpLE0YTUimHXUiHa0=", "properties": {"ref": "3150", "@spider": "okmarkets_dac", "addr:full": "\u0391\u03c1\u03b9\u03c3\u03c4\u03bf\u03bc\u03ad\u03bd\u03bf\u03c5\u03c2 15 & \u0392\u03b1\u03c3.\u0393\u03b5\u03c9\u03c1\u03b3\u03af\u03bf\u03c5", "addr:country": "\u0395\u03bb\u03bb\u03ac\u03b4\u03b1", "name": "\u0391\u03c1\u03b9\u03c3\u03c4\u03bf\u03bc\u03ad\u03bd\u03bf\u03c5\u03c2 15 &#038; \u0392\u03b1\u03c3.\u0393\u03b5\u03c9\u03c1\u03b3\u03af\u03bf\u03c5 (\u0396\u03c9\u03b3\u03c1\u03ac\u03c6\u03bf\u03c5)", "phone": "2100109576", "website": "http://www.okmarkets.gr/"}, "geometry": {"type": "Point", "coordinates": [23.773651, 37.98221]}},
{"type": "Feature", "id": "qIlDjbUqjQ3sRNX1b2IVfR5XXuc=", "properties": {"ref": "3591", "@spider": "okmarkets_dac", "addr:full": "15, Aristomenous str. & Vasileos Georgiou str.", "addr:country": "\u0395\u03bb\u03bb\u03ac\u03b4\u03b1", "name": "15, Aristomenous str. &#038; Vasileos Georgiou str. (Zografou)", "phone": "2100109576", "website": "http://www.okmarkets.gr/"}, "geometry": {"type": "Point", "coordinates": [23.773651, 37.98221]}},
{"type": "Feature", "id": "unThdBB7n6jvSspvHE0z40NbkDM=", "properties": {"ref": "1952", "@spider": "okmarkets_dac", "addr:full": "\u039a\u03b1\u03b9\u03c3\u03b1\u03c1\u03b5\u03af\u03b1\u03c2 79 & \u039a\u03c1\u03c5\u03c3\u03c4\u03ac\u03bb\u03bb\u03b7 2", "addr:country": "\u0395\u03bb\u03bb\u03ac\u03b4\u03b1", "name": "\u039a\u03b1\u03b9\u03c3\u03b1\u03c1\u03b5\u03af\u03b1\u03c2 79 &#038; \u039a\u03c1\u03c5\u03c3\u03c4\u03ac\u03bb\u03bb\u03b7 2 (\u039a\u03b1\u03b9\u03c3\u03b1\u03c1\u03b5\u03af\u03b1\u03c2)", "phone": "2107608772", "website": "http://www.okmarkets.gr/"}, "geometry": {"type": "Point", "coordinates": [23.758678, 37.956523]}},
{"type": "Feature", "id": "NAhpfvtLIabIoYpV3j0nhIj7Tbs=", "properties": {"ref": "1925", "@spider": "okmarkets_dac", "addr:full": "\u039a\u03c1\u03c5\u03c3\u03c4\u03ac\u03bb\u03bb\u03b7 63 & \u03a6\u03c1\u03c5\u03b3\u03af\u03b1\u03c2", "addr:country": "\u0395\u03bb\u03bb\u03ac\u03b4\u03b1", "name": "\u039a\u03c1\u03c5\u03c3\u03c4\u03ac\u03bb\u03bb\u03b7 63 &#038; \u03a6\u03c1\u03c5\u03b3\u03af\u03b1\u03c2 (\u039a\u03c1\u03c5\u03c3\u03c4\u03ac\u03bb\u03bb\u03b7)", "phone": "2107666606", "website": "http://www.okmarkets.gr/"}, "geometry": {"type": "Point", "coordinates": [23.763361, 37.959521]}},
{"type": "Feature", "id": "bkKy260i-Z-NtifVCyh-16TT4NQ=", "properties": {"ref": "2207", "@spider": "okmarkets_dac", "addr:full": "\u0399\u03ba\u03bf\u03bd\u03af\u03bf\u03c5 & \u03a0\u03c1\u03bf\u03c3\u03ba\u03cc\u03c0\u03c9\u03bd \u0391\u03ca\u03b4\u03b9\u03bd\u03af\u03bf\u03c5 3", "addr:country": "\u0395\u03bb\u03bb\u03ac\u03b4\u03b1", "name": "\u0399\u03ba\u03bf\u03bd\u03af\u03bf\u03c5 &#038; \u03a0\u03c1\u03bf\u03c3\u03ba\u03cc\u03c0\u03c9\u03bd \u0391\u03ca\u03b4\u03b9\u03bd\u03af\u03bf\u03c5 3 (\u03a0\u03c1. \u0391\u03ca\u03b4\u03b9\u03bd\u03af\u03bf\u03c5)", "phone": "2109335809", "website": "http://www.okmarkets.gr/"}, "geometry": {"type": "Point", "coordinates": [23.715424, 37.945538]}},
{"type": "Feature", "id": "FwdBPKLaSkmGwt-DS9NkiO3VXBU=", "properties": {"ref": "2132", "@spider": "okmarkets_dac", "addr:full": "\u0394\u03b7\u03bc\u03b7\u03c4\u03c1\u03b1\u03ba\u03bf\u03c0\u03bf\u03cd\u03c5\u03bb\u03bf\u03c5 20", "addr:country": "\u0395\u03bb\u03bb\u03ac\u03b4\u03b1", "name": "\u0394\u03b7\u03bc\u03b7\u03c4\u03c1\u03b1\u03ba\u03bf\u03c0\u03bf\u03cd\u03bb\u03bf\u03c5 20 (\u03a0\u03b1\u03c4\u03ae\u03c3\u03b9\u03b1)", "phone": "2114113143", "website": "http://www.okmarkets.gr/"}, "geometry": {"type": "Point", "coordinates": [23.737259, 38.022527]}},
{"type": "Feature", "id": "zrHNhPgqpgM4o7q-g5agzwLLOEs=", "properties": {"ref": "2149", "@spider": "okmarkets_dac", "addr:full": "\u03a6\u03bb\u03ad\u03bc\u03b9\u03bd\u03b3\u03ba 76 & \u0395\u03c1\u03bc\u03bf\u03cd", "addr:country": "\u0395\u03bb\u03bb\u03ac\u03b4\u03b1", "name": "\u03a6\u03bb\u03ad\u03bc\u03b9\u03bd\u03b3\u03ba 76 &#038; \u0395\u03c1\u03bc\u03bf\u03cd (\u03a6\u03b1\u03c4\u03c3\u03ad\u03b1)", "phone": "2107661121", "website": "http://www.okmarkets.gr/"}, "geometry": {"type": "Point", "coordinates": [23.762493, 37.955245]}},
{"type": "Feature", "id": "-dAmsgqTp51YIdpNcRD16_i9WYY=", "properties": {"ref": "2141", "@spider": "okmarkets_dac", "addr:full": "\u0395\u03b8\u03bd\u03b9\u03ba\u03ae\u03c2 \u0391\u03bd\u03c4\u03b9\u03c3\u03c4\u03ac\u03c3\u03b5\u03c9\u03c2 50", "addr:country": "\u0395\u03bb\u03bb\u03ac\u03b4\u03b1", "name": "\u0395\u03b8\u03bd\u03b9\u03ba\u03ae\u03c2 \u0391\u03bd\u03c4\u03b9\u03c3\u03c4\u03ac\u03c3\u03b5\u03c9\u03c2 50 (\u03a0\u03b5\u03c1\u03b9\u03c3\u03c4\u03ad\u03c1\u03b9)", "phone": "2105779741", "website": "http://www.okmarkets.gr/"}, "geometry": {"type": "Point", "coordinates": [23.690399, 38.013358]}},
{"type": "Feature", "id": "ephxa2KxLd-pW7h1XIOPv9fmefs=", "properties": {"ref": "2110", "@spider": "okmarkets_dac", "addr:full": "\u0391\u03b3\u03af\u03bf\u03c5 \u0394\u03b7\u03bc\u03b7\u03c4\u03c1\u03af\u03bf\u03c5 80", "addr:country": "\u0395\u03bb\u03bb\u03ac\u03b4\u03b1", "name": "\u0391\u03b3\u03af\u03bf\u03c5 \u0394\u03b7\u03bc\u03b7\u03c4\u03c1\u03af\u03bf\u03c5 80 (\u0386\u03b3\u03b9\u03bf\u03c2 \u0394\u03b7\u03bc\u03ae\u03c4\u03c1\u03b9\u03bf\u03c2)", "phone": "2109710220", "website": "http://www.okmarkets.gr/"}, "geometry": {"type": "Point", "coordinates": [23.731422, 37.941383]}},
{"type": "Feature", "id": "Rz01hmw5rbE-B7UsFos_kx3zffM=", "properties": {"ref": "2174", "@spider": "okmarkets_dac", "addr:full": "\u0391\u03c1\u03c4\u03ac\u03ba\u03b7\u03c2 153", "addr:country": "\u0395\u03bb\u03bb\u03ac\u03b4\u03b1", "name": "\u0391\u03c1\u03c4\u03ac\u03ba\u03b7\u03c2 153 (\u0391\u03c1\u03c4\u03ac\u03ba\u03b7\u03c2)", "phone": "2114110536", "website": "http://www.okmarkets.gr/"}, "geometry": {"type": "Point", "coordinates": [23.716803, 37.941472]}},
{"type": "Feature", "id": "NAK2HiLzu4Z9LWdfyVHJLMWWtuw=", "properties": {"ref": "2143", "@spider": "okmarkets_dac", "addr:full": "\u0386\u03b3\u03b3\u03b5\u03bb\u03bf\u03c5 \u03a3\u03b9\u03ba\u03b5\u03bb\u03b9\u03b1\u03bd\u03bf\u03cd 27", "addr:country": "\u0395\u03bb\u03bb\u03ac\u03b4\u03b1", "name": "\u0386\u03b3\u03b3\u03b5\u03bb\u03bf\u03c5 \u03a3\u03b9\u03ba\u03b5\u03bb\u03b9\u03b1\u03bd\u03bf\u03cd 27  (\u039d\u03ad\u03bf \u03a8\u03c5\u03c7\u03b9\u03ba\u03cc)", "phone": "2106722232", "website": "http://www.okmarkets.gr/"}, "geometry": {"type": "Point", "coordinates": [23.77785, 38.001299]}},
{"type": "Feature", "id": "InuJoWF722arq86rS5TWLaJEFTw=", "properties": {"ref": "1999", "@spider": "okmarkets_dac", "addr:full": "\u039d\u03b1\u03b6\u03bb\u03af\u03bf\u03c5 61", "addr:country": "\u0395\u03bb\u03bb\u03ac\u03b4\u03b1", "name": "\u039d\u03b1\u03b6\u03bb\u03af\u03bf\u03c5 61 (\u039d\u03b1\u03b6\u03bb\u03af\u03bf\u03c5)", "phone": "2109430109", "website": "http://www.okmarkets.gr/"}, "geometry": {"type": "Point", "coordinates": [23.707753, 37.939995]}},
{"type": "Feature", "id": "u-I59iteWCiGN8VV01iaCAjkR9s=", "properties": {"ref": "1950", "@spider": "okmarkets_dac", "addr:full": "\u03a3\u03c5\u03c1\u03b1\u03ba\u03bf\u03c5\u03c3\u03ce\u03bd 91 & \u0391\u03bc\u03af\u03c3\u03bf\u03c5 17", "addr:country": "\u0395\u03bb\u03bb\u03ac\u03b4\u03b1", "name": "\u03a3\u03c5\u03c1\u03b1\u03ba\u03bf\u03c5\u03c3\u03ce\u03bd 91 &#038; \u0391\u03bc\u03af\u03c3\u03bf\u03c5 17 (\u03a3\u03c5\u03c1\u03b1\u03ba\u03bf\u03c5\u03c3\u03ce\u03bd)", "phone": "2102529139", "website": "http://www.okmarkets.gr/"}, "geometry": {"type": "Point", "coordinates": [23.750795, 38.027585]}},
{"type": "Feature", "id": "7_WWaoLT4DuvOlAVo_eOA1I_67s=", "properties": {"ref": "2138", "@spider": "okmarkets_dac", "addr:full": "\u038a\u03bc\u03b2\u03c1\u03bf\u03c5 5", "addr:country": "\u0395\u03bb\u03bb\u03ac\u03b4\u03b1", "name": "\u038a\u03bc\u03b2\u03c1\u03bf\u03c5 5 (\u038a\u03bc\u03b2\u03c1\u03bf\u03c5)", "phone": "2102589810", "website": "http://www.okmarkets.gr/"}, "geometry": {"type": "Point", "coordinates": [23.747629, 38.030577]}},
{"type": "Feature", "id": "SCBp-oTJvzsUqEK4fwc2aibdPr8=", "properties": {"ref": "2209", "@spider": "okmarkets_dac", "addr:full": "\u03a0\u03b5\u03bb\u03b1\u03c3\u03b3\u03af\u03b1\u03c2 122", "addr:country": "\u0395\u03bb\u03bb\u03ac\u03b4\u03b1", "name": "\u03a0\u03b5\u03bb\u03b1\u03c3\u03b3\u03af\u03b1\u03c2 122 (\u03a0\u03b5\u03bb\u03b1\u03c3\u03b3\u03af\u03b1\u03c2)", "phone": "2105781035", "website": "http://www.okmarkets.gr/"}, "geometry": {"type": "Point", "coordinates": [23.67468, 38.014064]}},
{"type": "Feature", "id": "3BF01c4Z-PSM0Uqb6GB-pSmfsjs=", "properties": {"ref": "2191", "@spider": "okmarkets_dac", "addr:full": "\u039b. \u0395\u03b9\u03c1\u03ae\u03bd\u03b7\u03c2 13 & \u038c\u03b8\u03c9\u03bd\u03bf\u03c2 1", "addr:country": "\u0395\u03bb\u03bb\u03ac\u03b4\u03b1", "name": "\u039b. \u0395\u03b9\u03c1\u03ae\u03bd\u03b7\u03c2 13 &#038; \u038c\u03b8\u03c9\u03bd\u03bf\u03c2 1 (\u0397\u03bb\u03b9\u03bf\u03cd\u03c0\u03bf\u03bb\u03b7)", "phone": "2111821802", "website": "http://www.okmarkets.gr/"}, "geometry": {"type": "Point", "coordinates": [23.756647, 37.936129]}},
{"type": "Feature", "id": "vLcPcYsaso2LrxjTlvNoUR8Q6vg=", "properties": {"ref": "2187", "@spider": "okmarkets_dac", "addr:full": "\u0395\u03c6\u03ad\u03c3\u03bf\u03c5 4", "addr:country": "\u0395\u03bb\u03bb\u03ac\u03b4\u03b1", "name": "\u0395\u03c6\u03ad\u03c3\u03bf\u03c5 4 (\u039d. \u03a6\u03b9\u03bb\u03b1\u03b4\u03ad\u03bb\u03b5\u03c6\u03b5\u03b9\u03b1)", "phone": "2102513772", "website": "http://www.okmarkets.gr/"}, "geometry": {"type": "Point", "coordinates": [23.738508, 38.036904]}},
{"type": "Feature", "id": "99h0G9hQNf3hjGY8KisGVX8bXaA=", "properties": {"ref": "2183", "@spider": "okmarkets_dac", "addr:full": "\u0392\u03bf\u03c5\u03c4\u03c3\u03b9\u03bd\u03ac 67 & \u03a5\u03bc\u03b7\u03c4\u03c4\u03bf\u03cd", "addr:country": "\u0395\u03bb\u03bb\u03ac\u03b4\u03b1", "name": "\u0392\u03bf\u03c5\u03c4\u03c3\u03b9\u03bd\u03ac 67 &#038; \u03a5\u03bc\u03b7\u03c4\u03c4\u03bf\u03cd (\u0392\u03bf\u03c5\u03c4\u03c3\u03b9\u03bd\u03ac)", "phone": "2106534815", "website": "http://www.okmarkets.gr/"}, "geometry": {"type": "Point", "coordinates": [23.792722, 38.001146]}},
{"type": "Feature", "id": "T3wOgSG6Y5J2Zdzp49xJMlyuL9E=", "properties": {"ref": "3379", "@spider": "okmarkets_dac", "addr:full": "\u0395\u03b8\u03bd\u03b9\u03ba\u03ae\u03c2 \u0391\u03bd\u03c4\u03b9\u03c3\u03c4\u03ac\u03c3\u03b5\u03c9\u03c2 15", "addr:country": "\u0395\u03bb\u03bb\u03ac\u03b4\u03b1", "name": "\u0395\u03b8\u03bd\u03b9\u03ba\u03ae\u03c2 \u0391\u03bd\u03c4\u03b9\u03c3\u03c4\u03ac\u03c3\u03b5\u03c9\u03c2 15 (\u03a7\u03b1\u03bb\u03ac\u03bd\u03b4\u03c1\u03b9)", "phone": "2121069990", "website": "http://www.okmarkets.gr/"}, "geometry": {"type": "Point", "coordinates": [23.787237, 38.016667]}},
{"type": "Feature", "id": "OT_gdKE7-280TzVzslujP4RlLIw=", "properties": {"ref": "2124", "@spider": "okmarkets_dac", "addr:full": "\u03a3\u03c4\u03c1\u03b1\u03c4\u03b7\u03b3\u03bf\u03cd \u039a\u03bf\u03ba\u03ba\u03cc\u03bb\u03b1 18", "addr:country": "\u0395\u03bb\u03bb\u03ac\u03b4\u03b1", "name": "\u03a3\u03c4\u03c1\u03b1\u03c4\u03b7\u03b3\u03bf\u03cd \u039a\u03bf\u03ba\u03ba\u03cc\u03bb\u03b1 18 (\u03a7\u03bf\u03bb\u03b1\u03c1\u03b3\u03cc\u03c2)", "phone": "2114110568", "website": "http://www.okmarkets.gr/"}, "geometry": {"type": "Point", "coordinates": [23.799513, 37.992828]}},
{"type": "Feature", "id": "lxBtASV1Wh15aC7v6Lk2IiRLdz0=", "properties": {"ref": "3917", "@spider": "okmarkets_dac", "addr:full": "\u039b. \u0391\u03bc\u03c6\u03b9\u03b8\u03ad\u03b1\u03c2 127", "addr:country": "\u0395\u03bb\u03bb\u03ac\u03b4\u03b1", "name": "\u039b. \u0391\u03bc\u03c6\u03b9\u03b8\u03ad\u03b1\u03c2 127 (\u03a0.\u03a6\u03ac\u03bb\u03b7\u03c1\u03bf)", "phone": "210 9844324", "website": "http://www.okmarkets.gr/"}, "geometry": {"type": "Point", "coordinates": [23.70387, 37.92749]}},
{"type": "Feature", "id": "nmOL_EXMNtPy512mUaWSCb1DGXk=", "properties": {"ref": "1943", "@spider": "okmarkets_dac", "addr:full": "\u0394\u03b7\u03bc\u03b7\u03c4\u03c1\u03b1\u03ba\u03bf\u03c0\u03bf\u03cd\u03bb\u03bf\u03c5 18", "addr:country": "\u0395\u03bb\u03bb\u03ac\u03b4\u03b1", "name": "\u0394\u03b7\u03bc\u03b7\u03c4\u03c1\u03b1\u03ba\u03bf\u03c0\u03bf\u03cd\u03bb\u03bf\u03c5 18  (\u039a\u03bf\u03c1\u03c5\u03b4\u03b1\u03bb\u03bb\u03cc\u03c2)", "phone": "2104960428", "website": "http://www.okmarkets.gr/"}, "geometry": {"type": "Point", "coordinates": [23.652543, 37.97795]}},
{"type": "Feature", "id": "F4bNsDPw9tzjJ_JYNTXMZHiYiQA=", "properties": {"ref": "2169", "@spider": "okmarkets_dac", "addr:full": "17\u03b7\u03c2 \u039d\u03bf\u03b5\u03bc\u03b2\u03c1\u03af\u03bf\u03c5 1973 15", "addr:country": "\u0395\u03bb\u03bb\u03ac\u03b4\u03b1", "name": "17\u03b7\u03c2 \u039d\u03bf\u03b5\u03bc\u03b2\u03c1\u03af\u03bf\u03c5 1973 15 (17\u03b7\u03c2 \u039d\u03bf\u03b5\u03bc\u03b2\u03c1\u03af\u03bf\u03c5)", "phone": "2114113651", "website": "http://www.okmarkets.gr/"}, "geometry": {"type": "Point", "coordinates": [23.804208, 38.002447]}},
{"type": "Feature", "id": "fizpBoyLvksW_XuBoOR3MLrGOt8=", "properties": {"ref": "2106", "@spider": "okmarkets_dac", "addr:full": "\u0394\u03c9\u03b4\u03b5\u03ba\u03b1\u03bd\u03ae\u03c3\u03bf\u03c5 35", "addr:country": "\u0395\u03bb\u03bb\u03ac\u03b4\u03b1", "name": "\u0394\u03c9\u03b4\u03b5\u03ba\u03b1\u03bd\u03ae\u03c3\u03bf\u03c5 35 (\u0394\u03c9\u03b4\u03b5\u03ba\u03b1\u03bd\u03ae\u03c3\u03bf\u03c5)", "phone": "2104175106", "website": "http://www.okmarkets.gr/"}, "geometry": {"type": "Point", "coordinates": [23.655744, 37.952502]}},
{"type": "Feature", "id": "BpFdkm3fzCvpOKfJP2XdB3DgdUQ=", "properties": {"ref": "2154", "@spider": "okmarkets_dac", "addr:full": "\u03a0\u03b9\u03c4\u03c4\u03b1\u03ba\u03bf\u03cd & \u0395\u03bb\u03b5\u03c5\u03b8\u03b5\u03c1\u03af\u03bf\u03c5 \u0392\u03b5\u03bd\u03b9\u03b6\u03ad\u03bb\u03bf\u03c5 113", "addr:country": "\u0395\u03bb\u03bb\u03ac\u03b4\u03b1", "name": "\u03a0\u03b9\u03c4\u03c4\u03b1\u03ba\u03bf\u03cd &#038; \u0395\u03bb\u03b5\u03c5\u03b8\u03b5\u03c1\u03af\u03bf\u03c5 \u0392\u03b5\u03bd\u03b9\u03b6\u03ad\u03bb\u03bf\u03c5 113 (\u039d. \u0399\u03c9\u03bd\u03af\u03b1)", "phone": "2114115409", "website": "http://www.okmarkets.gr/"}, "geometry": {"type": "Point", "coordinates": [23.750916, 38.046542]}},
{"type": "Feature", "id": "8cVG77Pitoj83wyBE0CgMw8fHyk=", "properties": {"ref": "1972", "@spider": "okmarkets_dac", "addr:full": "\u0391\u03bb\u03b5\u03be\u03ac\u03bd\u03b4\u03c1\u03bf\u03c5 2-4", "addr:country": "\u0395\u03bb\u03bb\u03ac\u03b4\u03b1", "name": "\u0391\u03bb\u03b5\u03be\u03ac\u03bd\u03b4\u03c1\u03bf\u03c5 2-4 (\u0391\u03bb\u03b5\u03be\u03ac\u03bd\u03b4\u03c1\u03bf\u03c5)", "phone": "2104177600", "website": "http://www.okmarkets.gr/"}, "geometry": {"type": "Point", "coordinates": [23.659389, 37.944939]}},
{"type": "Feature", "id": "_IAmdaQ7VTjhTHdMZvqFbKxCBrg=", "properties": {"ref": "4559", "@spider": "okmarkets_dac", "addr:full": "\u0391\u03c4\u03c4\u03ac\u03bb\u03b5\u03b9\u03b1\u03c2 240", "addr:country": "\u0395\u03bb\u03bb\u03ac\u03b4\u03b1", "name": "\u0391\u03c4\u03c4\u03ac\u03bb\u03b5\u03b9\u03b1\u03c2 240 (\u039a\u03bf\u03c1\u03c5\u03b4\u03b1\u03bb\u03bb\u03cc\u03c2)", "phone": "2104963937", "website": "http://www.okmarkets.gr/"}, "geometry": {"type": "Point", "coordinates": [23.642665, 37.980824]}},
{"type": "Feature", "id": "56idATSXPWOAmFZhZ2xsv2FuKIU=", "properties": {"ref": "2211", "@spider": "okmarkets_dac", "addr:full": "\u03a0\u03b1\u03c0\u03b1\u03c6\u03bb\u03ad\u03c3\u03c3\u03b1 1 & \u039a\u03b1\u03c1\u03b1\u03ca\u03c3\u03ba\u03ac\u03ba\u03b7", "addr:country": "\u0395\u03bb\u03bb\u03ac\u03b4\u03b1", "name": "\u03a0\u03b1\u03c0\u03b1\u03c6\u03bb\u03ad\u03c3\u03c3\u03b1 1 &#038; \u039a\u03b1\u03c1\u03b1\u03ca\u03c3\u03ba\u03ac\u03ba\u03b7 (\u03a0\u03b1\u03c0\u03b1\u03c6\u03bb\u03ad\u03c3\u03c3\u03b1)", "phone": "2111822080", "website": "http://www.okmarkets.gr/"}, "geometry": {"type": "Point", "coordinates": [23.811191, 38.005162]}},
{"type": "Feature", "id": "d0Ng2esJKkRVtKpb4fc8swSxf1Q=", "properties": {"ref": "2166", "@spider": "okmarkets_dac", "addr:full": "\u0391\u03b3\u03af\u03b1\u03c2 \u03a0\u03b1\u03c1\u03b1\u03c3\u03ba\u03b5\u03c5\u03ae\u03c2 61-63", "addr:country": "\u0395\u03bb\u03bb\u03ac\u03b4\u03b1", "name": "\u0391\u03b3\u03af\u03b1\u03c2 \u03a0\u03b1\u03c1\u03b1\u03c3\u03ba\u03b5\u03c5\u03ae\u03c2 61-63 (\u03a7\u03b1\u03bb\u03ac\u03bd\u03b4\u03c1\u03b9)", "phone": "2106812290", "website": "http://www.okmarkets.gr/"}, "geometry": {"type": "Point", "coordinates": [23.803259, 38.019995]}},
{"type": "Feature", "id": "HbYJyDSVkoy4qsjWom4PkNiArmw=", "properties": {"ref": "2011", "@spider": "okmarkets_dac", "addr:full": "\u039a\u03b1\u03c1\u03b1\u03bf\u03bb\u03ae & \u0394\u03b7\u03bc\u03b7\u03c4\u03c1\u03af\u03bf\u03c5", "addr:country": "\u0395\u03bb\u03bb\u03ac\u03b4\u03b1", "name": "\u039a\u03b1\u03c1\u03b1\u03bf\u03bb\u03ae &#038; \u0394\u03b7\u03bc\u03b7\u03c4\u03c1\u03af\u03bf\u03c5 (\u039a\u03b1\u03c1\u03b1\u03bf\u03bb\u03ae)", "website": "http://www.okmarkets.gr/"}, "geometry": {"type": "Point", "coordinates": [23.651039, 37.943313]}},
{"type": "Feature", "id": "oKZc5_cZHqy4ndr_oQiw7Vaypbc=", "properties": {"ref": "1991", "@spider": "okmarkets_dac", "addr:full": "\u0391\u03c5\u03b3\u03ae\u03c2 & \u0397\u03bb\u03ad\u03ba\u03c4\u03c1\u03b1\u03c2 \u0391\u03c0\u03bf\u03c3\u03c4\u03cc\u03bb\u03bf\u03c5 11", "addr:country": "\u0395\u03bb\u03bb\u03ac\u03b4\u03b1", "name": "\u0391\u03c5\u03b3\u03ae\u03c2 &#038; \u0397\u03bb\u03ad\u03ba\u03c4\u03c1\u03b1\u03c2 \u0391\u03c0\u03bf\u03c3\u03c4\u03cc\u03bb\u03bf\u03c5 11 (\u0391\u03c5\u03b3\u03ae\u03c2)", "phone": "2102839088", "website": "http://www.okmarkets.gr/"}, "geometry": {"type": "Point", "coordinates": [23.775751, 38.045823]}},
{"type": "Feature", "id": "vonkqP9NahL8c8NSFrSQugKuVsE=", "properties": {"ref": "1945", "@spider": "okmarkets_dac", "addr:full": "\u039b\u03b1\u03bf\u03b4\u03b9\u03ba\u03b5\u03af\u03b1\u03c2 168", "addr:country": "\u0395\u03bb\u03bb\u03ac\u03b4\u03b1", "name": "\u039b\u03b1\u03bf\u03b4\u03b9\u03ba\u03b5\u03af\u03b1\u03c2 168 (\u039d\u03af\u03ba\u03b1\u03b9\u03b1)", "phone": "2104252052", "website": "http://www.okmarkets.gr/"}, "geometry": {"type": "Point", "coordinates": [23.63688, 37.96619]}},
{"type": "Feature", "id": "1p6g34lUlsSbq3xSYCLJCsJc964=", "properties": {"ref": "2164", "@spider": "okmarkets_dac", "addr:full": "\u0393\u03c1\u03b7\u03b3\u03bf\u03c1\u03af\u03bf\u03c5 \u0395\u0384& \u0398\u03c1\u03b1\u03c3\u03c5\u03b2\u03bf\u03cd\u03bb\u03bf\u03c5 24", "addr:country": "\u0395\u03bb\u03bb\u03ac\u03b4\u03b1", "name": "\u0393\u03c1\u03b7\u03b3\u03bf\u03c1\u03af\u03bf\u03c5 \u0395\u0384&#038; \u0398\u03c1\u03b1\u03c3\u03c5\u03b2\u03bf\u03cd\u03bb\u03bf\u03c5 24 (\u0398\u03c1\u03b1\u03c3\u03c5\u03b2\u03bf\u03cd\u03bb\u03bf\u03c5)", "phone": "2104134121", "website": "http://www.okmarkets.gr/"}, "geometry": {"type": "Point", "coordinates": [23.652227, 37.938157]}},
{"type": "Feature", "id": "yTnQasnsBCrZEsncRV9DQxwfjAg=", "properties": {"ref": "2162", "@spider": "okmarkets_dac", "addr:full": "\u0395\u03bb\u03b5\u03c5\u03b8\u03b5\u03c1\u03af\u03bf\u03c5 \u0392\u03b5\u03bd\u03b9\u03b6\u03ad\u03bb\u03bf\u03c5 80", "addr:country": "\u0395\u03bb\u03bb\u03ac\u03b4\u03b1", "name": "\u0395\u03bb\u03b5\u03c5\u03b8\u03b5\u03c1\u03af\u03bf\u03c5 \u0392\u03b5\u03bd\u03b9\u03b6\u03ad\u03bb\u03bf\u03c5 80 (\u0396\u03ad\u03b1\u03c2)", "phone": "2104101728", "website": "http://www.okmarkets.gr/"}, "geometry": {"type": "Point", "coordinates": [23.650777, 37.934639]}},
{"type": "Feature", "id": "J821rvWO6Wo7RXFsaR2Wzpvt-QU=", "properties": {"ref": "2120", "@spider": "okmarkets_dac", "addr:full": "\u0391\u03bb\u03b5\u03be\u03b9\u03bf\u03c5\u03c0\u03cc\u03bb\u03b5\u03c9\u03c2 34 & \u03a7\u03c1. \u03a3\u03bc\u03cd\u03c1\u03bd\u03b7\u03c2", "addr:country": "\u0395\u03bb\u03bb\u03ac\u03b4\u03b1", "name": "\u0391\u03bb\u03b5\u03be\u03b9\u03bf\u03c5\u03c0\u03cc\u03bb\u03b5\u03c9\u03c2 34 &#038; \u03a7\u03c1. \u03a3\u03bc\u03cd\u03c1\u03bd\u03b7\u03c2 (\u0391\u03c1\u03b3\u03c5\u03c1\u03bf\u03cd\u03c0\u03bf\u03bb\u03b7)", "phone": "2109931460", "website": "http://www.okmarkets.gr/"}, "geometry": {"type": "Point", "coordinates": [23.754078, 37.908627]}},
{"type": "Feature", "id": "PC-mYbpWm4JxEnaeXlmzwd_c5JQ=", "properties": {"ref": "2185", "@spider": "okmarkets_dac", "addr:full": "\u03a3\u03b1\u03bb\u03b1\u03bc\u03af\u03bd\u03bf\u03c2 81 & \u03a3\u03c0\u03ac\u03c1\u03c4\u03b7\u03c2", "addr:country": "\u0395\u03bb\u03bb\u03ac\u03b4\u03b1", "name": "\u03a3\u03b1\u03bb\u03b1\u03bc\u03af\u03bd\u03bf\u03c2 81 &#038; \u03a3\u03c0\u03ac\u03c1\u03c4\u03b7\u03c2 (\u03a3\u03c0\u03ac\u03c1\u03c4\u03b7\u03c2)", "phone": "2111821244", "website": "http://www.okmarkets.gr/"}, "geometry": {"type": "Point", "coordinates": [23.631264, 37.952367]}},
{"type": "Feature", "id": "dmEBDOLdnULl5gmF4o6b6OWycCA=", "properties": {"ref": "2104", "@spider": "okmarkets_dac", "addr:full": "\u0391\u03ba\u03c4\u03ae \u0398\u03b5\u03bc\u03b9\u03c3\u03c4\u03bf\u03ba\u03bb\u03ad\u03bf\u03c5\u03c2 18", "addr:country": "\u0395\u03bb\u03bb\u03ac\u03b4\u03b1", "name": "\u0391\u03ba\u03c4\u03ae \u0398\u03b5\u03bc\u03b9\u03c3\u03c4\u03bf\u03ba\u03bb\u03ad\u03bf\u03c5\u03c2 18 (\u0391\u03ba\u03c4\u03ae \u0398\u03b5\u03bc\u03b9\u03c3\u03c4\u03bf\u03ba\u03bb\u03ad\u03bf\u03c5\u03c2)", "phone": "2104528001", "website": "http://www.okmarkets.gr/"}, "geometry": {"type": "Point", "coordinates": [23.645556, 37.932993]}},
{"type": "Feature", "id": "vbiLtltlYXM-mg70PFJJnFeLYY0=", "properties": {"ref": "1993", "@spider": "okmarkets_dac", "addr:full": "\u03a3\u03b1\u03c7\u03c4\u03bf\u03cd\u03c1\u03b7 65", "addr:country": "\u0395\u03bb\u03bb\u03ac\u03b4\u03b1", "name": "\u03a3\u03b1\u03c7\u03c4\u03bf\u03cd\u03c1\u03b7 65 (\u03a3\u03b1\u03c7\u03c4\u03bf\u03cd\u03c1\u03b7)", "phone": "2111821728", "website": "http://www.okmarkets.gr/"}, "geometry": {"type": "Point", "coordinates": [23.641849, 37.934152]}},
{"type": "Feature", "id": "0-DNpipHcBwHSWkAleif6mZKbTU=", "properties": {"ref": "1965", "@spider": "okmarkets_dac", "addr:full": "\u03a0\u03b5\u03cd\u03ba\u03c9\u03bd 150 & \u03a0\u03bb\u03b1\u03c0\u03bf\u03cd\u03c4\u03b1", "addr:country": "\u0395\u03bb\u03bb\u03ac\u03b4\u03b1", "name": "\u03a0\u03b5\u03cd\u03ba\u03c9\u03bd 150 &#038; \u03a0\u03bb\u03b1\u03c0\u03bf\u03cd\u03c4\u03b1 (\u03a0\u03b5\u03cd\u03ba\u03c9\u03bd)", "phone": "2102852692", "website": "http://www.okmarkets.gr/"}, "geometry": {"type": "Point", "coordinates": [23.776153, 38.059774]}},
{"type": "Feature", "id": "dADwx8Q7EWKEp2M-h3eeFqNcvy4=", "properties": {"ref": "1941", "@spider": "okmarkets_dac", "addr:full": "\u039c\u03b5\u03c4\u03b1\u03bc\u03bf\u03c1\u03c6\u03ce\u03c3\u03b5\u03c9\u03c2 & \u039f\u03bb\u03cd\u03bc\u03c0\u03bf\u03c5 29", "addr:country": "\u0395\u03bb\u03bb\u03ac\u03b4\u03b1", "name": "\u039c\u03b5\u03c4\u03b1\u03bc\u03bf\u03c1\u03c6\u03ce\u03c3\u03b5\u03c9\u03c2 19 &#038; \u039f\u03bb\u03cd\u03bc\u03c0\u03bf\u03c5 29 (\u039f\u03bb\u03cd\u03bc\u03c0\u03bf\u03c5)", "phone": "2114103610", "website": "http://www.okmarkets.gr/"}, "geometry": {"type": "Point", "coordinates": [23.819836, 38.027971]}},
{"type": "Feature", "id": "d3q-c1Bg_2zq2xYU_KDpSodtmoI=", "properties": {"ref": "1981", "@spider": "okmarkets_dac", "addr:full": "\u0398\u03b5\u03bf\u03c7\u03ac\u03c1\u03b7 36 & \u039a\u03c1\u03b5\u03b2\u03b2\u03b1\u03c4\u03ac", "addr:country": "\u0395\u03bb\u03bb\u03ac\u03b4\u03b1", "name": "\u0398\u03b5\u03bf\u03c7\u03ac\u03c1\u03b7 36 &#038; \u039a\u03c1\u03b5\u03b2\u03b2\u03b1\u03c4\u03ac (\u0398\u03b5\u03bf\u03c7\u03ac\u03c1\u03b7)", "phone": "2104515502", "website": "http://www.okmarkets.gr/"}, "geometry": {"type": "Point", "coordinates": [23.637692, 37.933531]}},
{"type": "Feature", "id": "GDAlWgqa5-UFl-q_2PxINHLT6Ik=", "properties": {"ref": "2005", "@spider": "okmarkets_dac", "addr:full": "\u0391\u03b3\u03af\u03b1\u03c2 \u03a4\u03c1\u03b9\u03ac\u03b4\u03bf\u03c2 4 & \u0391\u03c0\u03cc\u03bb\u03bb\u03c9\u03bd\u03bf\u03c2", "addr:country": "\u0395\u03bb\u03bb\u03ac\u03b4\u03b1", "name": "\u0391\u03b3\u03af\u03b1\u03c2 \u03a4\u03c1\u03b9\u03ac\u03b4\u03bf\u03c2 4 &#038; \u0391\u03c0\u03cc\u03bb\u03bb\u03c9\u03bd\u03bf\u03c2 (\u0391\u03b3\u03af\u03b1 \u03a0\u03b1\u03c1\u03b1\u03c3\u03ba\u03b5\u03c5\u03ae)", "phone": "2106003593", "website": "http://www.okmarkets.gr/"}, "geometry": {"type": "Point", "coordinates": [23.831921, 38.014429]}},
{"type": "Feature", "id": "FMGIzj-kx11sfhWybJWZBZUiins=", "properties": {"ref": "2176", "@spider": "okmarkets_dac", "addr:full": "\u03a0\u03bb\u03ac\u03c4\u03c9\u03bd\u03bf\u03c2 & \u03a0\u03c1\u03bf\u03b9\u03ba\u03bf\u03bd\u03ae\u03c3\u03bf\u03c5 74", "addr:country": "\u0395\u03bb\u03bb\u03ac\u03b4\u03b1", "name": "\u03a0\u03bb\u03ac\u03c4\u03c9\u03bd\u03bf\u03c2 &#038; \u03a0\u03c1\u03bf\u03b9\u03ba\u03bf\u03bd\u03ae\u03c3\u03bf\u03c5 74 (\u03a0\u03c1\u03bf\u03b9\u03ba\u03bf\u03bd\u03ae\u03c3\u03bf\u03c5)", "phone": "2114119548", "website": "http://www.okmarkets.gr/"}, "geometry": {"type": "Point", "coordinates": [23.622155, 37.953629]}},
{"type": "Feature", "id": "4fHjnrZjbwTwdJ5F4TwY1GT3khI=", "properties": {"ref": "2189", "@spider": "okmarkets_dac", "addr:full": "\u0391\u03b3\u03af\u03bf\u03c5 \u039a\u03c9\u03bd\u03c3\u03c4\u03b1\u03bd\u03c4\u03af\u03bd\u03bf\u03c5 59-61", "addr:country": "\u0395\u03bb\u03bb\u03ac\u03b4\u03b1", "name": "\u0391\u03b3\u03af\u03bf\u03c5 \u039a\u03c9\u03bd\u03c3\u03c4\u03b1\u03bd\u03c4\u03af\u03bd\u03bf\u03c5 59-61 (\u0391\u03b3\u03af\u03bf\u03c5 \u039a\u03c9\u03bd\u03c3\u03c4\u03b1\u03bd\u03c4\u03af\u03bd\u03bf\u03c5)", "phone": "2111822192", "website": "http://www.okmarkets.gr/"}, "geometry": {"type": "Point", "coordinates": [23.806316, 38.046903]}},
{"type": "Feature", "id": "yMkO-Q3NYCHQp8KY1uoernG0kn8=", "properties": {"ref": "2009", "@spider": "okmarkets_dac", "addr:full": "\u0391. \u0398\u03b5\u03bf\u03c7\u03ac\u03c1\u03b7 131-133 & \u039c. \u03a7\u03b1\u03c4\u03b6\u03b7\u03ba\u03c5\u03c1\u03b9\u03ac\u03ba\u03bf\u03c5 110", "addr:country": "\u0395\u03bb\u03bb\u03ac\u03b4\u03b1", "name": "\u0391. \u0398\u03b5\u03bf\u03c7\u03ac\u03c1\u03b7 131-133 &#038; \u039c. \u03a7\u03b1\u03c4\u03b6\u03b7\u03ba\u03c5\u03c1\u03b9\u03ac\u03ba\u03bf\u03c5 110 (\u039c. \u03a7\u03b1\u03c4\u03b6\u03b7\u03ba\u03c5\u03c1\u03b9\u03ac\u03ba\u03bf\u03c5)", "phone": "2104181830", "website": "http://www.okmarkets.gr/"}, "geometry": {"type": "Point", "coordinates": [23.631429, 37.932472]}},
{"type": "Feature", "id": "i25vQjZm26nSZ2Jgg7ICwZjH7CE=", "properties": {"ref": "2114", "@spider": "okmarkets_dac", "addr:full": "\u0392\u03b1\u03c3. \u03a3\u03bf\u03c6\u03af\u03b1\u03c2 22 \u039c\u03b1\u03c1\u03bf\u03cd\u03c3\u03b9", "addr:country": "\u0395\u03bb\u03bb\u03ac\u03b4\u03b1", "name": "\u0392\u03b1\u03c3. \u03a3\u03bf\u03c6\u03af\u03b1\u03c2 22 \u039c\u03b1\u03c1\u03bf\u03cd\u03c3\u03b9 (\u039c\u03b1\u03c1\u03bf\u03cd\u03c3\u03b9)", "phone": "2114110087", "website": "http://www.okmarkets.gr/"}, "geometry": {"type": "Point", "coordinates": [23.808741, 38.052877]}},
{"type": "Feature", "id": "1SH0X_QO9y0m4JWPu5y1i_N9Bkc=", "properties": {"ref": "3148", "@spider": "okmarkets_dac", "addr:full": "\u039c\u03b5\u03c3\u03bf\u03b3\u03b5\u03af\u03c9\u03bd 53 & \u03a7\u03bb\u03cc\u03b7\u03c2", "addr:country": "\u0395\u03bb\u03bb\u03ac\u03b4\u03b1", "name": "\u039c\u03b5\u03c3\u03bf\u03b3\u03b5\u03af\u03c9\u03bd 53 &#038; \u03a7\u03bb\u03cc\u03b7\u03c2 (\u039c\u03b1\u03c1\u03bf\u03cd\u03c3\u03b9)", "phone": "2100108786", "website": "http://www.okmarkets.gr/"}, "geometry": {"type": "Point", "coordinates": [23.8161, 38.04935]}},
{"type": "Feature", "id": "og7B5-mTCAPytp9F-B-Xbbm7LNA=", "properties": {"ref": "2152", "@spider": "okmarkets_dac", "addr:full": "\u0393\u03bf\u03cd\u03bd\u03b1\u03c1\u03b7 93", "addr:country": "\u0395\u03bb\u03bb\u03ac\u03b4\u03b1", "name": "\u0393\u03bf\u03cd\u03bd\u03b1\u03c1\u03b7 93 (\u0393\u03bf\u03cd\u03bd\u03b1\u03c1\u03b7)", "phone": "2114110789", "website": "http://www.okmarkets.gr/"}, "geometry": {"type": "Point", "coordinates": [23.762273, 37.885007]}},
{"type": "Feature", "id": "g10qa97Xl4b4Q7n8tuAnPp656RM=", "properties": {"ref": "2198", "@spider": "okmarkets_dac", "addr:full": "\u0398\u03b5\u03c3\u03c3\u03b1\u03bb\u03bf\u03bd\u03af\u03ba\u03b7\u03c2 4", "addr:country": "\u0395\u03bb\u03bb\u03ac\u03b4\u03b1", "name": "\u0398\u03b5\u03c3\u03c3\u03b1\u03bb\u03bf\u03bd\u03af\u03ba\u03b7\u03c2 4 (\u0393\u03ad\u03c1\u03b1\u03ba\u03b1\u03c2)", "website": "http://www.okmarkets.gr/"}, "geometry": {"type": "Point", "coordinates": [23.857273, 38.009445]}},
{"type": "Feature", "id": "cOpr0Fyh4dbUnZHcQxLpTqazCnE=", "properties": {"ref": "2873", "@spider": "okmarkets_dac", "addr:full": "\u0391\u03b3. \u03a4\u03c1\u03cd\u03c6\u03c9\u03bd\u03bf\u03c2 10", "addr:country": "\u0395\u03bb\u03bb\u03ac\u03b4\u03b1", "name": "\u0391\u03b3. \u03a4\u03c1\u03cd\u03c6\u03c9\u03bd\u03bf\u03c2 10 (\u039a\u03b7\u03c6\u03b9\u03c3\u03b9\u03ac)", "website": "http://www.okmarkets.gr/"}, "geometry": {"type": "Point", "coordinates": [23.813107, 38.069056]}},
{"type": "Feature", "id": "ThHplmFixTx0lZPIWPZtxvdi4Mk=", "properties": {"ref": "1961", "@spider": "okmarkets_dac", "addr:full": "17\u03b7\u03c2 \u039d\u03bf\u03b5\u03bc\u03b2\u03c1\u03af\u03bf\u03c5 1973 11", "addr:country": "\u0395\u03bb\u03bb\u03ac\u03b4\u03b1", "name": "17\u03b7\u03c2 \u039d\u03bf\u03b5\u03bc\u03b2\u03c1\u03af\u03bf\u03c5 1973 11 (\u039c\u03b5\u03bb\u03af\u03c3\u03c3\u03b9\u03b1)", "phone": "2102027680", "website": "http://www.okmarkets.gr/"}, "geometry": {"type": "Point", "coordinates": [23.836394, 38.060883]}},
{"type": "Feature", "id": "T3h6dXElIn4yfqka8Vo-miKD7MU=", "properties": {"ref": "2972", "@spider": "okmarkets_dac", "addr:full": "\u039d\u03b1\u03c0\u03bf\u03bb\u03ad\u03bf\u03bd\u03c4\u03bf\u03c2 \u0396\u03ad\u03c1\u03b2\u03b1 18", "addr:country": "\u0395\u03bb\u03bb\u03ac\u03b4\u03b1", "name": "\u039d\u03b1\u03c0\u03bf\u03bb\u03ad\u03bf\u03bd\u03c4\u03bf\u03c2 \u0396\u03ad\u03c1\u03b2\u03b1 18 (\u0393\u03bb\u03c5\u03c6\u03ac\u03b4\u03b1)", "website": "http://www.okmarkets.gr/"}, "geometry": {"type": "Point", "coordinates": [23.7477, 37.86616]}},
{"type": "Feature", "id": "nleEtf2LH9vbEk9i1ARrB9Fglvo=", "properties": {"ref": "2227", "@spider": "okmarkets_dac", "addr:full": "\u0391\u03c1\u03c4\u03ad\u03bc\u03b9\u03b4\u03bf\u03c2 51", "addr:country": "\u0395\u03bb\u03bb\u03ac\u03b4\u03b1", "name": "\u0391\u03c1\u03c4\u03ad\u03bc\u03b9\u03b4\u03bf\u03c2 51 (\u0393\u03bb\u03c5\u03c6\u03ac\u03b4\u03b1)", "phone": "2108982902", "website": "http://www.okmarkets.gr/"}, "geometry": {"type": "Point", "coordinates": [23.76153, 37.860924]}},
{"type": "Feature", "id": "_U56wghG0sjBnFqGXhErGsiomAQ=", "properties": {"ref": "2694", "@spider": "okmarkets_dac", "addr:full": "\u039b. \u03a4\u03b1\u03c4\u03bf\u03ca\u03bf\u03c5 102", "addr:country": "\u0395\u03bb\u03bb\u03ac\u03b4\u03b1", "name": "\u039b. \u03a4\u03b1\u03c4\u03bf\u03ca\u03bf\u03c5 102 (\u039d\u03ad\u03b1 \u0395\u03c1\u03c5\u03b8\u03c1\u03b1\u03af\u03b1)", "phone": "2108000034", "website": "http://www.okmarkets.gr/"}, "geometry": {"type": "Point", "coordinates": [23.809321, 38.092955]}},
{"type": "Feature", "id": "qpy_wUXaHZKLDA0E8XEjwoCLshU=", "properties": {"ref": "2215", "@spider": "okmarkets_dac", "addr:full": "\u03a0\u03bb\u03b1\u03c4\u03b5\u03af\u03b1 \u0391\u03bd\u03bf\u03af\u03be\u03b5\u03c9\u03c2 1 & \u0391\u03b8\u03b7\u03bd\u03ce\u03bd \u03a7\u03b1\u03bb\u03ba\u03af\u03b4\u03bf\u03c2 23", "addr:country": "\u0395\u03bb\u03bb\u03ac\u03b4\u03b1", "name": "\u03a0\u03bb\u03b1\u03c4\u03b5\u03af\u03b1 \u0391\u03bd\u03bf\u03af\u03be\u03b5\u03c9\u03c2 1 &#038; \u0391\u03b8\u03b7\u03bd\u03ce\u03bd \u03a7\u03b1\u03bb\u03ba\u03af\u03b4\u03bf\u03c2 23 (\u0386\u03bd\u03bf\u03b9\u03be\u03b7)", "phone": "2108140477", "website": "http://www.okmarkets.gr/"}, "geometry": {"type": "Point", "coordinates": [23.861107, 38.131858]}},
{"type": "Feature", "id": "3bHZGQPfo8ZKvIDikWJgghdGUgM=", "properties": {"ref": "2128", "@spider": "okmarkets_dac", "addr:full": "\u039b\u03b5\u03c9\u03c6\u03cc\u03c1\u03bf\u03c2 \u0392\u03c1\u03b1\u03c5\u03c1\u03ce\u03bd\u03b1\u03c2 & \u03a7\u03c1\u03c5\u03c3\u03b7\u03af\u03b4\u03bf\u03c2", "addr:country": "\u0395\u03bb\u03bb\u03ac\u03b4\u03b1", "name": "\u039b\u03b5\u03c9\u03c6\u03cc\u03c1\u03bf\u03c2 \u0392\u03c1\u03b1\u03c5\u03c1\u03ce\u03bd\u03b1\u03c2 &#038; \u03a7\u03c1\u03c5\u03c3\u03b7\u03af\u03b4\u03bf\u03c2 (\u0392\u03c1\u03b1\u03c5\u03c1\u03ce\u03bd\u03b1)", "phone": "2294047516", "website": "http://www.okmarkets.gr/"}, "geometry": {"type": "Point", "coordinates": [24.005989, 37.932283]}},
{"type": "Feature", "id": "7fyNYoDH0X3yCJndrKat0bZw5Ow=", "properties": {"ref": "2225", "@spider": "okmarkets_dac", "addr:full": "\u0399\u03bf\u03c5\u03bb\u03af\u03b4\u03b1, \u0391\u03b3\u03af\u03bf\u03c2 \u0391\u03c1\u03c4\u03ad\u03bc\u03b9\u03bf\u03c2", "addr:country": "\u0395\u03bb\u03bb\u03ac\u03b4\u03b1", "name": "\u0399\u03bf\u03c5\u03bb\u03af\u03b4\u03b1,  \u0391\u03b3\u03af\u03bf\u03c2 \u0391\u03c1\u03c4\u03ad\u03bc\u03b9\u03bf\u03c2 (\u03a4\u03b6\u03b9\u03ac)", "phone": "2288022182", "website": "http://www.okmarkets.gr/"}, "geometry": {"type": "Point", "coordinates": [24.342379, 37.639713]}},
{"type": "Feature", "id": "wXrE-ZP8ATpxEKZAO5Px8HHPEUc=", "properties": {"ref": "4860", "@spider": "okmarkets_dac", "addr:full": "\u03a0\u03bb\u03b1\u03c4\u03b5\u03af\u03b1 \u039b\u03ac\u03ba\u03ba\u03b1\u03c2", "addr:country": "\u0395\u03bb\u03bb\u03ac\u03b4\u03b1", "name": "Grocery: OK The Grocery Store (\u0391\u03c1\u03ac\u03c7\u03c9\u03b2\u03b1)", "phone": "2267 029220", "website": "http://www.okmarkets.gr/"}, "geometry": {"type": "Point", "coordinates": [22.582837, 38.47928]}},
{"type": "Feature", "id": "RhFs7D5PPLFMqn01P_NMNhgsNOI=", "properties": {"ref": "5046", "@spider": "okmarkets_dac", "addr:full": "\u0393\u03bb\u03ac\u03c3\u03c4\u03c1\u03bf\u03c2 \u039c\u03c5\u03ba\u03cc\u03bd\u03bf\u03c5", "addr:country": "\u0395\u03bb\u03bb\u03ac\u03b4\u03b1", "name": "Grocery: \u0393\u03bb\u03ac\u03c3\u03c4\u03c1\u03bf\u03c2 \u039c\u03c5\u03ba\u03cc\u03bd\u03bf\u03c5 (\u039c\u03cd\u03ba\u03bf\u03bd\u03bf\u03c2)", "phone": "2289 024361", "website": "http://www.okmarkets.gr/"}, "geometry": {"type": "Point", "coordinates": [25.332507, 37.430221]}},
{"type": "Feature", "id": "mGKJvZ15nh9-N688ByM8l2UUo1g=", "properties": {"ref": "5071", "@spider": "okmarkets_dac", "addr:full": "\u039a\u03bf\u03c1\u03af\u03bd\u03b8\u03bf\u03c5 78", "addr:country": "\u0395\u03bb\u03bb\u03ac\u03b4\u03b1", "name": "Grocery: \u039a\u03bf\u03c1\u03af\u03bd\u03b8\u03bf\u03c5 78 (\u03a0\u03ac\u03c4\u03c1\u03b1)", "phone": "2610 432052", "website": "http://www.okmarkets.gr/"}, "geometry": {"type": "Point", "coordinates": [21.743516, 38.252729]}},
{"type": "Feature", "id": "fhYAUkam0avcvlB7oQ8iRFyGBTc=", "properties": {"ref": "5065", "@spider": "okmarkets_dac", "addr:full": "\u0391\u03bb\u03ad\u03be\u03b1\u03bd\u03b4\u03c1\u03bf\u03c5 \u03a0\u03b1\u03c0\u03b1\u03bd\u03b1\u03c3\u03c4\u03b1\u03c3\u03af\u03bf\u03c5 187", "addr:country": "\u0395\u03bb\u03bb\u03ac\u03b4\u03b1", "name": "\u0391\u03bb\u03ad\u03be\u03b1\u03bd\u03b4\u03c1\u03bf\u03c5 \u03a0\u03b1\u03c0\u03b1\u03bd\u03b1\u03c3\u03c4\u03b1\u03c3\u03af\u03bf\u03c5 187 (\u03a7\u03b1\u03c1\u03b9\u03bb\u03ac\u03bf\u03c5, \u0398\u03b5\u03c3\u03c3\u03b1\u03bb\u03bf\u03bd\u03af\u03ba\u03b7)", "phone": "2316021945-6", "website": "http://www.okmarkets.gr/"}, "geometry": {"type": "Point", "coordinates": [22.971205, 40.598311]}},
{"type": "Feature", "id": "HenTbwL6fo53vaQPRcUDFBjWcsg=", "properties": {"ref": "5719", "@spider": "okmarkets_dac", "addr:full": "\u039c\u03b1\u03ba\u03c1\u03c5\u03b3\u03b9\u03ac\u03bd\u03bd\u03b7 & \u03a6\u03b9\u03bb\u03ce\u03c4\u03b1 16", "addr:country": "\u0395\u03bb\u03bb\u03ac\u03b4\u03b1", "name": "\u039c\u03b1\u03ba\u03c1\u03c5\u03b3\u03b9\u03ac\u03bd\u03bd\u03b7 &#038; \u03a6\u03b9\u03bb\u03ce\u03c4\u03b1 16 (\u03a3\u03c4\u03b1\u03c5\u03c1\u03bf\u03cd\u03c0\u03bf\u03bb\u03b7, \u0398\u03b5\u03c3\u03c3\u03b1\u03bb\u03bf\u03bd\u03af\u03ba\u03b7)", "website": "http://www.okmarkets.gr/"}, "geometry": {"type": "Point", "coordinates": [22.928138, 40.674293]}},
{"type": "Feature", "id": "7NZlLky79juveakkvNQ4k-rbhfQ=", "properties": {"ref": "5713", "@spider": "okmarkets_dac", "addr:full": "\u039d\u03c5\u03bc\u03c6\u03b1\u03af\u03bf\u03c5 34 & 28\u03b7\u03c2 \u039f\u03ba\u03c4\u03c9\u03b2\u03c1\u03af\u03bf\u03c5", "addr:country": "\u0395\u03bb\u03bb\u03ac\u03b4\u03b1", "name": "Grocery: \u039d\u03c5\u03bc\u03c6\u03b1\u03af\u03bf\u03c5 34 &#038; 28\u03b7\u03c2 \u039f\u03ba\u03c4\u03c9\u03b2\u03c1\u03af\u03bf\u03c5 (\u0395\u03cd\u03bf\u03c3\u03bc\u03bf\u03c2, \u0398\u03b5\u03c3\u03c3\u03b1\u03bb\u03bf\u03bd\u03af\u03ba\u03b7)", "phone": "2316 021916", "website": "http://www.okmarkets.gr/"}, "geometry": {"type": "Point", "coordinates": [22.908151, 40.672128]}}]}