{"type":"FeatureCollection","features":[{"type": "Feature", "id": "fE2ecSIe9GoKhw7ZrIMyONpedio=", "properties": {"ref": "1", "@spider": "promenada_dac", "addr:full": "Bulevar oslobo\u0111enja 119, 21000 Novi Sad", "addr:housenumber": "119", "addr:street": "Bulevar oslobo\u0111enja", "addr:country": "Serbia", "name": "Promenada", "website": "https://promenadanovisad.rs/"}, "geometry": {"type": "Point", "coordinates": [19.843441, 45.245454]}}]}{"type":"FeatureCollection","features":[{"type": "Feature", "id": "fE2ecSIe9GoKhw7ZrIMyONpedio=", "properties": {"ref": "1", "@spider": "promenada_dac", "addr:full": "Bulevar oslobo\u0111enja 119, 21000 Novi Sad", "addr:housenumber": "119", "addr:street": "Bulevar oslobo\u0111enja", "addr:country": "Serbia", "name": "Promenada", "website": "https://promenadanovisad.rs/", "opening_hours": " : 10"}, "geometry": {"type": "Point", "coordinates": [19.843441, 45.245454]}}]}{"type":"FeatureCollection","features":[{"type": "Feature", "id": "fE2ecSIe9GoKhw7ZrIMyONpedio=", "properties": {"ref": "1", "@spider": "promenada_dac", "addr:full": "Bulevar oslobo\u0111enja 119, 21000 Novi Sad", "addr:housenumber": "119", "addr:street": "Bulevar oslobo\u0111enja", "addr:country": "Serbia", "name": "Promenada", "website": "https://promenadanovisad.rs/", "opening_hours": [" : 10", "22"]}, "geometry": {"type": "Point", "coordinates": [19.843441, 45.245454]}}]}{"type":"FeatureCollection","features":[{"type": "Feature", "id": "fE2ecSIe9GoKhw7ZrIMyONpedio=", "properties": {"ref": "1", "@spider": "promenada_dac", "addr:full": "Bulevar oslobo\u0111enja 119, 21000 Novi Sad", "addr:housenumber": "119", "addr:street": "Bulevar oslobo\u0111enja", "addr:country": "Serbia", "name": "Promenada", "website": "https://promenadanovisad.rs/", "opening_hours": [" : 10", "22"]}, "geometry": {"type": "Point", "coordinates": [19.843441, 45.245454]}}]}{"type":"FeatureCollection","features":[{"type": "Feature", "id": "fE2ecSIe9GoKhw7ZrIMyONpedio=", "properties": {"ref": "1", "@spider": "promenada_dac", "addr:full": "Bulevar oslobo\u0111enja 119, 21000 Novi Sad", "addr:housenumber": "119", "addr:street": "Bulevar oslobo\u0111enja", "addr:country": "Serbia", "name": "Promenada", "website": "https://promenadanovisad.rs/", "opening_hours": "Working Hours: 10-22h"}, "geometry": {"type": "Point", "coordinates": [19.843441, 45.245454]}}]}{"type":"FeatureCollection","features":[{"type": "Feature", "id": "fE2ecSIe9GoKhw7ZrIMyONpedio=", "properties": {"ref": "1", "@spider": "promenada_dac", "addr:full": "Bulevar oslobo\u0111enja 119, 21000 Novi Sad", "addr:housenumber": "119", "addr:street": "Bulevar oslobo\u0111enja", "addr:country": "Serbia", "name": "Promenada", "website": "https://promenadanovisad.rs/", "opening_hours": " : 10"}, "geometry": {"type": "Point", "coordinates": [19.843441, 45.245454]}}]}