{"type":"FeatureCollection","features":[{"type": "Feature", "id": "fk7rdvOObhQ-aXZNv3_ugmY1oTI=", "properties": {"ref": "13", "@spider": "univerexport_dac", "addr:full": "Baj\u010di \u017dilinskog 4", "addr:country": "Serbia", "phone": "021/420-144", "website": "https://univerexport.rs/", "brand": "Univerexport"}, "geometry": {"type": "Point", "coordinates": [19.858551, 45.266599]}},
{"type": "Feature", "id": "UIJPRPwht0BAWnqKdCmmiFwvtdw=", "properties": {"ref": "35", "@spider": "univerexport_dac", "addr:full": "Dr Ketrin Makfel 29", "addr:country": "Serbia", "phone": "021/461-096", "website": "https://univerexport.rs/", "brand": "Univerexport"}, "geometry": {"type": "Point", "coordinates": [19.846682, 45.210576]}},
{"type": "Feature", "id": "mbv1q1L5n4M9jn5iIvcxYJ9hfXc=", "properties": {"ref": "21", "@spider": "univerexport_dac", "addr:full": "Resavska 2", "addr:country": "Serbia", "website": "https://univerexport.rs/", "brand": "Univerexport"}, "geometry": {"type": "Point", "coordinates": [19.846656, 45.240395]}},
{"type": "Feature", "id": "CHe0_T-vf2ZBvOe7cMWbxkHialA=", "properties": {"ref": "17", "@spider": "univerexport_dac", "addr:full": "Rumena\u010dki put 29", "addr:country": "Serbia", "website": "https://univerexport.rs/", "brand": "Univerexport"}, "geometry": {"type": "Point", "coordinates": [19.807159, 45.271594]}},
{"type": "Feature", "id": "HJxA4LotR3E2QltsNy5rqx9uUaU=", "properties": {"ref": "4", "@spider": "univerexport_dac", "addr:full": "Novosadska 533", "addr:country": "Serbia", "website": "https://univerexport.rs/", "brand": "Univerexport"}, "geometry": {"type": "Point", "coordinates": [19.893025, 45.4198]}},
{"type": "Feature", "id": "E40dIuHru6usebJp8urbo0Sc144=", "properties": {"ref": "36", "@spider": "univerexport_dac", "addr:full": "Kralja Petra I, br.1", "addr:country": "Serbia", "website": "https://univerexport.rs/", "brand": "Univerexport"}, "geometry": {"type": "Point", "coordinates": [19.939655, 45.300197]}},
{"type": "Feature", "id": "UqWbb-PveFLGwVDPw9yzsUTNwFg=", "properties": {"ref": "23", "@spider": "univerexport_dac", "addr:full": "Gagarinova 6", "addr:country": "Serbia", "phone": "021/442-424", "website": "https://univerexport.rs/", "brand": "Univerexport"}, "geometry": {"type": "Point", "coordinates": [19.828454, 45.262004]}},
{"type": "Feature", "id": "P9iTvBQ29n7_8bvmdti_8CD9B9A=", "properties": {"ref": "37", "@spider": "univerexport_dac", "addr:full": "Mo\u0161e Pijade 102, Ka\u0107", "addr:country": "Serbia", "website": "https://univerexport.rs/", "brand": "Univerexport"}, "geometry": {"type": "Point", "coordinates": [19.930851, 45.31114]}},
{"type": "Feature", "id": "ZZcuPORwZQI-mPY4t6Rcig5xcBA=", "properties": {"ref": "15", "@spider": "univerexport_dac", "addr:full": "\u0160ekspirova 1", "addr:country": "Serbia", "website": "https://univerexport.rs/", "brand": "Univerexport"}, "geometry": {"type": "Point", "coordinates": [19.837148, 45.242237]}},
{"type": "Feature", "id": "jkWmn7FImk1k7pLQupNfNSUYc2o=", "properties": {"ref": "18", "@spider": "univerexport_dac", "addr:full": "Bulevar Oslobo\u0111enja 94", "addr:country": "Serbia", "phone": "021/528-514", "website": "https://univerexport.rs/", "brand": "Univerexport"}, "geometry": {"type": "Point", "coordinates": [19.839742, 45.246465]}},
{"type": "Feature", "id": "9bRnNxafhVJ1n7PRgj51pI0L7ww=", "properties": {"ref": "38", "@spider": "univerexport_dac", "addr:full": "Jug Bogdana 25", "addr:country": "Serbia", "phone": "022/510-161", "website": "https://univerexport.rs/", "brand": "Univerexport"}, "geometry": {"type": "Point", "coordinates": [20.085591, 45.046868]}},
{"type": "Feature", "id": "9gYtzMbepaDv7zyLwuVUAFwYkA8=", "properties": {"ref": "2", "@spider": "univerexport_dac", "addr:full": "Kralja Petra I, br. 15", "addr:country": "Serbia", "website": "https://univerexport.rs/", "brand": "Univerexport"}, "geometry": {"type": "Point", "coordinates": [20.155269, 44.986738]}},
{"type": "Feature", "id": "R6lHoBfxCYZqjjbWV6EslMyfGGo=", "properties": {"ref": "16", "@spider": "univerexport_dac", "addr:full": "Bra\u0107e Jovandi\u0107 11", "addr:country": "Serbia", "website": "https://univerexport.rs/", "brand": "Univerexport"}, "geometry": {"type": "Point", "coordinates": [19.834327, 45.259671]}},
{"type": "Feature", "id": "LXWH00VhqpAyZIHr_8lxgi2tXYQ=", "properties": {"ref": "3", "@spider": "univerexport_dac", "addr:full": "Radni\u010dka 30a", "addr:country": "Serbia", "phone": "021/475-007", "website": "https://univerexport.rs/", "brand": "Univerexport"}, "geometry": {"type": "Point", "coordinates": [19.853602, 45.250791]}},
{"type": "Feature", "id": "tJ2nHH5JuvBpqlFu-E4u03LA5GQ=", "properties": {"ref": "14", "@spider": "univerexport_dac", "addr:full": "Laze Nan\u010di\u0107a 1", "addr:country": "Serbia", "website": "https://univerexport.rs/", "brand": "Univerexport"}, "geometry": {"type": "Point", "coordinates": [19.825017, 45.247198]}},
{"type": "Feature", "id": "f2kJecm8y3ZIK6rs5rexlXnO4uw=", "properties": {"ref": "12", "@spider": "univerexport_dac", "addr:full": "Futo\u0161ki put 93c", "addr:country": "Serbia", "phone": "021/401-313", "website": "https://univerexport.rs/", "brand": "Univerexport"}, "geometry": {"type": "Point", "coordinates": [19.797532, 45.244846]}},
{"type": "Feature", "id": "ISw8tOTWKfSMnakHcrgHATpBFOg=", "properties": {"ref": "31", "@spider": "univerexport_dac", "addr:full": "Bulevar Oslobo\u0111enja 2", "addr:country": "Serbia", "phone": "013/805-727", "website": "https://univerexport.rs/", "brand": "Univerexport"}, "geometry": {"type": "Point", "coordinates": [21.283403, 45.107144]}},
{"type": "Feature", "id": "GoQSdHfs-MFmn8G9n--Xol69xkI=", "properties": {"ref": "33", "@spider": "univerexport_dac", "addr:full": "Novosadska 375", "addr:country": "Serbia", "phone": "021/844-526", "website": "https://univerexport.rs/", "brand": "Univerexport"}, "geometry": {"type": "Point", "coordinates": [19.886672, 45.40732]}},
{"type": "Feature", "id": "WOVTpulciQUEq8xTtsejv4yVDQI=", "properties": {"ref": "30", "@spider": "univerexport_dac", "addr:full": "Barska bb", "addr:country": "Serbia", "phone": "023/525-804", "website": "https://univerexport.rs/", "brand": "Univerexport"}, "geometry": {"type": "Point", "coordinates": [20.390399, 45.363614]}},
{"type": "Feature", "id": "XJUQtczp_e2sqM5tZ2s36oHsFhw=", "properties": {"ref": "41", "@spider": "univerexport_dac", "addr:full": "Novosadska 95", "addr:country": "Serbia", "phone": "021/848-786", "website": "https://univerexport.rs/", "brand": "Univerexport"}, "geometry": {"type": "Point", "coordinates": [19.873432, 45.373148]}},
{"type": "Feature", "id": "9oEVY3HocJs5N8a1r0uvwgZHjAk=", "properties": {"ref": "42", "@spider": "univerexport_dac", "addr:full": "Novosadski put 7a", "addr:country": "Serbia", "website": "https://univerexport.rs/", "brand": "Univerexport"}, "geometry": {"type": "Point", "coordinates": [19.420505, 45.249307]}},
{"type": "Feature", "id": "GHgo4OALq5lvJQyQFV3tMFboUs4=", "properties": {"ref": "43", "@spider": "univerexport_dac", "addr:full": "Cara Lazara 22", "addr:country": "Serbia", "phone": "021/735-301", "website": "https://univerexport.rs/", "brand": "Univerexport"}, "geometry": {"type": "Point", "coordinates": [19.792851, 45.547108]}},
{"type": "Feature", "id": "KwGHjOLle0EQ9rO2m1JghdN_1bA=", "properties": {"ref": "44", "@spider": "univerexport_dac", "addr:full": "Mar\u0161ala Tita 13", "addr:country": "Serbia", "phone": "021/780-071", "website": "https://univerexport.rs/", "brand": "Univerexport"}, "geometry": {"type": "Point", "coordinates": [19.59118, 45.360617]}},
{"type": "Feature", "id": "dfsk0xSdGS8M2fGBOyhKi0cw970=", "properties": {"ref": "5", "@spider": "univerexport_dac", "addr:full": "Sentandrejski put bb", "addr:country": "Serbia", "website": "https://univerexport.rs/", "brand": "Univerexport"}, "geometry": {"type": "Point", "coordinates": [19.831535, 45.272553]}},
{"type": "Feature", "id": "bAs92HoYV8bgyIpn1OQRiTTrd2o=", "properties": {"ref": "45", "@spider": "univerexport_dac", "addr:full": "Omladinski trg 17", "addr:country": "Serbia", "website": "https://univerexport.rs/", "brand": "Univerexport"}, "geometry": {"type": "Point", "coordinates": [21.311261, 45.118386]}},
{"type": "Feature", "id": "HTeBvM2HNL3ClcuTHsVma74ZnC4=", "properties": {"ref": "24", "@spider": "univerexport_dac", "addr:full": "Nehruova 68b, Novi Beograd", "addr:country": "Serbia", "website": "https://univerexport.rs/", "brand": "Univerexport"}, "geometry": {"type": "Point", "coordinates": [20.376764, 44.804123]}},
{"type": "Feature", "id": "AT9dEOCofPd02rkoegEB_-wbFOk=", "properties": {"ref": "20", "@spider": "univerexport_dac", "addr:full": "Mi\u010durinova 58-60", "addr:country": "Serbia", "website": "https://univerexport.rs/", "brand": "Univerexport"}, "geometry": {"type": "Point", "coordinates": [19.824761, 45.257296]}},
{"type": "Feature", "id": "cQXP-ETwLL2m6UFStRg_g_9BKO8=", "properties": {"ref": "46", "@spider": "univerexport_dac", "addr:full": "Preradovi\u0107eva 108a", "addr:country": "Serbia", "phone": "021/439-065", "website": "https://univerexport.rs/", "brand": "Univerexport"}, "geometry": {"type": "Point", "coordinates": [19.883296, 45.241403]}},
{"type": "Feature", "id": "QbugSFnq2yIMV619Q_uvjsQaxLQ=", "properties": {"ref": "47", "@spider": "univerexport_dac", "addr:full": "Petefi \u0160andora 2", "addr:country": "Serbia", "website": "https://univerexport.rs/", "brand": "Univerexport"}, "geometry": {"type": "Point", "coordinates": [20.042544, 45.616931]}},
{"type": "Feature", "id": "nO3DmwuQV8mzLfE-R-to_eWaXn4=", "properties": {"ref": "10", "@spider": "univerexport_dac", "addr:full": "Milenka Gr\u010di\u0107a 6a", "addr:country": "Serbia", "website": "https://univerexport.rs/", "brand": "Univerexport"}, "geometry": {"type": "Point", "coordinates": [19.811712, 45.263754]}},
{"type": "Feature", "id": "unymm2AJ1aYTCa-vramX8uOLxVU=", "properties": {"ref": "8", "@spider": "univerexport_dac", "addr:full": "Dr Svetislava Kasapinovi\u0107a 10-14", "addr:country": "Serbia", "website": "https://univerexport.rs/", "brand": "Univerexport"}, "geometry": {"type": "Point", "coordinates": [19.815477, 45.258281]}},
{"type": "Feature", "id": "lKKXOXzAYagRbCS_6E0p7GccDbs=", "properties": {"ref": "11", "@spider": "univerexport_dac", "addr:full": "Bulevar Ja\u0161e Tomi\u0107a 17", "addr:country": "Serbia", "website": "https://univerexport.rs/", "brand": "Univerexport"}, "geometry": {"type": "Point", "coordinates": [19.823995, 45.263798]}},
{"type": "Feature", "id": "7U1OfOX7xb0lWUEXrzXa44NOoWg=", "properties": {"ref": "6", "@spider": "univerexport_dac", "addr:full": "Balzakova 55a", "addr:country": "Serbia", "website": "https://univerexport.rs/", "brand": "Univerexport"}, "geometry": {"type": "Point", "coordinates": [19.835547, 45.237551]}},
{"type": "Feature", "id": "cNtk-lOS5dPIyTdRDCI5-ZOoZd0=", "properties": {"ref": "48", "@spider": "univerexport_dac", "addr:full": "Kralja Petra I, br. 27-29", "addr:country": "Serbia", "phone": "021/750-352", "website": "https://univerexport.rs/", "brand": "Univerexport"}, "geometry": {"type": "Point", "coordinates": [19.387798, 45.250135]}},
{"type": "Feature", "id": "bIRezFnQXtbX4ftqZ-MXCLhXYZ4=", "properties": {"ref": "9", "@spider": "univerexport_dac", "addr:full": "Sutjeska 2 ", "addr:country": "Serbia", "website": "https://univerexport.rs/", "brand": "Univerexport"}, "geometry": {"type": "Point", "coordinates": [19.844885, 45.245864]}},
{"type": "Feature", "id": "DYPyzUNGVhTQyISUET7h-46ew_U=", "properties": {"ref": "26", "@spider": "univerexport_dac", "addr:full": "Crnotravska 7-9", "addr:country": "Serbia", "website": "https://univerexport.rs/", "brand": "Univerexport"}, "geometry": {"type": "Point", "coordinates": [20.474543, 44.759873]}},
{"type": "Feature", "id": "ujhId41thtPAPEIfdNEXWfy0LEM=", "properties": {"ref": "25", "@spider": "univerexport_dac", "addr:full": "\u017dor\u017ea Klemansoa 19, Dor\u0107ol", "addr:country": "Serbia", "website": "https://univerexport.rs/", "brand": "Univerexport"}, "geometry": {"type": "Point", "coordinates": [20.468403, 44.822088]}},
{"type": "Feature", "id": "fF1Oq-CFnFnntVcn5JjFdf_eMM0=", "properties": {"ref": "49", "@spider": "univerexport_dac", "addr:full": "Rade Kondi\u0107a 44", "addr:country": "Serbia", "phone": "021/897-417", "website": "https://univerexport.rs/", "brand": "Univerexport"}, "geometry": {"type": "Point", "coordinates": [19.714269, 45.241747]}},
{"type": "Feature", "id": "cyctLLqAzA2Jx4cBgeL4vFWaxPM=", "properties": {"ref": "50", "@spider": "univerexport_dac", "addr:full": "Iri\u0161ka 1", "addr:country": "Serbia", "phone": "022/431-970", "website": "https://univerexport.rs/", "brand": "Univerexport"}, "geometry": {"type": "Point", "coordinates": [19.83032, 45.018268]}},
{"type": "Feature", "id": "NUKLmBxJ5tszQTxykHzQpN7Xy1k=", "properties": {"ref": "1", "@spider": "univerexport_dac", "addr:full": "Vuka Karad\u017ei\u0107a 4", "addr:country": "Serbia", "website": "https://univerexport.rs/", "brand": "Univerexport"}, "geometry": {"type": "Point", "coordinates": [20.132419, 45.597963]}},
{"type": "Feature", "id": "vWR8YD7ZgXezoiVCWt7iu9EhEwk=", "properties": {"ref": "27", "@spider": "univerexport_dac", "addr:full": "\u017divka Davidovi\u0107a 86, Zvezdara", "addr:country": "Serbia", "website": "https://univerexport.rs/", "brand": "Univerexport"}, "geometry": {"type": "Point", "coordinates": [20.514338, 44.786244]}},
{"type": "Feature", "id": "LW-9UrKWreK_qveZW231JLCxG4c=", "properties": {"ref": "99", "@spider": "univerexport_dac", "addr:full": "21. oktobra 11-13, Sombor", "addr:country": "Serbia", "phone": "025/420-343", "website": "https://univerexport.rs/", "brand": "Univerexport"}, "geometry": {"type": "Point", "coordinates": [19.120257, 45.77138]}},
{"type": "Feature", "id": "1tdzRZTAj5toSGBIaQigkPpwR-0=", "properties": {"ref": "84", "@spider": "univerexport_dac", "addr:full": "\u0110ure Jak\u0161i\u0107a 1", "addr:country": "Serbia", "phone": "022/636-300", "website": "https://univerexport.rs/", "brand": "Univerexport"}, "geometry": {"type": "Point", "coordinates": [19.603636, 44.968472]}},
{"type": "Feature", "id": "_YDLSVkRdYeWFx1vbF9I8SKrOfs=", "properties": {"ref": "88", "@spider": "univerexport_dac", "addr:full": "Glavna 10", "addr:country": "Serbia", "phone": "021/290-669", "website": "https://univerexport.rs/", "brand": "Univerexport"}, "geometry": {"type": "Point", "coordinates": [20.024685, 45.534091]}},
{"type": "Feature", "id": "1_PK9EqBsBoWyz4xDUNa--97FBg=", "properties": {"ref": "86", "@spider": "univerexport_dac", "addr:full": "Ugao Partizanske i Petefi \u0160andora, Rumenka", "addr:country": "Serbia", "phone": "021/621-618", "website": "https://univerexport.rs/", "brand": "Univerexport"}, "geometry": {"type": "Point", "coordinates": [19.739209, 45.29593]}},
{"type": "Feature", "id": "IPOpLo_Zhz8VVqbCYiZVxQR5Kmk=", "properties": {"ref": "110", "@spider": "univerexport_dac", "addr:full": "\u0160ajka\u0161ka 20 ", "addr:country": "Serbia", "website": "https://univerexport.rs/", "brand": "Univerexport"}, "geometry": {"type": "Point", "coordinates": [20.475581, 44.817951]}},
{"type": "Feature", "id": "oIaEe6PiBqc-YEQhWxRlumRMhmI=", "properties": {"ref": "87", "@spider": "univerexport_dac", "addr:full": "Bulevar Oslobo\u0111enja 28a", "addr:country": "Serbia", "phone": "021/478-018", "website": "https://univerexport.rs/", "brand": "Univerexport"}, "geometry": {"type": "Point", "coordinates": [19.818992, 45.245382]}},
{"type": "Feature", "id": "AkVYzklxcRivkJJ0EeGarm5kYKE=", "properties": {"ref": "90", "@spider": "univerexport_dac", "addr:full": "Patrijarha Raja\u010di\u0107a 34 ", "addr:country": "Serbia", "phone": "021/529-510", "website": "https://univerexport.rs/", "brand": "Univerexport"}, "geometry": {"type": "Point", "coordinates": [19.87478, 45.252264]}},
{"type": "Feature", "id": "Cg53cMQb5eYv-9PBr7lclxcP_AU=", "properties": {"ref": "109", "@spider": "univerexport_dac", "addr:full": "Rudni\u010dka 1 ", "addr:country": "Serbia", "website": "https://univerexport.rs/", "brand": "Univerexport"}, "geometry": {"type": "Point", "coordinates": [20.467039, 44.792897]}},
{"type": "Feature", "id": "BhLJIw5JCjraxFtlnasdNhVV2s8=", "properties": {"ref": "92", "@spider": "univerexport_dac", "addr:full": "Ive ", "addr:country": "Serbia", "website": "https://univerexport.rs/", "brand": "Univerexport"}, "geometry": {"type": "Point", "coordinates": [20.782074, 44.991049]}},
{"type": "Feature", "id": "9BBCCOSvQuAL60Xw7RJwUZPOVN0=", "properties": {"ref": "94", "@spider": "univerexport_dac", "addr:full": "Marka Miljanova 3 ", "addr:country": "Serbia", "website": "https://univerexport.rs/", "brand": "Univerexport"}, "geometry": {"type": "Point", "coordinates": [19.851441, 45.261554]}},
{"type": "Feature", "id": "JBq39TNNirBKPkrWF17S70eYFTI=", "properties": {"ref": "93", "@spider": "univerexport_dac", "addr:full": "Svetog Save 110", "addr:country": "Serbia", "website": "https://univerexport.rs/", "brand": "Univerexport"}, "geometry": {"type": "Point", "coordinates": [20.066482, 45.471758]}},
{"type": "Feature", "id": "PTu8HN40sCw2p3MJg3fmBpiihXw=", "properties": {"ref": "98", "@spider": "univerexport_dac", "addr:full": "Branka \u0106opi\u0107a bb ", "addr:country": "Serbia", "website": "https://univerexport.rs/", "brand": "Univerexport"}, "geometry": {"type": "Point", "coordinates": [19.794083, 45.233964]}},
{"type": "Feature", "id": "gVlW2I7kB_RlgqlvkwVgqJPuKWQ=", "properties": {"ref": "104", "@spider": "univerexport_dac", "addr:full": "Svetozara Markovi\u0107a 68", "addr:country": "Serbia", "phone": "021/293-008", "website": "https://univerexport.rs/", "brand": "Univerexport"}, "geometry": {"type": "Point", "coordinates": [20.064115, 45.370975]}},
{"type": "Feature", "id": "qqmHtC5TShU5cg79Nhb56df94Ak=", "properties": {"ref": "105", "@spider": "univerexport_dac", "addr:full": "Novosadska 40", "addr:country": "Serbia", "phone": "021/849-110", "website": "https://univerexport.rs/", "brand": "Univerexport"}, "geometry": {"type": "Point", "coordinates": [19.81202, 45.440159]}},
{"type": "Feature", "id": "Ncctf78W6e0NWssClRuHYALuh18=", "properties": {"ref": "100", "@spider": "univerexport_dac", "addr:full": "Ive \u0106ipika 23", "addr:country": "Serbia", "phone": "021/639-007", "website": "https://univerexport.rs/", "brand": "Univerexport"}, "geometry": {"type": "Point", "coordinates": [19.804107, 45.248974]}},
{"type": "Feature", "id": "LKSVU2_YOFlCfKPmeIbotDK4XkQ=", "properties": {"ref": "106", "@spider": "univerexport_dac", "addr:full": "Kralja Petra I 44", "addr:country": "Serbia", "phone": "022/210-154", "website": "https://univerexport.rs/", "brand": "Univerexport"}, "geometry": {"type": "Point", "coordinates": [20.221941, 44.942397]}},
{"type": "Feature", "id": "_k4C6cHWI2WPxCyDm8EPiDAq8rY=", "properties": {"ref": "96", "@spider": "univerexport_dac", "addr:full": "Koste Racina 29 ", "addr:country": "Serbia", "website": "https://univerexport.rs/", "brand": "Univerexport"}, "geometry": {"type": "Point", "coordinates": [19.811485, 45.258018]}},
{"type": "Feature", "id": "Uv-QStavbW3qh87L8L6qHNC0L78=", "properties": {"ref": "101", "@spider": "univerexport_dac", "addr:full": "Tolstojeva 66", "addr:country": "Serbia", "phone": "021/636-305", "website": "https://univerexport.rs/", "brand": "Univerexport"}, "geometry": {"type": "Point", "coordinates": [19.83131, 45.242102]}},
{"type": "Feature", "id": "TWNK-5UL90_nb1jYNpeZY0OoXgI=", "properties": {"ref": "102", "@spider": "univerexport_dac", "addr:full": "Tekelijina 15", "addr:country": "Serbia", "phone": "021/520-010", "website": "https://univerexport.rs/", "brand": "Univerexport"}, "geometry": {"type": "Point", "coordinates": [19.846034, 45.266381]}},
{"type": "Feature", "id": "NL6rg6TOobpEBpMkLTN9VHpmfF8=", "properties": {"ref": "121", "@spider": "univerexport_dac", "addr:full": "Mirijevski bulevar 84", "addr:country": "Serbia", "website": "https://univerexport.rs/", "brand": "Univerexport"}, "geometry": {"type": "Point", "coordinates": [20.526102, 44.802104]}},
{"type": "Feature", "id": "b9_Fr20vzKQdvZCFKo005o9NPO8=", "properties": {"ref": "103", "@spider": "univerexport_dac", "addr:full": "Bulevar Jovana Du\u010di\u0107a 9", "addr:country": "Serbia", "phone": "021/655-109", "website": "https://univerexport.rs/", "brand": "Univerexport"}, "geometry": {"type": "Point", "coordinates": [19.801773, 45.252528]}},
{"type": "Feature", "id": "LJaQhp7WS2P5BjwDd1lzKd0GV0w=", "properties": {"ref": "107", "@spider": "univerexport_dac", "addr:full": "Trg Svetog Stefana 32", "addr:country": "Serbia", "phone": "022/610-705", "website": "https://univerexport.rs/", "brand": "Univerexport"}, "geometry": {"type": "Point", "coordinates": [19.604687, 44.967933]}},
{"type": "Feature", "id": "rgLzF2paHRBa16UlBd8dV8RzUmU=", "properties": {"ref": "111", "@spider": "univerexport_dac", "addr:full": "Vojvode Putnika 79", "addr:country": "Serbia", "website": "https://univerexport.rs/", "brand": "Univerexport"}, "geometry": {"type": "Point", "coordinates": [19.851493, 45.227181]}},
{"type": "Feature", "id": "DBQgy91JPmzkLUUe4lj-FTooAIA=", "properties": {"ref": "112", "@spider": "univerexport_dac", "addr:full": "Bulevar Oslobo\u0111enja 119", "addr:country": "Serbia", "website": "https://univerexport.rs/", "brand": "Univerexport"}, "geometry": {"type": "Point", "coordinates": [19.843672, 45.246245]}},
{"type": "Feature", "id": "Fon7BnDqo-aYmP8lxSAiQ9X_J6w=", "properties": {"ref": "113", "@spider": "univerexport_dac", "addr:full": "Ju\u017eni Bulevar 112 ", "addr:country": "Serbia", "phone": "011/770-547", "website": "https://univerexport.rs/", "brand": "Univerexport"}, "geometry": {"type": "Point", "coordinates": [20.481254, 44.793525]}},
{"type": "Feature", "id": "BzyCRcrrmLXuiSijs6HNu5XqwkM=", "properties": {"ref": "115", "@spider": "univerexport_dac", "addr:full": "Narodnih heroja 1 ", "addr:country": "Serbia", "website": "https://univerexport.rs/", "brand": "Univerexport"}, "geometry": {"type": "Point", "coordinates": [19.843395, 45.253201]}},
{"type": "Feature", "id": "Q7FiK0T7s08GC7CY9i9y6dmKFMM=", "properties": {"ref": "114", "@spider": "univerexport_dac", "addr:full": "\u0110uri\u0107eva 5 ", "addr:country": "Serbia", "phone": "011/635-648", "website": "https://univerexport.rs/", "brand": "Univerexport"}, "geometry": {"type": "Point", "coordinates": [20.48968, 44.803606]}},
{"type": "Feature", "id": "YHFdr4eQSxCR6R0HEuEjJh7FM5M=", "properties": {"ref": "116", "@spider": "univerexport_dac", "addr:full": "Okrugi\u0107eva 17", "addr:country": "Serbia", "phone": "021/270-006", "website": "https://univerexport.rs/", "brand": "Univerexport"}, "geometry": {"type": "Point", "coordinates": [19.883043, 45.244512]}},
{"type": "Feature", "id": "tDu3qwXIH8WFgYMk_HbdKSEXGTk=", "properties": {"ref": "123", "@spider": "univerexport_dac", "addr:full": "Put dr Goldmana 1 ", "addr:country": "Serbia", "website": "https://univerexport.rs/", "brand": "Univerexport"}, "geometry": {"type": "Point", "coordinates": [19.855503, 45.223279]}},
{"type": "Feature", "id": "lliEk1ZiPRWmRV-IteJv2bkPWis=", "properties": {"ref": "118", "@spider": "univerexport_dac", "addr:full": "Ivana Milutinovi\u0107a 58", "addr:country": "Serbia", "website": "https://univerexport.rs/", "brand": "Univerexport"}, "geometry": {"type": "Point", "coordinates": [19.687326, 45.453105]}},
{"type": "Feature", "id": "Jb-B6DGmtM3egZQ-TsnY-gP-ijQ=", "properties": {"ref": "117", "@spider": "univerexport_dac", "addr:full": "Milo\u0161a Obrenovi\u0107a 92", "addr:country": "Serbia", "website": "https://univerexport.rs/", "brand": "Univerexport"}, "geometry": {"type": "Point", "coordinates": [20.200207, 44.653091]}},
{"type": "Feature", "id": "ZJnOZ2HHOdf5QArhltI-y41vyTE=", "properties": {"ref": "120", "@spider": "univerexport_dac", "addr:full": "Branka Baji\u0107a 9", "addr:country": "Serbia", "website": "https://univerexport.rs/", "brand": "Univerexport"}, "geometry": {"type": "Point", "coordinates": [19.817566, 45.255109]}},
{"type": "Feature", "id": "W7P-YdwvQLcunWTmCsPfApkaSRw=", "properties": {"ref": "119", "@spider": "univerexport_dac", "addr:full": "Somborska 27", "addr:country": "Serbia", "website": "https://univerexport.rs/", "brand": "Univerexport"}, "geometry": {"type": "Point", "coordinates": [19.25868, 45.506726]}},
{"type": "Feature", "id": "usPs0jaTZ73E1tQaMdSgItBv5ms=", "properties": {"ref": "122", "@spider": "univerexport_dac", "addr:full": "Jurija Gagarina 20-O", "addr:country": "Serbia", "website": "https://univerexport.rs/", "brand": "Univerexport"}, "geometry": {"type": "Point", "coordinates": [20.400217, 44.804802]}},
{"type": "Feature", "id": "bLRDCOgm56DI8vAEw1fzccsf6Rw=", "properties": {"ref": "171", "@spider": "univerexport_dac", "addr:full": "Dunavska 2-G", "addr:country": "Serbia", "website": "https://univerexport.rs/", "brand": "Univerexport"}, "geometry": {"type": "Point", "coordinates": [20.456598, 44.828627]}},
{"type": "Feature", "id": "ycf3YDFTT63m8d0cEzeRPrvr5Q4=", "properties": {"ref": "148", "@spider": "univerexport_dac", "addr:full": "Bulevar patrijarha Pavla 11-13", "addr:country": "Serbia", "phone": "021/270-557", "website": "https://univerexport.rs/", "brand": "Univerexport"}, "geometry": {"type": "Point", "coordinates": [19.819679, 45.239821]}},
{"type": "Feature", "id": "6eXEma9Azi5aBt9cDk6hoItJ1tE=", "properties": {"ref": "124", "@spider": "univerexport_dac", "addr:full": "Gunduli\u0107eva 1", "addr:country": "Serbia", "website": "https://univerexport.rs/", "brand": "Univerexport"}, "geometry": {"type": "Point", "coordinates": [20.387378, 45.379475]}},
{"type": "Feature", "id": "wit2VUSCRzVwnCIAsRQjJLQhXyY=", "properties": {"ref": "173", "@spider": "univerexport_dac", "addr:full": "Bulevar patrijarha Pavla 6", "addr:country": "Serbia", "website": "https://univerexport.rs/", "brand": "Univerexport"}, "geometry": {"type": "Point", "coordinates": [19.817589, 45.240376]}},
{"type": "Feature", "id": "MD3LPDiZ886lSgbuQzpl7wXNl0A=", "properties": {"ref": "143", "@spider": "univerexport_dac", "addr:full": "Majora Zorana Radosavljevi\u0107a 46", "addr:country": "Serbia", "website": "https://univerexport.rs/", "brand": "Univerexport"}, "geometry": {"type": "Point", "coordinates": [20.27823, 44.904154]}},
{"type": "Feature", "id": "ZT1gBXbGn7MFxRG9SEtwym1QZHk=", "properties": {"ref": "51", "@spider": "univerexport_dac", "addr:full": "Bajski put bb", "addr:country": "Serbia", "phone": "024/693-640", "website": "https://univerexport.rs/", "brand": "Univerexport"}, "geometry": {"type": "Point", "coordinates": [19.643244, 46.10176]}},
{"type": "Feature", "id": "ALI_etPzYsP3GDJlW0wQgZm_UAU=", "properties": {"ref": "32", "@spider": "univerexport_dac", "addr:full": "Narodnog fronta bb", "addr:country": "Serbia", "phone": "021/625-281", "website": "https://univerexport.rs/", "brand": "Univerexport"}, "geometry": {"type": "Point", "coordinates": [19.885229, 45.400972]}},
{"type": "Feature", "id": "O9ufAt_vQQGvMxZ5a3D04kwcygc=", "properties": {"ref": "7", "@spider": "univerexport_dac", "addr:full": "Petra Popovi\u0107a Age 1", "addr:country": "Serbia", "website": "https://univerexport.rs/", "brand": "Univerexport"}, "geometry": {"type": "Point", "coordinates": [19.652006, 46.123986]}},
{"type": "Feature", "id": "zX6WZ49WtQz9IRC4QgnCblszkp8=", "properties": {"ref": "29", "@spider": "univerexport_dac", "addr:full": "Junaka Milana Tepi\u0107a bb", "addr:country": "Serbia", "phone": "023/582-470", "website": "https://univerexport.rs/", "brand": "Univerexport"}, "geometry": {"type": "Point", "coordinates": [20.363846, 45.378333]}},
{"type": "Feature", "id": "c4uStRdNyl6681FdT5bmxzGAEvo=", "properties": {"ref": "52", "@spider": "univerexport_dac", "addr:full": "Sabo Sepe\u0161i Lasla 88", "addr:country": "Serbia", "phone": "024/855-865", "website": "https://univerexport.rs/", "brand": "Univerexport"}, "geometry": {"type": "Point", "coordinates": [20.128473, 45.782256]}},
{"type": "Feature", "id": "LqTEf2hoiI5-xg575BN9QQ1a2Gw=", "properties": {"ref": "53", "@spider": "univerexport_dac", "addr:full": "Damjani\u0107eva 21", "addr:country": "Serbia", "phone": "024/874-899", "website": "https://univerexport.rs/", "brand": "Univerexport"}, "geometry": {"type": "Point", "coordinates": [20.055718, 46.064026]}},
{"type": "Feature", "id": "FGpZ4INcFXeN3_pEmi_agC-D4ec=", "properties": {"ref": "54", "@spider": "univerexport_dac", "addr:full": "Gustava Krkleca 19a", "addr:country": "Serbia", "website": "https://univerexport.rs/", "brand": "Univerexport"}, "geometry": {"type": "Point", "coordinates": [19.641878, 45.569121]}},
{"type": "Feature", "id": "-m-g64MdUsEGEE0N_ViPNL526Zk=", "properties": {"ref": "55", "@spider": "univerexport_dac", "addr:full": "Dimitrija Tucovi\u0107a bb", "addr:country": "Serbia", "phone": "025/515-005", "website": "https://univerexport.rs/", "brand": "Univerexport"}, "geometry": {"type": "Point", "coordinates": [18.988772, 45.669992]}},
{"type": "Feature", "id": "ks-rVU7XfWWhm3yu3Ks6eSO_dvI=", "properties": {"ref": "56", "@spider": "univerexport_dac", "addr:full": "Mar\u0161ala Tita 334", "addr:country": "Serbia", "website": "https://univerexport.rs/", "brand": "Univerexport"}, "geometry": {"type": "Point", "coordinates": [19.53645, 45.608423]}},
{"type": "Feature", "id": "CXKZvTxdRUho9eICT2Eh_GuERD8=", "properties": {"ref": "57", "@spider": "univerexport_dac", "addr:full": "Albertova 1", "addr:country": "Serbia", "website": "https://univerexport.rs/", "brand": "Univerexport"}, "geometry": {"type": "Point", "coordinates": [20.456576, 45.835186]}},
{"type": "Feature", "id": "yL2YhWXxj15xPBeSuJ1jCQIk_8s=", "properties": {"ref": "58", "@spider": "univerexport_dac", "addr:full": "Nikole Francuskog 136 ", "addr:country": "Serbia", "phone": "230/423-431", "website": "https://univerexport.rs/", "brand": "Univerexport"}, "geometry": {"type": "Point", "coordinates": [20.317409, 45.831129]}},
{"type": "Feature", "id": "c38mBFPnTsP99gWubOzSfM6D1yk=", "properties": {"ref": "59", "@spider": "univerexport_dac", "addr:full": "Srpskih ratnika 30", "addr:country": "Serbia", "phone": "230/451-110", "website": "https://univerexport.rs/", "brand": "Univerexport"}, "geometry": {"type": "Point", "coordinates": [20.608096, 45.816627]}},
{"type": "Feature", "id": "SFyQi0A9IUe4-7GNwWu1wLAUbbw=", "properties": {"ref": "60", "@spider": "univerexport_dac", "addr:full": "Distri\u010dka 54", "addr:country": "Serbia", "phone": "230/423-198", "website": "https://univerexport.rs/", "brand": "Univerexport"}, "geometry": {"type": "Point", "coordinates": [20.461233, 45.843214]}},
{"type": "Feature", "id": "Xks8L_Kf1Ok3Tt7k-poJF8A1vTk=", "properties": {"ref": "61", "@spider": "univerexport_dac", "addr:full": "Vojvode Putnika 58", "addr:country": "Serbia", "phone": "230/422-339", "website": "https://univerexport.rs/", "brand": "Univerexport"}, "geometry": {"type": "Point", "coordinates": [20.470268, 45.835417]}},
{"type": "Feature", "id": "htNbXM2CD2rlcMfKrjjGBmJAMi8=", "properties": {"ref": "62", "@spider": "univerexport_dac", "addr:full": "Svetosavska 26", "addr:country": "Serbia", "phone": "230/421-320", "website": "https://univerexport.rs/", "brand": "Univerexport"}, "geometry": {"type": "Point", "coordinates": [20.461828, 45.828186]}},
{"type": "Feature", "id": "JSDuCaIrs3V-unSVF0oK9BeL_N4=", "properties": {"ref": "63", "@spider": "univerexport_dac", "addr:full": "Bra\u0107e Tati\u0107 2 ", "addr:country": "Serbia", "phone": "230/425-788", "website": "https://univerexport.rs/", "brand": "Univerexport"}, "geometry": {"type": "Point", "coordinates": [20.465587, 45.829068]}},
{"type": "Feature", "id": "CPfYdirTbBJLCip5R-S2BzvchPs=", "properties": {"ref": "64", "@spider": "univerexport_dac", "addr:full": "Generala Drap\u0161ina 11", "addr:country": "Serbia", "website": "https://univerexport.rs/", "brand": "Univerexport"}, "geometry": {"type": "Point", "coordinates": [20.468011, 45.830384]}},
{"type": "Feature", "id": "s_zExv0Gvf4Nrv2eIsMhwRZ0fo8=", "properties": {"ref": "65", "@spider": "univerexport_dac", "addr:full": "Desanke Maksimovi\u0107 36", "addr:country": "Serbia", "phone": "230/451-431", "website": "https://univerexport.rs/", "brand": "Univerexport"}, "geometry": {"type": "Point", "coordinates": [20.597202, 45.827283]}},
{"type": "Feature", "id": "SvF1R-SJk0OA81naWH3KWSYa3mw=", "properties": {"ref": "66", "@spider": "univerexport_dac", "addr:full": "Bratstva Jedinstva 164", "addr:country": "Serbia", "phone": "230/458-338", "website": "https://univerexport.rs/", "brand": "Univerexport"}, "geometry": {"type": "Point", "coordinates": [20.569034, 45.753948]}},
{"type": "Feature", "id": "J7ONyKH7tZ4kFxhlWZeQV4sKd-Q=", "properties": {"ref": "67", "@spider": "univerexport_dac", "addr:full": "Kralja Petra I, br. 89", "addr:country": "Serbia", "website": "https://univerexport.rs/", "brand": "Univerexport"}, "geometry": {"type": "Point", "coordinates": [20.480698, 45.839289]}},
{"type": "Feature", "id": "tfioOPPJwCC1DgriVc_Sj-GH-28=", "properties": {"ref": "68", "@spider": "univerexport_dac", "addr:full": "Bratstva Jedinstva 121", "addr:country": "Serbia", "phone": "230/458-609", "website": "https://univerexport.rs/", "brand": "Univerexport"}, "geometry": {"type": "Point", "coordinates": [20.57676, 45.758397]}},
{"type": "Feature", "id": "O9yV0ML1t9-5ZEqu_f7bHssIJfs=", "properties": {"ref": "69", "@spider": "univerexport_dac", "addr:full": "Glavna bb", "addr:country": "Serbia", "phone": "230/454-210", "website": "https://univerexport.rs/", "brand": "Univerexport"}, "geometry": {"type": "Point", "coordinates": [20.566612, 45.874146]}},
{"type": "Feature", "id": "NmiBsNWmxnOyqPIVbZsGWAkaT4w=", "properties": {"ref": "70", "@spider": "univerexport_dac", "addr:full": "Svetog Save 32", "addr:country": "Serbia", "website": "https://univerexport.rs/", "brand": "Univerexport"}, "geometry": {"type": "Point", "coordinates": [20.420626, 45.933806]}},
{"type": "Feature", "id": "E1tPs7_lKrgqCGgY3kDrIpNh4Og=", "properties": {"ref": "71", "@spider": "univerexport_dac", "addr:full": "\u010canadska 50", "addr:country": "Serbia", "website": "https://univerexport.rs/", "brand": "Univerexport"}, "geometry": {"type": "Point", "coordinates": [20.476445, 45.82887]}},
{"type": "Feature", "id": "pREAgJ9pbmlx50_CyWJzRFTchfE=", "properties": {"ref": "80", "@spider": "univerexport_dac", "addr:full": "Svetog Save 106", "addr:country": "Serbia", "website": "https://univerexport.rs/", "brand": "Univerexport"}, "geometry": {"type": "Point", "coordinates": [20.409357, 45.934315]}},
{"type": "Feature", "id": "l8FsmrfC8-ve6ZuXU8506BwRwTU=", "properties": {"ref": "72", "@spider": "univerexport_dac", "addr:full": "Streli\u0161te bb", "addr:country": "Serbia", "phone": "230/323-276", "website": "https://univerexport.rs/", "brand": "Univerexport"}, "geometry": {"type": "Point", "coordinates": [20.490165, 45.846839]}},
{"type": "Feature", "id": "cD-T4PV6sn_1OVhVDZHoYESOoe8=", "properties": {"ref": "73", "@spider": "univerexport_dac", "addr:full": "\u0110ure Jak\u0161i\u0107a 1 ", "addr:country": "Serbia", "phone": "230/422-956", "website": "https://univerexport.rs/", "brand": "Univerexport"}, "geometry": {"type": "Point", "coordinates": [20.467755, 45.82762]}},
{"type": "Feature", "id": "-TRmLfrt6GBNLIZUYcZjrnjrLbo=", "properties": {"ref": "74", "@spider": "univerexport_dac", "addr:full": "Sin\u0111eli\u0107eva bb ", "addr:country": "Serbia", "phone": "230/423-714", "website": "https://univerexport.rs/", "brand": "Univerexport"}, "geometry": {"type": "Point", "coordinates": [20.468641, 45.819882]}},
{"type": "Feature", "id": "kPPbauIoE416ti4-Z_AxyM4uYc4=", "properties": {"ref": "75", "@spider": "univerexport_dac", "addr:full": "Albertova bb", "addr:country": "Serbia", "phone": "230/421-966", "website": "https://univerexport.rs/", "brand": "Univerexport"}, "geometry": {"type": "Point", "coordinates": [20.456692, 45.835122]}},
{"type": "Feature", "id": "aK4jcO8vOD81UxsgUbnAPDTQjD0=", "properties": {"ref": "76", "@spider": "univerexport_dac", "addr:full": "Doktora Zorana \u0110in\u0111i\u0107a 11", "addr:country": "Serbia", "phone": "230/422-131", "website": "https://univerexport.rs/", "brand": "Univerexport"}, "geometry": {"type": "Point", "coordinates": [20.465192, 45.832204]}},
{"type": "Feature", "id": "0tGSQae1PY_dXGdt__UQyee2UPw=", "properties": {"ref": "77", "@spider": "univerexport_dac", "addr:full": "Milo\u0161a Velikog 76a", "addr:country": "Serbia", "phone": "230/422-966", "website": "https://univerexport.rs/", "brand": "Univerexport"}, "geometry": {"type": "Point", "coordinates": [20.470471, 45.825427]}},
{"type": "Feature", "id": "Q_CU5P0BgVBec2KD8zs87NorRFM=", "properties": {"ref": "78", "@spider": "univerexport_dac", "addr:full": "Beogradska bb", "addr:country": "Serbia", "phone": "230/424-122", "website": "https://univerexport.rs/", "brand": "Univerexport"}, "geometry": {"type": "Point", "coordinates": [20.451416, 45.819855]}},
{"type": "Feature", "id": "qXzQI-gYpkbRRBykCamnYh9fZMI=", "properties": {"ref": "82", "@spider": "univerexport_dac", "addr:full": "Svetog Save 78 ", "addr:country": "Serbia", "website": "https://univerexport.rs/", "brand": "Univerexport"}, "geometry": {"type": "Point", "coordinates": [20.413871, 45.934357]}},
{"type": "Feature", "id": "Zt8GkTcLl-5l6YWdUlwl_qwlPc4=", "properties": {"ref": "81", "@spider": "univerexport_dac", "addr:full": "Omladinska bb ", "addr:country": "Serbia", "phone": "230/452-048", "website": "https://univerexport.rs/", "brand": "Univerexport"}, "geometry": {"type": "Point", "coordinates": [20.603149, 45.821243]}},
{"type": "Feature", "id": "vpGNm-meHgb-B7RSA89VHv7g7wY=", "properties": {"ref": "85", "@spider": "univerexport_dac", "addr:full": "Kralja Petra I", "addr:country": "Serbia", "phone": "230/365-719", "website": "https://univerexport.rs/", "brand": "Univerexport"}, "geometry": {"type": "Point", "coordinates": [20.62912, 45.783256]}},
{"type": "Feature", "id": "6O8-cRZxYQtBvmvjUpzGIIt215Q=", "properties": {"ref": "184", "@spider": "univerexport_dac", "addr:full": "Kara\u0111or\u0111eva 32", "addr:country": "Serbia", "website": "https://univerexport.rs/", "brand": "Univerexport"}, "geometry": {"type": "Point", "coordinates": [19.84061, 45.266696]}},
{"type": "Feature", "id": "S-O2b9gJxUCRq7SqWY41E9YtQJ0=", "properties": {"ref": "176", "@spider": "univerexport_dac", "addr:full": "Bulevar patrijarha Pavla 45b-47a", "addr:country": "Serbia", "website": "https://univerexport.rs/", "brand": "Univerexport"}, "geometry": {"type": "Point", "coordinates": [19.808957, 45.2408]}},
{"type": "Feature", "id": "SHzCV1V8w6PENsBN6ugqNE2Kgas=", "properties": {"ref": "172", "@spider": "univerexport_dac", "addr:full": "Vojvode Stepe 369", "addr:country": "Serbia", "website": "https://univerexport.rs/", "brand": "Univerexport"}, "geometry": {"type": "Point", "coordinates": [20.484964, 44.760902]}},
{"type": "Feature", "id": "KZpEPYDl90Cr3Ez_eSV9MAH4Okc=", "properties": {"ref": "170", "@spider": "univerexport_dac", "addr:full": "Zmaj Ognjena Vuka 24a", "addr:country": "Serbia", "website": "https://univerexport.rs/", "brand": "Univerexport"}, "geometry": {"type": "Point", "coordinates": [19.835774, 45.262403]}},
{"type": "Feature", "id": "kam77_cKlIXo2CFmMRzw1cxx0e8=", "properties": {"ref": "175", "@spider": "univerexport_dac", "addr:full": "Temerinska 180-182 ", "addr:country": "Serbia", "website": "https://univerexport.rs/", "brand": "Univerexport"}, "geometry": {"type": "Point", "coordinates": [19.835156, 45.283028]}},
{"type": "Feature", "id": "2rB4bIs5hounjBVN-TH8D749pS0=", "properties": {"ref": "177", "@spider": "univerexport_dac", "addr:full": "Glavni trg 3", "addr:country": "Serbia", "website": "https://univerexport.rs/", "brand": "Univerexport"}, "geometry": {"type": "Point", "coordinates": [20.088909, 45.931727]}},
{"type": "Feature", "id": "3M8BPFsX4U3MiTJzlQuf-DmUx54=", "properties": {"ref": "185", "@spider": "univerexport_dac", "addr:full": "Vojvode Bojojvi\u0107a 75", "addr:country": "Serbia", "website": "https://univerexport.rs/", "brand": "Univerexport"}, "geometry": {"type": "Point", "coordinates": [19.756341, 45.256538]}},
{"type": "Feature", "id": "M1djvdZTriUjDZqfzLFKidBHvLI=", "properties": {"ref": "178", "@spider": "univerexport_dac", "addr:full": "Gospodara Vu\u010di\u0107a 1G", "addr:country": "Serbia", "website": "https://univerexport.rs/", "brand": "Univerexport"}, "geometry": {"type": "Point", "coordinates": [20.47261, 44.79063]}},
{"type": "Feature", "id": "P5dqEBVcswIriVg-L1wCtkbMIUw=", "properties": {"ref": "183", "@spider": "univerexport_dac", "addr:full": "Trg cara Lazara 4, Vrdnik", "addr:country": "Serbia", "phone": "022/465-042", "website": "https://univerexport.rs/", "brand": "Univerexport"}, "geometry": {"type": "Point", "coordinates": [19.788097, 45.128466]}},
{"type": "Feature", "id": "WFxhhfL61AU7S0iARvKCz_fiYKo=", "properties": {"ref": "179", "@spider": "univerexport_dac", "addr:full": "Svetog Save 2", "addr:country": "Serbia", "website": "https://univerexport.rs/", "brand": "Univerexport"}, "geometry": {"type": "Point", "coordinates": [19.187767, 45.497267]}},
{"type": "Feature", "id": "KlHY944OfrR_ziHacHZS59oevoE=", "properties": {"ref": "180", "@spider": "univerexport_dac", "addr:full": "Dunavska 35", "addr:country": "Serbia", "website": "https://univerexport.rs/", "brand": "Univerexport"}, "geometry": {"type": "Point", "coordinates": [19.192599, 45.504775]}},
{"type": "Feature", "id": "0OYZ1ztlX30qOx48nlZl0286DNk=", "properties": {"ref": "181", "@spider": "univerexport_dac", "addr:full": "Nikole Tesle 2", "addr:country": "Serbia", "website": "https://univerexport.rs/", "brand": "Univerexport"}, "geometry": {"type": "Point", "coordinates": [19.19434, 45.501179]}},
{"type": "Feature", "id": "SG4TS8QtOZubkKQpek8u2-MDN3s=", "properties": {"ref": "161", "@spider": "univerexport_dac", "addr:full": "Mar\u0161ala Tita  28/a", "addr:country": "Serbia", "website": "https://univerexport.rs/", "brand": "Univerexport"}, "geometry": {"type": "Point", "coordinates": [20.0517986, 46.1129586]}},
{"type": "Feature", "id": "w90BAOcVmLcSZY4Ay2vnqW5oiDc=", "properties": {"ref": "145", "@spider": "univerexport_dac", "addr:full": "Jo\u017eefa Atile 1 ", "addr:country": "Serbia", "website": "https://univerexport.rs/", "brand": "Univerexport"}, "geometry": {"type": "Point", "coordinates": [19.767359, 45.922833]}},
{"type": "Feature", "id": "ooQB45YPv0B6fthll1UGh39DNEM=", "properties": {"ref": "141", "@spider": "univerexport_dac", "addr:full": "Ivana Antunovi\u0107a 86/a", "addr:country": "Serbia", "phone": "024/558-524", "website": "https://univerexport.rs/", "brand": "Univerexport"}, "geometry": {"type": "Point", "coordinates": [19.6662426, 46.0849239]}},
{"type": "Feature", "id": "2v3lQwsGaC8gCirOOhA3KJyh5ss=", "properties": {"ref": "169", "@spider": "univerexport_dac", "addr:full": "Nade Dimi\u0107 22 ", "addr:country": "Serbia", "phone": "024/532-102", "website": "https://univerexport.rs/", "brand": "Univerexport"}, "geometry": {"type": "Point", "coordinates": [19.671271, 46.087484]}},
{"type": "Feature", "id": "zpwScUfpdguWvcrHq6qHAGA57NY=", "properties": {"ref": "147", "@spider": "univerexport_dac", "addr:full": "Beogradska 28/a", "addr:country": "Serbia", "website": "https://univerexport.rs/", "brand": "Univerexport"}, "geometry": {"type": "Point", "coordinates": [19.6609449, 46.0914579]}},
{"type": "Feature", "id": "QaQ3h2Q1nH523Mn85U9q9Er6SAM=", "properties": {"ref": "165", "@spider": "univerexport_dac", "addr:full": "Borisa Kidri\u010da 19d", "addr:country": "Serbia", "website": "https://univerexport.rs/", "brand": "Univerexport"}, "geometry": {"type": "Point", "coordinates": [19.8192721, 46.1101743]}},
{"type": "Feature", "id": "vRLBB4OaUpGYWUkMMEFwHryXQ2U=", "properties": {"ref": "150", "@spider": "univerexport_dac", "addr:full": "Splitska aleja 6", "addr:country": "Serbia", "phone": "024/754-064", "website": "https://univerexport.rs/", "brand": "Univerexport"}, "geometry": {"type": "Point", "coordinates": [19.6599379, 46.1002572]}},
{"type": "Feature", "id": "oRiXm8wpfOWIOoEAw9L_YXU-Ld8=", "properties": {"ref": "158", "@spider": "univerexport_dac", "addr:full": "Svetog Stevana 31", "addr:country": "Serbia", "website": "https://univerexport.rs/", "brand": "Univerexport"}, "geometry": {"type": "Point", "coordinates": [19.835695, 45.881425]}},
{"type": "Feature", "id": "RuRhy3dSD15IUbKU9SOehyV63AI=", "properties": {"ref": "129", "@spider": "univerexport_dac", "addr:full": "Potiska 4", "addr:country": "Serbia", "website": "https://univerexport.rs/", "brand": "Univerexport"}, "geometry": {"type": "Point", "coordinates": [20.1382563, 45.9358802]}},
{"type": "Feature", "id": "QuswH2b56Uyij4ogSS0N7elVC0w=", "properties": {"ref": "142", "@spider": "univerexport_dac", "addr:full": "Radoja Vujo\u0161evi\u0107a 23", "addr:country": "Serbia", "website": "https://univerexport.rs/", "brand": "Univerexport"}, "geometry": {"type": "Point", "coordinates": [19.669188, 45.939977]}},
{"type": "Feature", "id": "2UpDZHVb0fhOUFNkjuB7uXrlt-0=", "properties": {"ref": "136", "@spider": "univerexport_dac", "addr:full": "JNA 33", "addr:country": "Serbia", "website": "https://univerexport.rs/", "brand": "Univerexport"}, "geometry": {"type": "Point", "coordinates": [19.4164212, 45.9712836]}},
{"type": "Feature", "id": "DwinZaQXx6N04UVrL8s7oB2ycOA=", "properties": {"ref": "138", "@spider": "univerexport_dac", "addr:full": "Put Edvarda Kardelja 110", "addr:country": "Serbia", "phone": "024/516-740", "website": "https://univerexport.rs/", "brand": "Univerexport"}, "geometry": {"type": "Point", "coordinates": [19.6110331, 46.1239093]}},
{"type": "Feature", "id": "aAC70fAD_bw9JbGuqya9RVHzlyE=", "properties": {"ref": "159", "@spider": "univerexport_dac", "addr:full": "Gornji Tavankut 147/8", "addr:country": "Serbia", "website": "https://univerexport.rs/", "brand": "Univerexport"}, "geometry": {"type": "Point", "coordinates": [19.4458118, 46.040669]}},
{"type": "Feature", "id": "9YA7FGj_T3ZSS43_ifOGlN-y31Y=", "properties": {"ref": "155", "@spider": "univerexport_dac", "addr:full": "Svetog Stevana 2", "addr:country": "Serbia", "website": "https://univerexport.rs/", "brand": "Univerexport"}, "geometry": {"type": "Point", "coordinates": [19.473229, 45.87107]}},
{"type": "Feature", "id": "yKEB154MV1vMBVK7U8oGQVnFblI=", "properties": {"ref": "131", "@spider": "univerexport_dac", "addr:full": "Trg Cara Jovana Nenada 2-4", "addr:country": "Serbia", "phone": "024/548-648", "website": "https://univerexport.rs/", "brand": "Univerexport"}, "geometry": {"type": "Point", "coordinates": [19.665295, 46.101114]}},
{"type": "Feature", "id": "PR6Y--nDw-qXUQasuXWtADyAE5Y=", "properties": {"ref": "153", "@spider": "univerexport_dac", "addr:full": "Pazinska 3", "addr:country": "Serbia", "phone": "024/524-754", "website": "https://univerexport.rs/", "brand": "Univerexport"}, "geometry": {"type": "Point", "coordinates": [19.672903, 46.087677]}},
{"type": "Feature", "id": "T6FcJSAsJV1hlTGChGkSRTZJzYU=", "properties": {"ref": "149", "@spider": "univerexport_dac", "addr:full": "Teslina 66", "addr:country": "Serbia", "phone": "024/547-187", "website": "https://univerexport.rs/", "brand": "Univerexport"}, "geometry": {"type": "Point", "coordinates": [19.6839154, 46.1059686]}},
{"type": "Feature", "id": "fxF5YrDhUlr7CoEl0hSCrgaD7Zc=", "properties": {"ref": "174", "@spider": "univerexport_dac", "addr:full": "Palmoti\u0107eva 42", "addr:country": "Serbia", "phone": "024/557-400", "website": "https://univerexport.rs/", "brand": "Univerexport"}, "geometry": {"type": "Point", "coordinates": [19.656294, 46.091549]}},
{"type": "Feature", "id": "VPI3a8szcAYBrGhI3BOfDCxYBQY=", "properties": {"ref": "134", "@spider": "univerexport_dac", "addr:full": "Kara\u0111or\u0111ev put 92/a", "addr:country": "Serbia", "phone": "024/527-485", "website": "https://univerexport.rs/", "brand": "Univerexport"}, "geometry": {"type": "Point", "coordinates": [19.6454469, 46.1062909]}},
{"type": "Feature", "id": "Nx_2W1TyXi98xytOPjIOASl6Txg=", "properties": {"ref": "144", "@spider": "univerexport_dac", "addr:full": "\u0160andora Lifke 56", "addr:country": "Serbia", "phone": "024/547-276", "website": "https://univerexport.rs/", "brand": "Univerexport"}, "geometry": {"type": "Point", "coordinates": [19.694901, 46.107662]}},
{"type": "Feature", "id": "F7Zrkxz-ZQUxnPUMQFQau1xNSH4=", "properties": {"ref": "135", "@spider": "univerexport_dac", "addr:full": "Jak\u0161i\u0107eva 24", "addr:country": "Serbia", "phone": "024/548-377", "website": "https://univerexport.rs/", "brand": "Univerexport"}, "geometry": {"type": "Point", "coordinates": [19.6835475, 46.096968]}},
{"type": "Feature", "id": "HitmhO7eAGzE-P8Qq6hedOZB04Y=", "properties": {"ref": "139", "@spider": "univerexport_dac", "addr:full": "Maj\u0161anski put 48", "addr:country": "Serbia", "phone": "024/577-329", "website": "https://univerexport.rs/", "brand": "Univerexport"}, "geometry": {"type": "Point", "coordinates": [19.672628, 46.114161]}},
{"type": "Feature", "id": "3D63wemN7M8vW6ysF5Jv8PWohuA=", "properties": {"ref": "127", "@spider": "univerexport_dac", "addr:full": "Aleja Mar\u0161ala Tita 15", "addr:country": "Serbia", "phone": "024/525-554", "website": "https://univerexport.rs/", "brand": "Univerexport"}, "geometry": {"type": "Point", "coordinates": [19.659006, 46.104883]}},
{"type": "Feature", "id": "IH7NhwnYQn2R0gEhSW0bE3UhEgg=", "properties": {"ref": "126", "@spider": "univerexport_dac", "addr:full": "Segedinski put 80", "addr:country": "Serbia", "phone": "024/547-524", "website": "https://univerexport.rs/", "brand": "Univerexport"}, "geometry": {"type": "Point", "coordinates": [19.692984, 46.100023]}},
{"type": "Feature", "id": "3HQ92pAXL_P5lgzLWf5gIMknE_A=", "properties": {"ref": "130", "@spider": "univerexport_dac", "addr:full": "Josipa Zeli\u0107a bb", "addr:country": "Serbia", "phone": "024/566-894", "website": "https://univerexport.rs/", "brand": "Univerexport"}, "geometry": {"type": "Point", "coordinates": [19.671449, 46.07003]}},
{"type": "Feature", "id": "mKWadW8Df8zokNX52LlD-9bZ6pQ=", "properties": {"ref": "154", "@spider": "univerexport_dac", "addr:full": "Glavna 29", "addr:country": "Serbia", "phone": "024/551-917", "website": "https://univerexport.rs/", "brand": "Univerexport"}, "geometry": {"type": "Point", "coordinates": [19.6677126, 45.7049814]}},
{"type": "Feature", "id": "34Jd5W9Wmib2RtlxYgFcLE1aFCw=", "properties": {"ref": "167", "@spider": "univerexport_dac", "addr:full": "Bra\u0107e Radi\u0107a 114", "addr:country": "Serbia", "phone": "024/557-375", "website": "https://univerexport.rs/", "brand": "Univerexport"}, "geometry": {"type": "Point", "coordinates": [19.672514, 46.090744]}},
{"type": "Feature", "id": "3EWcxoowmzvXyOSdBAKRTJsdCfU=", "properties": {"ref": "128", "@spider": "univerexport_dac", "addr:full": "Segedinski put 19", "addr:country": "Serbia", "phone": "024/546-992", "website": "https://univerexport.rs/", "brand": "Univerexport"}, "geometry": {"type": "Point", "coordinates": [19.679085, 46.100202]}},
{"type": "Feature", "id": "Jx31JvEhKCuivJbgVHlVmRv9MT0=", "properties": {"ref": "162", "@spider": "univerexport_dac", "addr:full": "Hrastova 38", "addr:country": "Serbia", "phone": "024/546-675", "website": "https://univerexport.rs/", "brand": "Univerexport"}, "geometry": {"type": "Point", "coordinates": [19.674556, 46.108068]}},
{"type": "Feature", "id": "FmJMUmVivE1Nmep6dsjEau-dlU4=", "properties": {"ref": "166", "@spider": "univerexport_dac", "addr:full": "Put Edvarda Kardelja 383", "addr:country": "Serbia", "website": "https://univerexport.rs/", "brand": "Univerexport"}, "geometry": {"type": "Point", "coordinates": [19.5748365, 46.1525643]}},
{"type": "Feature", "id": "UEVP0naNBJ9kiViSIGhhX91xuBQ=", "properties": {"ref": "125", "@spider": "univerexport_dac", "addr:full": "Venac bratstva jedinstva 1", "addr:country": "Serbia", "website": "https://univerexport.rs/", "brand": "Univerexport"}, "geometry": {"type": "Point", "coordinates": [19.7274593, 46.107886]}},
{"type": "Feature", "id": "bEVKCguFJr-CPmlpiT-TdooDeE0=", "properties": {"ref": "152", "@spider": "univerexport_dac", "addr:full": "Put Edvarda Kardelja 2", "addr:country": "Serbia", "phone": "024/516-864", "website": "https://univerexport.rs/", "brand": "Univerexport"}, "geometry": {"type": "Point", "coordinates": [19.629057, 46.11601]}},
{"type": "Feature", "id": "maj400P7jPsS0NFdvHebwbXR-2U=", "properties": {"ref": "140", "@spider": "univerexport_dac", "addr:full": "Franje Kluza 1", "addr:country": "Serbia", "phone": "024/561-650", "website": "https://univerexport.rs/", "brand": "Univerexport"}, "geometry": {"type": "Point", "coordinates": [19.64456, 46.088325]}},
{"type": "Feature", "id": "DDhDlp7tgXCK3iA046XQVoMU-Bo=", "properties": {"ref": "132", "@spider": "univerexport_dac", "addr:full": "Maj\u0161anski put 364", "addr:country": "Serbia", "phone": "024/550-016", "website": "https://univerexport.rs/", "brand": "Univerexport"}, "geometry": {"type": "Point", "coordinates": [19.68226, 46.139952]}},
{"type": "Feature", "id": "wc3kFc-RUEryVYLXVX8WG3Lbb-g=", "properties": {"ref": "146", "@spider": "univerexport_dac", "addr:full": "Pu\u0161kinov trg 4", "addr:country": "Serbia", "phone": "024/524-605", "website": "https://univerexport.rs/", "brand": "Univerexport"}, "geometry": {"type": "Point", "coordinates": [19.671686, 46.096675]}},
{"type": "Feature", "id": "eG_x6MrLcYuDUOnhFyI5268SV4E=", "properties": {"ref": "133", "@spider": "univerexport_dac", "addr:full": "Ognjena Price 45", "addr:country": "Serbia", "phone": "024/571-115", "website": "https://univerexport.rs/", "brand": "Univerexport"}, "geometry": {"type": "Point", "coordinates": [19.662165, 46.109886]}},
{"type": "Feature", "id": "DJUOJStahQfO_pnvUiLzGOI5tlo=", "properties": {"ref": "156", "@spider": "univerexport_dac", "addr:full": "Borisa Kidri\u010da 19", "addr:country": "Serbia", "website": "https://univerexport.rs/", "brand": "Univerexport"}, "geometry": {"type": "Point", "coordinates": [19.631592, 45.9495402]}},
{"type": "Feature", "id": "kCwGNMexv4ZLcZ11rs7w_LTufT0=", "properties": {"ref": "157", "@spider": "univerexport_dac", "addr:full": "Borisa Kidri\u010da 10", "addr:country": "Serbia", "website": "https://univerexport.rs/", "brand": "Univerexport"}, "geometry": {"type": "Point", "coordinates": [19.440421, 45.894361]}},
{"type": "Feature", "id": "Udpi5F4vB5zIFAmq4BDHtc-uqbk=", "properties": {"ref": "160", "@spider": "univerexport_dac", "addr:full": "Beogradski put 43", "addr:country": "Serbia", "phone": "024/558-315", "website": "https://univerexport.rs/", "brand": "Univerexport"}, "geometry": {"type": "Point", "coordinates": [19.66519, 46.090295]}},
{"type": "Feature", "id": "CtarLOGV1EAbh54uf_DKptye4_k=", "properties": {"ref": "163", "@spider": "univerexport_dac", "addr:full": "Lenjinova 44", "addr:country": "Serbia", "phone": "024/851-041", "website": "https://univerexport.rs/", "brand": "Univerexport"}, "geometry": {"type": "Point", "coordinates": [20.1233198, 45.7994354]}},
{"type": "Feature", "id": "jxlgyVGNQAeLkPicEj9EVW_JJi8=", "properties": {"ref": "137", "@spider": "univerexport_dac", "addr:full": "Roga\u0161ka 31", "addr:country": "Serbia", "phone": "024/754-003", "website": "https://univerexport.rs/", "brand": "Univerexport"}, "geometry": {"type": "Point", "coordinates": [19.7444731, 46.1070231]}},
{"type": "Feature", "id": "z9QoDvj6SUitPn_gYHgiVtCOW9c=", "properties": {"ref": "168", "@spider": "univerexport_dac", "addr:full": "Georgija Dimitrova 16", "addr:country": "Serbia", "phone": "024/537-332", "website": "https://univerexport.rs/", "brand": "Univerexport"}, "geometry": {"type": "Point", "coordinates": [19.6522335, 46.0980339]}},
{"type": "Feature", "id": "6kC08G8PPwUxzHCezLDI2e-Ounc=", "properties": {"ref": "164", "@spider": "univerexport_dac", "addr:full": "Aranj Jano\u0161a 2a", "addr:country": "Serbia", "website": "https://univerexport.rs/", "brand": "Univerexport"}, "geometry": {"type": "Point", "coordinates": [19.9133751, 46.0674807]}},
{"type": "Feature", "id": "V0AEL6zBDHXffvzMB0Pn5Gcc8NM=", "properties": {"ref": "151", "@spider": "univerexport_dac", "addr:full": "Trg Jakaba i Komora bb", "addr:country": "Serbia", "phone": "024/551-917", "website": "https://univerexport.rs/", "brand": "Univerexport"}, "geometry": {"type": "Point", "coordinates": [19.659922, 46.102206]}}]}