{"type":"FeatureCollection","features":[{"type": "Feature", "id": "3URqlx67w6M8ZbdedNEyRQr0U_0=", "properties": {"ref": "216", "@spider": "wilsonparking_dac", "addr:full": "8 Sun Yip Street, Chai Wan", "addr:city": "Hong Kong", "addr:state": "Chai Wan", "addr:country": "China", "name": "8 Commercial Tower", "website": "https://www.wilsonparking.com.hk/en-us"}, "geometry": {"type": "Point", "coordinates": [114.24690261483192, 22.267064990004062]}},
{"type": "Feature", "id": "iplfaUGicBhbdTmC3gCNDnPcdP8=", "properties": {"ref": "397", "@spider": "wilsonparking_dac", "addr:full": "No.909 Cheung Sha Wan Road, Cheung Sha Wan, Kowloon", "addr:city": "Hong Kong", "addr:state": "Cheung Sha Wan", "addr:country": "China", "name": "909 Cheung Sha Wan Road", "website": "https://www.wilsonparking.com.hk/en-us"}, "geometry": {"type": "Point", "coordinates": [114.1461728096285, 22.336350338383234]}},
{"type": "Feature", "id": "8CJPvE3IM_zUpPC_g9NkBMS3GTQ=", "properties": {"ref": "200", "@spider": "wilsonparking_dac", "addr:full": "Rodney Street, Queensway, Admiralty", "addr:city": "Hong Kong", "addr:state": "Admiralty", "addr:country": "China", "name": "Admiralty Car Park", "website": "https://www.wilsonparking.com.hk/en-us"}, "geometry": {"type": "Point", "coordinates": [114.16585832834244, 22.27841186364058]}},
{"type": "Feature", "id": "vhHQ1CP2zsHaD6vhUfthY9h-s6M=", "properties": {"ref": "111", "@spider": "wilsonparking_dac", "addr:full": "1/F & 2/F AquaMarine, 8 Sham Shing Road, Lai Chi Kok", "addr:city": "Hong Kong", "addr:state": "Lai Chi Kok", "addr:country": "China", "name": "AEON Lai Chi Kok Store", "website": "https://www.wilsonparking.com.hk/en-us"}, "geometry": {"type": "Point", "coordinates": [114.14855539798737, 22.33315878150711]}},
{"type": "Feature", "id": "toZJZBIY1epfJ-zlWmrK-iR8T8Q=", "properties": {"ref": "219", "@spider": "wilsonparking_dac", "addr:full": "22-26A Austin Avenue, Tsim Sha Tsui", "addr:city": "Hong Kong", "addr:state": "Tsim Sha Tsui", "addr:country": "China", "name": "Austin Tower", "website": "https://www.wilsonparking.com.hk/en-us"}, "geometry": {"type": "Point", "coordinates": [114.17506635189056, 22.302892061110796]}},
{"type": "Feature", "id": "I7dfIvVJdDP2eL2swr1jxMkndOg=", "properties": {"ref": "238", "@spider": "wilsonparking_dac", "addr:full": "59-65 Bedford Road, Tai Kok Tsui", "addr:city": "Hong Kong", "addr:state": "Tai Kok Tsui", "addr:country": "China", "name": "Bedford Road", "website": "https://www.wilsonparking.com.hk/en-us"}, "geometry": {"type": "Point", "coordinates": [114.16388288140297, 22.322869626994255]}},
{"type": "Feature", "id": "i8sfFoRZ7xm6oK8FUgeCzQDDp6c=", "properties": {"ref": "108", "@spider": "wilsonparking_dac", "addr:full": "Level 1, Bellagio, 33 Castle Peak Road, Sham Tseng", "addr:city": "Hong Kong", "addr:state": "Sham Tseng", "addr:country": "China", "name": "Bellagio", "website": "https://www.wilsonparking.com.hk/en-us"}, "geometry": {"type": "Point", "coordinates": [114.06098127365112, 22.367320672030896]}},
{"type": "Feature", "id": "HK0LOQEuDXqxx0ExthDt9Yeot9s=", "properties": {"ref": "103", "@spider": "wilsonparking_dac", "addr:full": "No. 171 Prince Edward Road West, Mongkok", "addr:city": "Hong Kong", "addr:state": "Prince Edward", "addr:country": "China", "name": "Bijou Court", "website": "https://www.wilsonparking.com.hk/en-us"}, "geometry": {"type": "Point", "coordinates": [114.16956782341003, 22.323993605796698]}},
{"type": "Feature", "id": "LN6kDOHfTpBuaMcY2pHCv6nOrPg=", "properties": {"ref": "169", "@spider": "wilsonparking_dac", "addr:full": "11 Leung Tak Street, Tuen Mun", "addr:city": "Hong Kong", "addr:state": "Tuen Mun", "addr:country": "China", "name": "Blossom Garden", "website": "https://www.wilsonparking.com.hk/en-us"}, "geometry": {"type": "Point", "coordinates": [113.96863549947739, 22.407666104057675]}},
{"type": "Feature", "id": "NNqNYVgUe_EDUuXjk_2Nh_IDdR0=", "properties": {"ref": "180", "@spider": "wilsonparking_dac", "addr:full": "138 Fuk Hang Tsuen Road, Lam Tei, Tuen Mun", "addr:city": "Hong Kong", "addr:state": "Tuen Mun", "addr:country": "China", "name": "Botania Villa", "website": "https://www.wilsonparking.com.hk/en-us"}, "geometry": {"type": "Point", "coordinates": [113.9852332, 22.4184139]}},
{"type": "Feature", "id": "CrQhwjIT6wU-jXLHkIfmdeVS3t0=", "properties": {"ref": "36", "@spider": "wilsonparking_dac", "addr:full": "No. 23 Shiu Wo Street, Tsuen Wan", "addr:city": "Hong Kong", "addr:state": "Tsuen Wan", "addr:country": "China", "name": "Brighton Place", "website": "https://www.wilsonparking.com.hk/en-us"}, "geometry": {"type": "Point", "coordinates": [114.11748692302706, 22.37215336437068]}},
{"type": "Feature", "id": "vm4IfRn_dhBrw9eXUF4o43uraf4=", "properties": {"ref": "385", "@spider": "wilsonparking_dac", "addr:full": "1 Wu Chui Road, Tuen Mun", "addr:city": "Hong Kong", "addr:state": "Tuen Mun", "addr:country": "China", "name": "Butterfly Car Park", "website": "https://www.wilsonparking.com.hk/en-us"}, "geometry": {"type": "Point", "coordinates": [113.963147, 22.375571]}},
{"type": "Feature", "id": "uKCIpPvZwP3iCMW75I_KO50uHZM=", "properties": {"ref": "101", "@spider": "wilsonparking_dac", "addr:full": "85-95 Un Chau Street, Sham Shui Po", "addr:city": "Hong Kong", "addr:state": "Sham Shui Po", "addr:country": "China", "name": "Capital Building", "website": "https://www.wilsonparking.com.hk/en-us"}, "geometry": {"type": "Point", "coordinates": [114.16266515851021, 22.33274817268661]}},
{"type": "Feature", "id": "RClzauaQWEhO513-TUkqclmLVSI=", "properties": {"ref": "303", "@spider": "wilsonparking_dac", "addr:full": "No. 93 Chung Hau Street, Ho Man Tin", "addr:city": "Hong Kong", "addr:state": "Ho Man Tin", "addr:country": "China", "name": "Cascades", "website": "https://www.wilsonparking.com.hk/en-us"}, "geometry": {"type": "Point", "coordinates": [114.1800088, 22.3160759]}},
{"type": "Feature", "id": "NcCCqDy3vrlRDEU3LtWTP32eFCc=", "properties": {"ref": "185", "@spider": "wilsonparking_dac", "addr:full": "Siu Lek Yuen Road, Shatin", "addr:city": "Hong Kong", "addr:state": "Shatin", "addr:country": "China", "name": "Castello", "website": "https://www.wilsonparking.com.hk/en-us"}, "geometry": {"type": "Point", "coordinates": [114.21604245901108, 22.38278267844513]}},
{"type": "Feature", "id": "sgKwCpPhwx9CYX7J-2rNqZmvvtE=", "properties": {"ref": "399", "@spider": "wilsonparking_dac", "addr:full": "No. 29 Ka Wai Man Road, Kennedy Town", "addr:city": "Hong Kong", "addr:state": "Kennedy Town", "addr:country": "China", "name": "Cayman Rise", "website": "https://www.wilsonparking.com.hk/en-us"}, "geometry": {"type": "Point", "coordinates": [114.1248239, 22.2812806]}},
{"type": "Feature", "id": "8ozW-PlvW2r4Q_dADRld6KPLXp8=", "properties": {"ref": "242", "@spider": "wilsonparking_dac", "addr:full": "11 Wo Shing Street, Fo Tan", "addr:city": "Hong Kong", "addr:state": "Fo Tan", "addr:country": "China", "name": "CCT Telecom Building", "website": "https://www.wilsonparking.com.hk/en-us"}, "geometry": {"type": "Point", "coordinates": [114.19789731502533, 22.39745684977921]}},
{"type": "Feature", "id": "jUQkbJhU4EnVovUdbriAHX80QTU=", "properties": {"ref": "13", "@spider": "wilsonparking_dac", "addr:full": "No.11 Sheung Yuet Road, Kowloon Bay", "addr:city": "Hong Kong", "addr:state": "Kowloon Bay", "addr:country": "China", "name": "Centre Parc", "website": "https://www.wilsonparking.com.hk/en-us"}, "geometry": {"type": "Point", "coordinates": [114.208289, 22.3221934]}},
{"type": "Feature", "id": "0lR_heGojdzCDbtn9YWG4zivi4c=", "properties": {"ref": "14", "@spider": "wilsonparking_dac", "addr:full": "1 Shek Pai Tau Path, Tuen Mun", "addr:city": "Hong Kong", "addr:state": "Tuen Mun", "addr:country": "China", "name": "Chelsea Heights Phase I", "website": "https://www.wilsonparking.com.hk/en-us"}, "geometry": {"type": "Point", "coordinates": [113.9746859322521, 22.40159915915589]}},
{"type": "Feature", "id": "ygmi-5qA-ICBXIroRIB4ntR2AH4=", "properties": {"ref": "122", "@spider": "wilsonparking_dac", "addr:full": "1 Shek Pai Tau Path, Tuen Mun", "addr:city": "Hong Kong", "addr:state": "Tuen Mun", "addr:country": "China", "name": "Chelsea Heights Phase II", "website": "https://www.wilsonparking.com.hk/en-us"}, "geometry": {"type": "Point", "coordinates": [113.97438883781433, 22.400442582486733]}},
{"type": "Feature", "id": "DOToFIJNbjWVJY_NVMKEM823Dzc=", "properties": {"ref": "252", "@spider": "wilsonparking_dac", "addr:full": "5-7 San Lau Street, To Kwa Wan", "addr:city": "Hong Kong", "addr:state": "To Kwa Wan", "addr:country": "China", "name": "Cheong Shing Court", "website": "https://www.wilsonparking.com.hk/en-us"}, "geometry": {"type": "Point", "coordinates": [114.18699949979782, 22.312345222930762]}},
{"type": "Feature", "id": "9Hc39fChdJlxE_gQikCzQWI7HYo=", "properties": {"ref": "151", "@spider": "wilsonparking_dac", "addr:full": "Cheung Ching Estate, Tsing Yi", "addr:city": "Hong Kong", "addr:state": "Tsing Yi", "addr:country": "China", "name": "Cheung Ching Estate", "website": "https://www.wilsonparking.com.hk/en-us"}, "geometry": {"type": "Point", "coordinates": [114.10766780376434, 22.349991461776707]}},
{"type": "Feature", "id": "oaK4X9LUnc3ybC_PhOgv-A1klU4=", "properties": {"ref": "240", "@spider": "wilsonparking_dac", "addr:full": "Cheung Fat Shopping Centre, Tsing Yi", "addr:city": "Hong Kong", "addr:state": "Tsing Yi", "addr:country": "China", "name": "Cheung Fat Car Park", "website": "https://www.wilsonparking.com.hk/en-us"}, "geometry": {"type": "Point", "coordinates": [114.10220950841904, 22.361804134754433]}},
{"type": "Feature", "id": "VTKP18JGCMPq2kTgJT_No-XuhPU=", "properties": {"ref": "241", "@spider": "wilsonparking_dac", "addr:full": "Cheung On Estate, Tsing Yi", "addr:city": "Hong Kong", "addr:state": "Tsing Yi", "addr:country": "China", "name": "Cheung On Car Park", "website": "https://www.wilsonparking.com.hk/en-us"}, "geometry": {"type": "Point", "coordinates": [114.10085499286652, 22.362235742223316]}},
{"type": "Feature", "id": "acCLjBR7xBI2Yxi0WYZZ9D2RAPU=", "properties": {"ref": "229", "@spider": "wilsonparking_dac", "addr:full": "36 Yen Chow Street West, Cheung Sha Wan", "addr:city": "Hong Kong", "addr:state": "Cheung Sha Wan", "addr:country": "China", "name": "Cheung Sha Wan Wholesale Food Market", "website": "https://www.wilsonparking.com.hk/en-us"}, "geometry": {"type": "Point", "coordinates": [114.15307760238647, 22.323584210592408]}},
{"type": "Feature", "id": "GybFZMEHkNOgeVbqs7oj9HgLCVY=", "properties": {"ref": "152", "@spider": "wilsonparking_dac", "addr:full": "Cheung Shan Estate, Tsuen Wan", "addr:city": "Hong Kong", "addr:state": "Tsuen Wan", "addr:country": "China", "name": "Cheung Shan Estate", "website": "https://www.wilsonparking.com.hk/en-us"}, "geometry": {"type": "Point", "coordinates": [114.1297236084938, 22.378112510125575]}},
{"type": "Feature", "id": "WjER-yV5AUJGRNZ9WpJWQJ5EbqQ=", "properties": {"ref": "262", "@spider": "wilsonparking_dac", "addr:full": "Cheung Wang Estate, Tsing Yi", "addr:city": "Hong Kong", "addr:state": "Tsing Yi", "addr:country": "China", "name": "Cheung Wang Car Park", "website": "https://www.wilsonparking.com.hk/en-us"}, "geometry": {"type": "Point", "coordinates": [114.09671634435654, 22.35738628254684]}},
{"type": "Feature", "id": "hP-8pVKE0smhkeoIAhQAm5Rpu8E=", "properties": {"ref": "348", "@spider": "wilsonparking_dac", "addr:full": "Cheung Wo Court, Kwun Tong", "addr:city": "Hong Kong", "addr:state": "Kwun Tong", "addr:country": "China", "name": "Cheung Wo Court Car Park", "website": "https://www.wilsonparking.com.hk/en-us"}, "geometry": {"type": "Point", "coordinates": [114.22712, 22.3201415]}},
{"type": "Feature", "id": "ptokL0ueY26oyPhz-aAsBqgh0WM=", "properties": {"ref": "125", "@spider": "wilsonparking_dac", "addr:full": "Chi Fu Road, Pok Fu Lum", "addr:city": "Hong Kong", "addr:state": "Pok Fu Lam", "addr:country": "China", "name": "Chi Fu Fa Yuen", "website": "https://www.wilsonparking.com.hk/en-us"}, "geometry": {"type": "Point", "coordinates": [114.13907378911972, 22.25798484266325]}},
{"type": "Feature", "id": "RtyKZK89DqeGexrr0kMlhsc2gso=", "properties": {"ref": "26", "@spider": "wilsonparking_dac", "addr:full": "Chi Shin Street, Tseung Kwan O", "addr:city": "Hong Kong", "addr:state": "Tseung Kwan O", "addr:country": "China", "name": "Chi Shin Street", "website": "https://www.wilsonparking.com.hk/en-us"}, "geometry": {"type": "Point", "coordinates": [114.26005706100466, 22.30482239770379]}},
{"type": "Feature", "id": "mVC5jGTbdrdHZA2Hm7DFkn2j7-I=", "properties": {"ref": "173", "@spider": "wilsonparking_dac", "addr:full": "178 Gloucester Road, Wan Chai", "addr:city": "Hong Kong", "addr:state": "Wan Chai", "addr:country": "China", "name": "Chinachem Century Tower", "website": "https://www.wilsonparking.com.hk/en-us"}, "geometry": {"type": "Point", "coordinates": [114.17858138680458, 22.279996604736798]}},
{"type": "Feature", "id": "PAQMyAK30jqexRoSjbHQRkzJeBs=", "properties": {"ref": "284", "@spider": "wilsonparking_dac", "addr:full": "77 Mody Road, Tsim Sha Tsui", "addr:city": "Hong Kong", "addr:state": "Tsim Sha Tsui", "addr:country": "China", "name": "Chinachem Golden Plaza", "website": "https://www.wilsonparking.com.hk/en-us"}, "geometry": {"type": "Point", "coordinates": [114.17872220277786, 22.30021195657189]}},
{"type": "Feature", "id": "ZqszMqvK6Ou75y6g1LhDy01oz3Q=", "properties": {"ref": "248", "@spider": "wilsonparking_dac", "addr:full": "455 Castle Peak Road, Tsuen Wan", "addr:city": "Hong Kong", "addr:state": "Tsuen Wan", "addr:country": "China", "name": "Chinachem Tsuen Wan Plaza", "website": "https://www.wilsonparking.com.hk/en-us"}, "geometry": {"type": "Point", "coordinates": [114.11142826080322, 22.375247831184765]}},
{"type": "Feature", "id": "0cjYJVf8QESdPAsHaV0g-nxt9lM=", "properties": {"ref": "5", "@spider": "wilsonparking_dac", "addr:full": "No. 2B Ching Hong Road, Tsing Yi", "addr:city": "Hong Kong", "addr:state": "Tsing Yi", "addr:country": "China", "name": "Ching Chun Court", "website": "https://www.wilsonparking.com.hk/en-us"}, "geometry": {"type": "Point", "coordinates": [114.10804554729464, 22.346590058089216]}},
{"type": "Feature", "id": "FDmNu18sMGJ7NK5Wqi7cZLKc7jc=", "properties": {"ref": "143", "@spider": "wilsonparking_dac", "addr:full": "Ching Wah Court, Tsing Yi", "addr:city": "Hong Kong", "addr:state": "Tsing Yi", "addr:country": "China", "name": "Ching Wah Car Park", "website": "https://www.wilsonparking.com.hk/en-us"}, "geometry": {"type": "Point", "coordinates": [114.09712672233582, 22.34835914051437]}},
{"type": "Feature", "id": "g4h_F2U51rmDN11O4FbRalSgY1Q=", "properties": {"ref": "239", "@spider": "wilsonparking_dac", "addr:full": "Tsing King Road, Tsing Yi", "addr:city": "Hong Kong", "addr:state": "Tsing Yi", "addr:country": "China", "name": "Ching Wang Car Park", "website": "https://www.wilsonparking.com.hk/en-us"}, "geometry": {"type": "Point", "coordinates": [114.10492658615112, 22.362163807738057]}},
{"type": "Feature", "id": "24VeWD8uXeEvjK46ck6Dk_z7zyw=", "properties": {"ref": "20", "@spider": "wilsonparking_dac", "addr:full": "Choi Fook Estate, Ngau Tau Kok", "addr:city": "Hong Kong", "addr:state": "Ngau Tau Kok", "addr:country": "China", "name": "Choi Fook Estate", "website": "https://www.wilsonparking.com.hk/en-us"}, "geometry": {"type": "Point", "coordinates": [114.2177398493767, 22.327523980040787]}},
{"type": "Feature", "id": "2mOnStABISNtix1j7J4o_BF74Lg=", "properties": {"ref": "145", "@spider": "wilsonparking_dac", "addr:full": "Choi Fung Court, Choi Hung", "addr:city": "Hong Kong", "addr:state": "Choi Hung", "addr:country": "China", "name": "Choi Fung Court", "website": "https://www.wilsonparking.com.hk/en-us"}, "geometry": {"type": "Point", "coordinates": [114.21420246362686, 22.333561946092065]}},
{"type": "Feature", "id": "b_QpKdOs2kgRywIQmDJCGJFaHaI=", "properties": {"ref": "346", "@spider": "wilsonparking_dac", "addr:full": "Choi Hing Court, Choi Hung", "addr:city": "Hong Kong", "addr:state": "Choi Hung", "addr:country": "China", "name": "Choi Hing Court", "website": "https://www.wilsonparking.com.hk/en-us"}, "geometry": {"type": "Point", "coordinates": [114.213417, 22.3318064]}},
{"type": "Feature", "id": "yi8PKi-7wv1dXOzJlXvl53TdHSU=", "properties": {"ref": "349", "@spider": "wilsonparking_dac", "addr:full": "Choi Hung Estate, Choi Hung", "addr:city": "Hong Kong", "addr:state": "Choi Hung", "addr:country": "China", "name": "Choi Hung Estate Car Park", "website": "https://www.wilsonparking.com.hk/en-us"}, "geometry": {"type": "Point", "coordinates": [114.2042237, 22.3366955]}},
{"type": "Feature", "id": "eHFS1_tYo4SX4mhQD1Nf48-17Gc=", "properties": {"ref": "92", "@spider": "wilsonparking_dac", "addr:full": "Choi Ming Court, Tseung Kwan O", "addr:city": "Hong Kong", "addr:state": "Tseung Kwan O", "addr:country": "China", "name": "Choi Ming Car Park", "website": "https://www.wilsonparking.com.hk/en-us"}, "geometry": {"type": "Point", "coordinates": [114.25271093845367, 22.306408379533192]}},
{"type": "Feature", "id": "wosU4K5-bC6vv2f2A2hmDCSCCDs=", "properties": {"ref": "21", "@spider": "wilsonparking_dac", "addr:full": "Choi Tak Estate, Ngau Tau Kok", "addr:city": "Hong Kong", "addr:state": "Ngau Tau Kok", "addr:country": "China", "name": "Choi Tak Estate", "website": "https://www.wilsonparking.com.hk/en-us"}, "geometry": {"type": "Point", "coordinates": [114.21359047203066, 22.33106200749692]}},
{"type": "Feature", "id": "TcMMIzZNkBOdZb8geX5Y9VdojVg=", "properties": {"ref": "146", "@spider": "wilsonparking_dac", "addr:full": "Choi Wan (ll) Estate, Choi Hung", "addr:city": "Hong Kong", "addr:state": "Choi Hung", "addr:country": "China", "name": "Choi Wan (ll) Estate", "website": "https://www.wilsonparking.com.hk/en-us"}, "geometry": {"type": "Point", "coordinates": [114.21663790941238, 22.333272908215363]}},
{"type": "Feature", "id": "qtZVcfNmIMvQv4uytuZ_c1Xg_r8=", "properties": {"ref": "350", "@spider": "wilsonparking_dac", "addr:full": "Choi Ying Estate, Kwun Tong", "addr:city": "Hong Kong", "addr:state": "Kwun Tong", "addr:country": "China", "name": "Choi Ying Estate Car Park", "website": "https://www.wilsonparking.com.hk/en-us"}, "geometry": {"type": "Point", "coordinates": [114.2144386, 22.328589]}},
{"type": "Feature", "id": "uqeHIi3cBCRP7RdmKgTz1FlfYjM=", "properties": {"ref": "296", "@spider": "wilsonparking_dac", "addr:full": "1 Edinburgh Place, Central", "addr:city": "Hong Kong", "addr:state": "Central", "addr:country": "China", "name": "City Hall Car Park", "website": "https://www.wilsonparking.com.hk/en-us"}, "geometry": {"type": "Point", "coordinates": [114.16172504425049, 22.281969]}},
{"type": "Feature", "id": "7l8ZZo_TwxQpZURCm5KA7mHZkw0=", "properties": {"ref": "372", "@spider": "wilsonparking_dac", "addr:full": "No. 26 Hoi Shing Road, Tsuen Wan", "addr:city": "Hong Kong", "addr:state": "Tsuen Wan", "addr:country": "China", "name": "Clague Garden Estate", "website": "https://www.wilsonparking.com.hk/en-us"}, "geometry": {"type": "Point", "coordinates": [114.1111485, 22.3697724]}},
{"type": "Feature", "id": "7ERbT4LvNAbe1BJEvsFDTpsAEG0=", "properties": {"ref": "338", "@spider": "wilsonparking_dac", "addr:full": "Basement Level 1 - 4, 51 Garden Road, Central, Hong Kong", "addr:city": "Hong Kong", "addr:state": "Central", "addr:country": "China", "name": "Coda Plaza", "website": "https://www.wilsonparking.com.hk/en-us"}, "geometry": {"type": "Point", "coordinates": [114.1563178, 22.2763392]}},
{"type": "Feature", "id": "ARUH_H9lw7YkPzMzFL_76R2DeY4=", "properties": {"ref": "293", "@spider": "wilsonparking_dac", "addr:full": "262 Gloucester Road, Causeway Bay", "addr:city": "Hong Kong", "addr:state": "Causeway Bay", "addr:country": "China", "name": "COFCO Tower", "website": "https://www.wilsonparking.com.hk/en-us"}, "geometry": {"type": "Point", "coordinates": [114.18278843164444, 22.2817041834988]}},
{"type": "Feature", "id": "yqKfNxbDERbWU1DoDPkhpNjFC3k=", "properties": {"ref": "220", "@spider": "wilsonparking_dac", "addr:full": "B1-B2, 1 Tai Uk Street, Tsuen Wan", "addr:city": "Hong Kong", "addr:state": "Tsuen Wan", "addr:country": "China", "name": "Concord Square", "website": "https://www.wilsonparking.com.hk/en-us"}, "geometry": {"type": "Point", "coordinates": [114.11505192518234, 22.3701470685721]}},
{"type": "Feature", "id": "JhjAKjNqvszI67VpXeMnVlzWEL4=", "properties": {"ref": "327", "@spider": "wilsonparking_dac", "addr:full": "No. 8 Wu Kai Sha Road, Ma On Shan", "addr:city": "Hong Kong", "addr:state": "Ma On Shan", "addr:country": "China", "name": "Double Cove Place", "website": "https://www.wilsonparking.com.hk/en-us"}, "geometry": {"type": "Point", "coordinates": [114.241241, 22.4306255]}},
{"type": "Feature", "id": "aQsCcaTnLEcFbVWvx_t6iukm634=", "properties": {"ref": "264", "@spider": "wilsonparking_dac", "addr:full": "37K Yen Chow Street, Sham Shui Po", "addr:city": "Hong Kong", "addr:state": "Sham Shui Po", "addr:country": "China", "name": "Dragon Centre (Sham Shui Po)", "website": "https://www.wilsonparking.com.hk/en-us"}, "geometry": {"type": "Point", "coordinates": [114.15978111326694, 22.330536942772227]}},
{"type": "Feature", "id": "aCsa_5FGm0jxvrMuaOZLLFnVj4w=", "properties": {"ref": "367", "@spider": "wilsonparking_dac", "addr:full": "No. 23 Wun Sha Street, Tai Hang, Hong Kong", "addr:city": "Hong Kong", "addr:state": "Tin Hau", "addr:country": "China", "name": "Dragon Centre (Tin Hau)", "website": "https://www.wilsonparking.com.hk/en-us"}, "geometry": {"type": "Point", "coordinates": [114.192943, 22.278586]}},
{"type": "Feature", "id": "U4h3QmP8kh4Bu4PMdUk3GUQOQZ4=", "properties": {"ref": "109", "@spider": "wilsonparking_dac", "addr:full": "41 Lockhart Road, Wan Chai", "addr:city": "Hong Kong", "addr:state": "Wan Chai", "addr:country": "China", "name": "East Town Building", "website": "https://www.wilsonparking.com.hk/en-us"}, "geometry": {"type": "Point", "coordinates": [114.17063400149345, 22.278627796530348]}},
{"type": "Feature", "id": "eQG4jci1PINcPfVu12YXwqJTDvQ=", "properties": {"ref": "268", "@spider": "wilsonparking_dac", "addr:full": "609-611 Tai Nan West Street, Cheung Sha Wan", "addr:city": "Hong Kong", "addr:state": "Cheung Sha Wan", "addr:country": "China", "name": "Easy Tower", "website": "https://www.wilsonparking.com.hk/en-us"}, "geometry": {"type": "Point", "coordinates": [114.14868280291557, 22.339060994650318]}},
{"type": "Feature", "id": "r153C3kbaa7NVE06yvXsZq8aK_8=", "properties": {"ref": "121", "@spider": "wilsonparking_dac", "addr:full": "2 On Chee Road, Tai Po", "addr:city": "Hong Kong", "addr:state": "Tai Po", "addr:country": "China", "name": "Eightland Gardens", "website": "https://www.wilsonparking.com.hk/en-us"}, "geometry": {"type": "Point", "coordinates": [114.16687555611134, 22.45240054452185]}},
{"type": "Feature", "id": "bfbJO1WokWKr8WDOTyRyHI3PzZc=", "properties": {"ref": "261", "@spider": "wilsonparking_dac", "addr:full": "126 Heung Sze Wui Road, Tuen Mun", "addr:city": "Hong Kong", "addr:state": "Tuen Mun", "addr:country": "China", "name": "Eldo Court", "website": "https://www.wilsonparking.com.hk/en-us"}, "geometry": {"type": "Point", "coordinates": [113.97588148713112, 22.397947863384296]}},
{"type": "Feature", "id": "NDsF8vMT6mScE1OFHmwfnCJVlkg=", "properties": {"ref": "249", "@spider": "wilsonparking_dac", "addr:full": "88 Container Port Road, Kwai Chung", "addr:city": "Hong Kong", "addr:state": "Kwai Chung", "addr:country": "China", "name": "Ever Gain Plaza ", "website": "https://www.wilsonparking.com.hk/en-us"}, "geometry": {"type": "Point", "coordinates": [114.12447586655617, 22.353258527599575]}},
{"type": "Feature", "id": "eniPRkZbVALfSA-R-jnXPFRdMuc=", "properties": {"ref": "203", "@spider": "wilsonparking_dac", "addr:full": "9 Chui Lok Street, Tai Po", "addr:city": "Hong Kong", "addr:state": "Tai Po", "addr:country": "China", "name": "Evergreen Court", "website": "https://www.wilsonparking.com.hk/en-us"}, "geometry": {"type": "Point", "coordinates": [114.16434824466705, 22.45376826527015]}},
{"type": "Feature", "id": "vSn7rjtcNUHCQXs4Uki6wCLoreA=", "properties": {"ref": "204", "@spider": "wilsonparking_dac", "addr:full": "18 Fanling Station Road, Fanling", "addr:city": "Hong Kong", "addr:state": "Fanling", "addr:country": "China", "name": "Fanling Town Centre", "website": "https://www.wilsonparking.com.hk/en-us"}, "geometry": {"type": "Point", "coordinates": [114.13885116577148, 22.492383607039063]}},
{"type": "Feature", "id": "-55ETr_a7cW2jO2FocwaqMQatvQ=", "properties": {"ref": "266", "@spider": "wilsonparking_dac", "addr:full": "4 On Chee Road, Tai Po", "addr:city": "Hong Kong", "addr:state": "Tai Po", "addr:country": "China", "name": "Fortune Plaza", "website": "https://www.wilsonparking.com.hk/en-us"}, "geometry": {"type": "Point", "coordinates": [114.16741669178009, 22.452263585788028]}},
{"type": "Feature", "id": "Nem8UYQ6-Ba-hp0-BugcI-ifIxE=", "properties": {"ref": "272", "@spider": "wilsonparking_dac", "addr:full": "Fu Keung Court, Wang Tau Hom", "addr:city": "Hong Kong", "addr:state": "Wang Tau Hom", "addr:country": "China", "name": "Fu Keung Court", "website": "https://www.wilsonparking.com.hk/en-us"}, "geometry": {"type": "Point", "coordinates": [114.18489396572113, 22.340594189469297]}},
{"type": "Feature", "id": "eXchE-rpvmJMHYGhgxWNLcZfKhA=", "properties": {"ref": "147", "@spider": "wilsonparking_dac", "addr:full": "Fu Shan Estate, Hammer Hill, Diamond Hill", "addr:city": "Hong Kong", "addr:state": "Diamond Hill", "addr:country": "China", "name": "Fu Shan Estate", "website": "https://www.wilsonparking.com.hk/en-us"}, "geometry": {"type": "Point", "coordinates": [114.20817285776138, 22.34220179311339]}},
{"type": "Feature", "id": "gE3GxuYDvMm1xcOVfMh6V5yE3DQ=", "properties": {"ref": "289", "@spider": "wilsonparking_dac", "addr:full": "9 Sai Ching Street, Yuen Long", "addr:city": "Hong Kong", "addr:state": "Yuen Long", "addr:country": "China", "name": "Fu Shing Building", "website": "https://www.wilsonparking.com.hk/en-us"}, "geometry": {"type": "Point", "coordinates": [114.02753680944443, 22.442183423480422]}},
{"type": "Feature", "id": "JzPMVMA9SSoUiZCpqoDVC_FaUHk=", "properties": {"ref": "386", "@spider": "wilsonparking_dac", "addr:full": "9 Tuen Kwai Road, Tuen Mun", "addr:city": "Hong Kong", "addr:state": "Tuen Mun", "addr:country": "China", "name": "Fu Tai Car Park", "website": "https://www.wilsonparking.com.hk/en-us"}, "geometry": {"type": "Point", "coordinates": [113.983461, 22.414281]}},
{"type": "Feature", "id": "j1Ixi82MRtb1TmMNjVuE7Pjge6o=", "properties": {"ref": "144", "@spider": "wilsonparking_dac", "addr:full": "Fu Tung Estate, Tung Chung", "addr:city": "Hong Kong", "addr:state": "Tung Chung", "addr:country": "China", "name": "Fu Tung Car Park", "website": "https://www.wilsonparking.com.hk/en-us"}, "geometry": {"type": "Point", "coordinates": [113.94191801548004, 22.288188077158523]}},
{"type": "Feature", "id": "-pOFJUHUgtLaw2jWyoVxqn_pxEU=", "properties": {"ref": "153", "@spider": "wilsonparking_dac", "addr:full": "Fuk Loi Estate, Tsuen Wan", "addr:city": "Hong Kong", "addr:state": "Tsuen Wan", "addr:country": "China", "name": "Fuk Loi Estate", "website": "https://www.wilsonparking.com.hk/en-us"}, "geometry": {"type": "Point", "coordinates": [114.11306440830231, 22.373342973068496]}},
{"type": "Feature", "id": "MMZsieZc4ovx35cZ5zZ2fGtlqs8=", "properties": {"ref": "192", "@spider": "wilsonparking_dac", "addr:full": "Fung Nam Road, Sheung Shui", "addr:city": "Hong Kong", "addr:state": "Sheung Shui", "addr:country": "China", "name": "Fung Nam Road", "website": "https://www.wilsonparking.com.hk/en-us"}, "geometry": {"type": "Point", "coordinates": [114.1281022131443, 22.507611150843626]}},
{"type": "Feature", "id": "rV5JuR7OANkQLgfJ5CPl4Vnb6O8=", "properties": {"ref": "187", "@spider": "wilsonparking_dac", "addr:full": "1 Sai Lau Kok Road, Tsuen Wan", "addr:city": "Hong Kong", "addr:state": "Tsuen Wan", "addr:country": "China", "name": "Grand City Plaza", "website": "https://www.wilsonparking.com.hk/en-us"}, "geometry": {"type": "Point", "coordinates": [114.1145175, 22.3747279]}},
{"type": "Feature", "id": "FXoVKBAlqxn4_7RYswC79tDKMxw=", "properties": {"ref": "165", "@spider": "wilsonparking_dac", "addr:full": "38 San Ma Tau Street, Tokwawan", "addr:city": "Hong Kong", "addr:state": "To Kwa Wan", "addr:country": "China", "name": "Grand Waterfront", "website": "https://www.wilsonparking.com.hk/en-us"}, "geometry": {"type": "Point", "coordinates": [114.19393301010132, 22.318730925021367]}},
{"type": "Feature", "id": "S1C_S6VRyFMj2Otbe-khfOipqnw=", "properties": {"ref": "221", "@spider": "wilsonparking_dac", "addr:full": "16 Mei Tin Road / 15 & 35 Tsuen Nam Road, Tai Wai", "addr:city": "Hong Kong", "addr:state": "Tai Wai", "addr:country": "China", "name": "Grandway Garden", "website": "https://www.wilsonparking.com.hk/en-us"}, "geometry": {"type": "Point", "coordinates": [114.17786121368408, 22.373975448380783]}},
{"type": "Feature", "id": "eSQehO-IbV6XxlXtIsaDm2t0s1w=", "properties": {"ref": "113", "@spider": "wilsonparking_dac", "addr:full": "No. 34 Lee Chung Street, Chai Wan", "addr:city": "Hong Kong", "addr:state": "Chai Wan", "addr:country": "China", "name": "Haking (Tung Shing) Industrial Building (Service Suspension)", "website": "https://www.wilsonparking.com.hk/en-us"}, "geometry": {"type": "Point", "coordinates": [114.23620194196701, 22.26625703466952]}},
{"type": "Feature", "id": "5-MS078ynxTUmcGGF9osj_O4_Hc=", "properties": {"ref": "269", "@spider": "wilsonparking_dac", "addr:full": "Electric Road, North Point", "addr:city": "Hong Kong", "addr:state": "North Point", "addr:country": "China", "name": "Harbour Heights M/S", "website": "https://www.wilsonparking.com.hk/en-us"}, "geometry": {"type": "Point", "coordinates": [114.19075, 22.287917]}},
{"type": "Feature", "id": "pTt9f985Dx-8aTNjOQZrN_ZmK08=", "properties": {"ref": "271", "@spider": "wilsonparking_dac", "addr:full": "Electric Road, North Point", "addr:city": "Hong Kong", "addr:state": "North Point", "addr:country": "China", "name": "Harbour Heights O/A", "website": "https://www.wilsonparking.com.hk/en-us"}, "geometry": {"type": "Point", "coordinates": [114.190472, 22.288222]}},
{"type": "Feature", "id": "ndqLxSF5S3n1-3kZd0Wp48CAsYA=", "properties": {"ref": "236", "@spider": "wilsonparking_dac", "addr:full": "2-20A Minden Avenue, Tsim Sha Tsui", "addr:city": "Hong Kong", "addr:state": "Tsim Sha Tsui", "addr:country": "China", "name": "Harbour Pinnacle", "website": "https://www.wilsonparking.com.hk/en-us"}, "geometry": {"type": "Point", "coordinates": [114.17451247572899, 22.296742633785076]}},
{"type": "Feature", "id": "zKFPLp-ZJyHTyrhJvl6JOMlw2oM=", "properties": {"ref": "174", "@spider": "wilsonparking_dac", "addr:full": "3-9 Sha Tin Central Street, Shatin", "addr:city": "Hong Kong", "addr:state": "Shatin", "addr:country": "China", "name": "Hilton Plaza", "website": "https://www.wilsonparking.com.hk/en-us"}, "geometry": {"type": "Point", "coordinates": [114.187066, 22.3801619]}},
{"type": "Feature", "id": "gKDR1ZbNb_uGzfGkodOKHbnoTPA=", "properties": {"ref": "85", "@spider": "wilsonparking_dac", "addr:full": "Hing Tung Estate, Shau Kei Wan", "addr:city": "Hong Kong", "addr:state": "Shau Kei Wan", "addr:country": "China", "name": "Hing Tung Car Park", "website": "https://www.wilsonparking.com.hk/en-us"}, "geometry": {"type": "Point", "coordinates": [114.2192473, 22.2809806]}},
{"type": "Feature", "id": "ZFROF3QxwHVhKloFyxGuIt_4tGM=", "properties": {"ref": "84", "@spider": "wilsonparking_dac", "addr:full": "Hing Wah Estate, Chai Wan", "addr:city": "Hong Kong", "addr:state": "Chai Wan", "addr:country": "China", "name": "Hing Wah Car Park", "website": "https://www.wilsonparking.com.hk/en-us"}, "geometry": {"type": "Point", "coordinates": [114.2346704006195, 22.263104599048948]}},
{"type": "Feature", "id": "xiXaHd1IC4G7PycXzzAPj5_FY04=", "properties": {"ref": "83", "@spider": "wilsonparking_dac", "addr:full": "Hiu Lai Court, Kwun Tong", "addr:city": "Hong Kong", "addr:state": "Kwun Tong", "addr:country": "China", "name": "Hiu Lai Car Park", "website": "https://www.wilsonparking.com.hk/en-us"}, "geometry": {"type": "Point", "coordinates": [114.23047006130219, 22.318676337005016]}},
{"type": "Feature", "id": "anr__jFxzk7sqTSdhGJOL4koyYY=", "properties": {"ref": "263", "@spider": "wilsonparking_dac", "addr:full": "2-4 Village Road, Happy Valley", "addr:city": "Hong Kong", "addr:state": "Happy Valley", "addr:country": "China", "name": "HK Sanatorium & Hospital", "website": "https://www.wilsonparking.com.hk/en-us"}, "geometry": {"type": "Point", "coordinates": [114.1835988, 22.2691673]}},
{"type": "Feature", "id": "7NGYA8uJ6Tz-AijhTZq3iyUEQRI=", "properties": {"ref": "330", "@spider": "wilsonparking_dac", "addr:full": "Car Park 1, Hong Kong International Airport, Chek Lap Kok, Lantau Island    ", "addr:city": "Hong Kong", "addr:state": "Chek Lap Kok", "addr:country": "China", "name": "HKIA - Car Park 1", "website": "https://www.wilsonparking.com.hk/en-us"}, "geometry": {"type": "Point", "coordinates": [113.9361457, 22.3124376]}},
{"type": "Feature", "id": "7oyhJWEswrNZ5IvsYVwnzWskR0U=", "properties": {"ref": "332", "@spider": "wilsonparking_dac", "addr:full": "Car Park 4, Hong Kong International Airport, Chek Lap Kok, Lantau Island ", "addr:city": "Hong Kong", "addr:state": "Chek Lap Kok", "addr:country": "China", "name": "HKIA - Car Park 4", "website": "https://www.wilsonparking.com.hk/en-us"}, "geometry": {"type": "Point", "coordinates": [113.9337519, 22.3182403]}},
{"type": "Feature", "id": "kUe73aXiyL7pjlUy4zm23U9OlCc=", "properties": {"ref": "369", "@spider": "wilsonparking_dac", "addr:full": "Hong Kong International Airport, Chek Lap Kok, Lantau Island", "addr:city": "Hong Kong", "addr:state": "Chek Lap Kok", "addr:country": "China", "name": "HKIA - LGV (Hourly) Parking Area", "website": "https://www.wilsonparking.com.hk/en-us"}, "geometry": {"type": "Point", "coordinates": [113.9378033, 22.3145835]}},
{"type": "Feature", "id": "WHIX87X2ABv0BK45VFXkw3Vux5M=", "properties": {"ref": "370", "@spider": "wilsonparking_dac", "addr:full": "LGV Loading & Unloading Area, Hong Kong International Airport, Chek Lap Kok, Lantau Island", "addr:city": "Hong Kong", "addr:state": "Chek Lap Kok", "addr:country": "China", "name": "HKIA - LGV Loading & Unloading Area", "website": "https://www.wilsonparking.com.hk/en-us"}, "geometry": {"type": "Point", "coordinates": [113.9362772, 22.3121688]}},
{"type": "Feature", "id": "3mcNB9kwcGT5Nk5V280YXpsAvf0=", "properties": {"ref": "335", "@spider": "wilsonparking_dac", "addr:full": "Loading Dock 1, Hong Kong International Airport, Chek Lap Kok, Lantau Island ", "addr:city": "Hong Kong", "addr:state": "Chek Lap Kok", "addr:country": "China", "name": "HKIA - Loading Dock 1", "website": "https://www.wilsonparking.com.hk/en-us"}, "geometry": {"type": "Point", "coordinates": [113.9360561, 22.312712]}},
{"type": "Feature", "id": "jBtAo1G775RMyD7ewHv358g_LiQ=", "properties": {"ref": "368", "@spider": "wilsonparking_dac", "addr:full": "Hong Kong International Airport, Chek Lap Kok, Lantau Island", "addr:city": "Hong Kong", "addr:state": "Chek Lap Kok", "addr:country": "China", "name": "HKIA - Pre-booked Urban & Lantau Taxi & LGV (Long Term) Parking Area", "website": "https://www.wilsonparking.com.hk/en-us"}, "geometry": {"type": "Point", "coordinates": [113.9362772, 22.3121688]}},
{"type": "Feature", "id": "_8mT9I98OesJjIiv8kXX2-rIkAY=", "properties": {"ref": "107", "@spider": "wilsonparking_dac", "addr:full": "No. 218-224 Sai Lau Kok Road, Tsuen Wan", "addr:city": "Hong Kong", "addr:state": "Tsuen Wan", "addr:country": "China", "name": "Ho Fai Garden", "website": "https://www.wilsonparking.com.hk/en-us"}, "geometry": {"type": "Point", "coordinates": [114.1211364, 22.370744]}},
{"type": "Feature", "id": "ebX0MXkq3-fic20QYR5IhDK2XNA=", "properties": {"ref": "286", "@spider": "wilsonparking_dac", "addr:full": "60 Sau Fu Street, Yuen Long", "addr:city": "Hong Kong", "addr:state": "Yuen Long", "addr:country": "China", "name": "Ho Shun Fook Building", "website": "https://www.wilsonparking.com.hk/en-us"}, "geometry": {"type": "Point", "coordinates": [114.02659803628922, 22.44540927908164]}},
{"type": "Feature", "id": "Ae91DSH78X1cmzE1ahPNxqoZrDM=", "properties": {"ref": "285", "@spider": "wilsonparking_dac", "addr:full": "423 Sai Ching Street, Yuen Long", "addr:city": "Hong Kong", "addr:state": "Yuen Long", "addr:country": "China", "name": "Ho Shun Tai Building", "website": "https://www.wilsonparking.com.hk/en-us"}, "geometry": {"type": "Point", "coordinates": [114.02766220271587, 22.442069386097817]}},
{"type": "Feature", "id": "gIQhQ4j53ZULydDglxI8SCq-bp4=", "properties": {"ref": "100", "@spider": "wilsonparking_dac", "addr:full": "Hoi Wah Road, Tuen Mun", "addr:city": "Hong Kong", "addr:state": "Tuen Mun", "addr:country": "China", "name": "Hoi Wah Road", "website": "https://www.wilsonparking.com.hk/en-us"}, "geometry": {"type": "Point", "coordinates": [113.97052645683289, 22.379739522297108]}},
{"type": "Feature", "id": "oe9J_9ccXkRQBj4u1yECOlTVPtQ=", "properties": {"ref": "96", "@spider": "wilsonparking_dac", "addr:full": "Hoi Yu Street, Quarry Bay", "addr:city": "Hong Kong", "addr:state": "Quarry Bay", "addr:country": "China", "name": "Hoi Yu Street Waterfront Promenade", "website": "https://www.wilsonparking.com.hk/en-us"}, "geometry": {"type": "Point", "coordinates": [114.2122788, 22.2909312]}},
{"type": "Feature", "id": "9qkG9kXLIeWIP1c3rjof3lqPJKI=", "properties": {"ref": "115", "@spider": "wilsonparking_dac", "addr:full": "No. 123 Hollywood Road, Sheung Wan", "addr:city": "Hong Kong", "addr:state": "Sheung Wan", "addr:country": "China", "name": "Hollywood Terrace", "website": "https://www.wilsonparking.com.hk/en-us"}, "geometry": {"type": "Point", "coordinates": [114.1507239639759, 22.283993745843215]}},
{"type": "Feature", "id": "C5WTzx8Ar6wlC4YABLV5rHTFBJs=", "properties": {"ref": "199", "@spider": "wilsonparking_dac", "addr:full": "86 Tseuk Luk Street, San Po Kong", "addr:city": "Hong Kong", "addr:state": "San Po Kong", "addr:country": "China", "name": "Hong King Building", "website": "https://www.wilsonparking.com.hk/en-us"}, "geometry": {"type": "Point", "coordinates": [114.1972714, 22.3354289]}},
{"type": "Feature", "id": "YM3_tYvdYUZ-iMbGV5VS6PV22WI=", "properties": {"ref": "167", "@spider": "wilsonparking_dac", "addr:full": "188 Connaught Road West, Sai Ying Pun", "addr:city": "Hong Kong", "addr:state": "Sai Ying Pun", "addr:country": "China", "name": "Hong Kong Plaza", "website": "https://www.wilsonparking.com.hk/en-us"}, "geometry": {"type": "Point", "coordinates": [114.1363513469696, 22.2871060013613]}},
{"type": "Feature", "id": "OtiZNiSbM5j6MEOh4ikfwr8EWSk=", "properties": {"ref": "279", "@spider": "wilsonparking_dac", "addr:full": "Heung Sze Wui Road, Tuen Mun", "addr:city": "Hong Kong", "addr:state": "Tuen Mun", "addr:country": "China", "name": "Hong Lai Gardens", "website": "https://www.wilsonparking.com.hk/en-us"}, "geometry": {"type": "Point", "coordinates": [113.97460341453552, 22.398776134929424]}},
{"type": "Feature", "id": "lZhsQFxDOL2VIGg8oPe7wvTgbTc=", "properties": {"ref": "81", "@spider": "wilsonparking_dac", "addr:full": "Hong Pak Court, Yau Tong", "addr:city": "Hong Kong", "addr:state": "Yau Tong", "addr:country": "China", "name": "Hong Pak Car Park", "website": "https://www.wilsonparking.com.hk/en-us"}, "geometry": {"type": "Point", "coordinates": [114.23890292644501, 22.30295658151217]}},
{"type": "Feature", "id": "3atXzDTE2X5dQobarVR3E9fYdQU=", "properties": {"ref": "75", "@spider": "wilsonparking_dac", "addr:full": "Hong Shui Court, Yau Tong", "addr:city": "Hong Kong", "addr:state": "Yau Tong", "addr:country": "China", "name": "Hong Shui Car Park", "website": "https://www.wilsonparking.com.hk/en-us"}, "geometry": {"type": "Point", "coordinates": [114.24129009246826, 22.301688502007448]}},
{"type": "Feature", "id": "qPf4Irm8WsNOqvudZSA2gzEOL6k=", "properties": {"ref": "351", "@spider": "wilsonparking_dac", "addr:full": "Hong Tin Court, Lam Tin", "addr:city": "Hong Kong", "addr:state": "Lam Tin", "addr:country": "China", "name": "Hong Tin Court Car Park", "website": "https://www.wilsonparking.com.hk/en-us"}, "geometry": {"type": "Point", "coordinates": [114.2350452, 22.3075601]}},
{"type": "Feature", "id": "LcsM8yUtHY1bfhd9G1CA5VWZrak=", "properties": {"ref": "352", "@spider": "wilsonparking_dac", "addr:full": "Hong Wah Court, Lam Tin", "addr:city": "Hong Kong", "addr:state": "Lam Tin", "addr:country": "China", "name": "Hong Wah Court Car Park", "website": "https://www.wilsonparking.com.hk/en-us"}, "geometry": {"type": "Point", "coordinates": [114.2406164, 22.3137696]}},
{"type": "Feature", "id": "CKvZzPeyPNXdNAr1J5EnGRL1NZg=", "properties": {"ref": "74", "@spider": "wilsonparking_dac", "addr:full": "Hong Yat Court, Yau Tong", "addr:city": "Hong Kong", "addr:state": "Yau Tong", "addr:country": "China", "name": "Hong Yat Car Park", "website": "https://www.wilsonparking.com.hk/en-us"}, "geometry": {"type": "Point", "coordinates": [114.23422783613205, 22.310066050833704]}},
{"type": "Feature", "id": "we1N2vtpFctDnrwtcz72-bPEigI=", "properties": {"ref": "172", "@spider": "wilsonparking_dac", "addr:full": "1 Shum Mong Road, Tai Kok Tsui", "addr:city": "Hong Kong", "addr:state": "Tai Kok Tsui", "addr:country": "China", "name": "HSBC Centre", "website": "https://www.wilsonparking.com.hk/en-us"}, "geometry": {"type": "Point", "coordinates": [114.16067898273468, 22.319356204413115]}},
{"type": "Feature", "id": "wWbw_v7d3OkcSthO0peM_dyz9Kw=", "properties": {"ref": "329", "@spider": "wilsonparking_dac", "addr:full": "B1/F, 1 North Point Estate Lane, North Point", "addr:city": "Hong Kong", "addr:state": "North Point", "addr:country": "China", "name": "Hyatt Centric", "website": "https://www.wilsonparking.com.hk/en-us"}, "geometry": {"type": "Point", "coordinates": [114.1992249, 22.2924714]}},
{"type": "Feature", "id": "Tva5z5E_eWg2OmMlfpvWqe1iHTw=", "properties": {"ref": "340", "@spider": "wilsonparking_dac", "addr:full": "Car Park 1, HZMB Hong Kong Port Artificial Island, Chek Lap Kok, Lantau Island", "addr:city": "Hong Kong", "addr:state": "Chek Lap Kok", "addr:country": "China", "name": "HZMB Hong Kong Port - Car Park 1", "website": "https://www.wilsonparking.com.hk/en-us"}, "geometry": {"type": "Point", "coordinates": [113.952456, 22.31671]}},
{"type": "Feature", "id": "tbx72AgQ2zN_mQDK-f6QD1dhILg=", "properties": {"ref": "341", "@spider": "wilsonparking_dac", "addr:full": "Car Park 2, HZMB Hong Kong Port Artificial Island, Chek Lap Kok, Lantau Island", "addr:city": "Hong Kong", "addr:state": "Chek Lap Kok", "addr:country": "China", "name": "HZMB Hong Kong Port - Car Park 2", "website": "https://www.wilsonparking.com.hk/en-us"}, "geometry": {"type": "Point", "coordinates": [113.952561, 22.315912]}},
{"type": "Feature", "id": "T-0BCxiiEZ0CV8-kdShDFbFYmZU=", "properties": {"ref": "342", "@spider": "wilsonparking_dac", "addr:full": "Car Park 3, HZMB Hong Kong Port Artificial Island, Chek Lap Kok, Lantau Island", "addr:city": "Hong Kong", "addr:state": "Chek Lap Kok", "addr:country": "China", "name": "HZMB Hong Kong Port - Car Park 3", "website": "https://www.wilsonparking.com.hk/en-us"}, "geometry": {"type": "Point", "coordinates": [113.953208, 22.314997]}},
{"type": "Feature", "id": "jrA1FRysAtye3sSpBAfMJ-hllaw=", "properties": {"ref": "343", "@spider": "wilsonparking_dac", "addr:full": "Car Park 4, HZMB Hong Kong Port Artificial Island, Chek Lap Kok, Lantau Island", "addr:city": "Hong Kong", "addr:state": "Chek Lap Kok", "addr:country": "China", "name": "HZMB Hong Kong Port - Car Park 4", "website": "https://www.wilsonparking.com.hk/en-us"}, "geometry": {"type": "Point", "coordinates": [113.952404, 22.314]}},
{"type": "Feature", "id": "slB7WsqiF3vjtwDH75zpwoVH-G0=", "properties": {"ref": "344", "@spider": "wilsonparking_dac", "addr:full": "Car Park 5, HZMB Hong Kong Port Artificial Island, Chek Lap Kok, Lantau Island", "addr:city": "Hong Kong", "addr:state": "Chek Lap Kok", "addr:country": "China", "name": "HZMB Hong Kong Port - Car Park 5", "website": "https://www.wilsonparking.com.hk/en-us"}, "geometry": {"type": "Point", "coordinates": [113.952879, 22.314056]}},
{"type": "Feature", "id": "1VAXXjvnTRhPy5OilIr7ahvxeI4=", "properties": {"ref": "170", "@spider": "wilsonparking_dac", "addr:full": "138 Yeung Uk Road, Tsuen Wan", "addr:city": "Hong Kong", "addr:state": "Tsuen Wan", "addr:country": "China", "name": "Indihome", "website": "https://www.wilsonparking.com.hk/en-us"}, "geometry": {"type": "Point", "coordinates": [114.11846168339252, 22.365733201685213]}},
{"type": "Feature", "id": "qir7mSJ8xMCoPSI0zsN0cTxfR7E=", "properties": {"ref": "183", "@spider": "wilsonparking_dac", "addr:full": "1 Tuen Lung Street, Tuen Mun", "addr:city": "Hong Kong", "addr:state": "Tuen Mun", "addr:country": "China", "name": "K-Point", "website": "https://www.wilsonparking.com.hk/en-us"}, "geometry": {"type": "Point", "coordinates": [113.97544629871845, 22.393529918482365]}},
{"type": "Feature", "id": "s7CBeFGlVK9I_JGrJRjxejaBvZE=", "properties": {"ref": "148", "@spider": "wilsonparking_dac", "addr:full": "Ka Keung Court, Wang Tau Hom", "addr:city": "Hong Kong", "addr:state": "Wang Tau Hom", "addr:country": "China", "name": "Ka Keung Court", "website": "https://www.wilsonparking.com.hk/en-us"}, "geometry": {"type": "Point", "coordinates": [114.18487787246704, 22.341794932214817]}},
{"type": "Feature", "id": "6-entDFiseM79S8gWwI3kR93fK4=", "properties": {"ref": "353", "@spider": "wilsonparking_dac", "addr:full": "Kai Tai Court, Kowloon Bay", "addr:city": "Hong Kong", "addr:state": "Kowloon Bay", "addr:country": "China", "name": "Kai Tai Court Car Park", "website": "https://www.wilsonparking.com.hk/en-us"}, "geometry": {"type": "Point", "coordinates": [114.2109374, 22.3277921]}},
{"type": "Feature", "id": "52oK4iZJdUkGYiu-5PU1hh8lPuc=", "properties": {"ref": "73", "@spider": "wilsonparking_dac", "addr:full": "Kai Tin Estate, Yau Tong", "addr:city": "Hong Kong", "addr:state": "Yau Tong", "addr:country": "China", "name": "Kai Tin Car Park", "website": "https://www.wilsonparking.com.hk/en-us"}, "geometry": {"type": "Point", "coordinates": [114.23423856496811, 22.308748406880127]}},
{"type": "Feature", "id": "9sL0HF1voKbeckoa0EvOgz4Svlc=", "properties": {"ref": "119", "@spider": "wilsonparking_dac", "addr:full": "No. 12 Fung Yip Street, Chai Wan", "addr:city": "Hong Kong", "addr:state": "Chai Wan", "addr:country": "China", "name": "Kailey Industrial Centre", "website": "https://www.wilsonparking.com.hk/en-us"}, "geometry": {"type": "Point", "coordinates": [114.24442291259766, 22.267033962619596]}},
{"type": "Feature", "id": "tM37nziul8VS3ywLMe47lbItMQs=", "properties": {"ref": "260", "@spider": "wilsonparking_dac", "addr:full": "16 Glass Street / 4 Whifield Road, North Point", "addr:city": "Hong Kong", "addr:state": "North Point", "addr:country": "China", "name": "Kam Tao Building", "website": "https://www.wilsonparking.com.hk/en-us"}, "geometry": {"type": "Point", "coordinates": [114.1905078291893, 22.28652276895992]}},
{"type": "Feature", "id": "Z7Tl_0EZLNPcEODabA4u7MrxD60=", "properties": {"ref": "32", "@spider": "wilsonparking_dac", "addr:full": "No. 100 Kwai Cheong Road, Kwai Chung", "addr:city": "Hong Kong", "addr:state": "Kwai Chung", "addr:country": "China", "name": "KC100", "website": "https://www.wilsonparking.com.hk/en-us"}, "geometry": {"type": "Point", "coordinates": [114.1325205, 22.3611551]}},
{"type": "Feature", "id": "roKSV49l1TxN7KF_NqSrspR5qZc=", "properties": {"ref": "72", "@spider": "wilsonparking_dac", "addr:full": "Kin Ming Estate, Tseung Kwan O", "addr:city": "Hong Kong", "addr:state": "Tseung Kwan O", "addr:country": "China", "name": "Kin Ming Car Park", "website": "https://www.wilsonparking.com.hk/en-us"}, "geometry": {"type": "Point", "coordinates": [114.25091654062271, 22.30701138078635]}},
{"type": "Feature", "id": "Y7EmY_zIBmyd0ROwAITj_Ul9L6E=", "properties": {"ref": "387", "@spider": "wilsonparking_dac", "addr:full": "3 Leung Wan Street, Tuen Mun", "addr:city": "Hong Kong", "addr:state": "Tuen Mun", "addr:country": "China", "name": "Kin Sang Car Park", "website": "https://www.wilsonparking.com.hk/en-us"}, "geometry": {"type": "Point", "coordinates": [113.970116, 22.407083]}},
{"type": "Feature", "id": "u4p2LJY0loY4vuz8GQZG7O_9hsc=", "properties": {"ref": "181", "@spider": "wilsonparking_dac", "addr:full": "King Hin Court, Hammer Hill", "addr:city": "Hong Kong", "addr:state": "Diamond Hill", "addr:country": "China", "name": "King Hin Court", "website": "https://www.wilsonparking.com.hk/en-us"}, "geometry": {"type": "Point", "coordinates": [114.20878171920776, 22.34107548015872]}},
{"type": "Feature", "id": "qHfYzaJOFNFcJbqVTtN7tvOIBzY=", "properties": {"ref": "270", "@spider": "wilsonparking_dac", "addr:full": "King Shan Court, Hammer Hill", "addr:city": "Hong Kong", "addr:state": "Diamond Hill", "addr:country": "China", "name": "King Shan Court", "website": "https://www.wilsonparking.com.hk/en-us"}, "geometry": {"type": "Point", "coordinates": [114.210175, 22.3427488]}},
{"type": "Feature", "id": "xyoxSWK7ZKANCIjfzraBbYjQWO0=", "properties": {"ref": "354", "@spider": "wilsonparking_dac", "addr:full": "Ko Cheung Court, Yau Tong", "addr:city": "Hong Kong", "addr:state": "Yau Tong", "addr:country": "China", "name": "Ko Cheung Court Car Park", "website": "https://www.wilsonparking.com.hk/en-us"}, "geometry": {"type": "Point", "coordinates": [114.240966, 22.295447]}},
{"type": "Feature", "id": "iVP7G1h2wTvlG3RMK8joes1j2bA=", "properties": {"ref": "70", "@spider": "wilsonparking_dac", "addr:full": "Ko Chun Court, Yau Tong", "addr:city": "Hong Kong", "addr:state": "Yau Tong", "addr:country": "China", "name": "Ko Chun Car Park", "website": "https://www.wilsonparking.com.hk/en-us"}, "geometry": {"type": "Point", "coordinates": [114.24174875020981, 22.298085207399616]}},
{"type": "Feature", "id": "tvXjPjVndh7wemHJgeLz1_j9e2Q=", "properties": {"ref": "69", "@spider": "wilsonparking_dac", "addr:full": "Ko Yee Estate, Yau Tong", "addr:city": "Hong Kong", "addr:state": "Yau Tong", "addr:country": "China", "name": "Ko Yee Car Park", "website": "https://www.wilsonparking.com.hk/en-us"}, "geometry": {"type": "Point", "coordinates": [114.24165487289429, 22.29631330530436]}},
{"type": "Feature", "id": "AYaqlSuub09GM800MjtQQuuZAXk=", "properties": {"ref": "154", "@spider": "wilsonparking_dac", "addr:full": "Kwai Chung Estate, Kwai Chung", "addr:city": "Hong Kong", "addr:state": "Kwai Chung", "addr:country": "China", "name": "Kwai Chung Estate", "website": "https://www.wilsonparking.com.hk/en-us"}, "geometry": {"type": "Point", "coordinates": [114.12711918354034, 22.36808959647304]}},
{"type": "Feature", "id": "_29zlz1Zz-5A7mSikDXOvLk1MFE=", "properties": {"ref": "295", "@spider": "wilsonparking_dac", "addr:full": "19 Kwai Yi Road, Kwai Fong", "addr:city": "Hong Kong", "addr:state": "Kwai Fong", "addr:country": "China", "name": "Kwai Fong Car Park", "website": "https://www.wilsonparking.com.hk/en-us"}, "geometry": {"type": "Point", "coordinates": [114.12790238857269, 22.355622575294774]}},
{"type": "Feature", "id": "yeOtnlF4IUo_gIdN4pJpb2Yowuw=", "properties": {"ref": "164", "@spider": "wilsonparking_dac", "addr:full": "15 Kwai Yi Road, Kwai Fong", "addr:city": "Hong Kong", "addr:state": "Kwai Fong", "addr:country": "China", "name": "Kwai Fong Terrace", "website": "https://www.wilsonparking.com.hk/en-us"}, "geometry": {"type": "Point", "coordinates": [114.12838652729988, 22.356216681708382]}},
{"type": "Feature", "id": "qG2uFQFmm9P6E7bBu8S5rh-0D3M=", "properties": {"ref": "138", "@spider": "wilsonparking_dac", "addr:full": "Kwai Hong Court, Kwai Chung", "addr:city": "Hong Kong", "addr:state": "Kwai Chung", "addr:country": "China", "name": "Kwai Hong Car Park", "website": "https://www.wilsonparking.com.hk/en-us"}, "geometry": {"type": "Point", "coordinates": [114.1304960846901, 22.362694633754757]}},
{"type": "Feature", "id": "KNRknKI91B99avA3Lc_9pQxJe_c=", "properties": {"ref": "155", "@spider": "wilsonparking_dac", "addr:full": "Kwai Shing West Estate, Kwai Chung", "addr:city": "Hong Kong", "addr:state": "Kwai Chung", "addr:country": "China", "name": "Kwai Shing West Estate", "website": "https://www.wilsonparking.com.hk/en-us"}, "geometry": {"type": "Point", "coordinates": [114.124715924263, 22.362957565518418]}},
{"type": "Feature", "id": "X9JMOc8eUv573ihHL8X4_SCMxOs=", "properties": {"ref": "292", "@spider": "wilsonparking_dac", "addr:full": "367 Castle Peak Road, Kwai Chung", "addr:city": "Hong Kong", "addr:state": "Kwai Chung", "addr:country": "China", "name": "Kwai Sing Centre", "website": "https://www.wilsonparking.com.hk/en-us"}, "geometry": {"type": "Point", "coordinates": [114.13595169782639, 22.36540082279022]}},
{"type": "Feature", "id": "PtktBt-Mh8RLIJ2CxA_vg2PRgZ4=", "properties": {"ref": "265", "@spider": "wilsonparking_dac", "addr:full": "38 Cheung Wah Street, Cheung Sha Wan", "addr:city": "Hong Kong", "addr:state": "Cheung Sha Wan", "addr:country": "China", "name": "Lai Bo Garden", "website": "https://www.wilsonparking.com.hk/en-us"}, "geometry": {"type": "Point", "coordinates": [114.15527768433094, 22.34004777367011]}},
{"type": "Feature", "id": "BDG2R0ep8q7IYwgG3y8L8AHZqzU=", "properties": {"ref": "156", "@spider": "wilsonparking_dac", "addr:full": "Lai King Estate, Kwai Chung", "addr:city": "Hong Kong", "addr:state": "Lai King", "addr:country": "China", "name": "Lai King Estate", "website": "https://www.wilsonparking.com.hk/en-us"}, "geometry": {"type": "Point", "coordinates": [114.12751615047455, 22.351971059781064]}},
{"type": "Feature", "id": "skJ6WCWHRXm7GVZw5W6wI8VNDIc=", "properties": {"ref": "158", "@spider": "wilsonparking_dac", "addr:full": "Lai Yiu Estate, Kwai Chung", "addr:city": "Hong Kong", "addr:state": "Lai King", "addr:country": "China", "name": "Lai Yiu Estate", "website": "https://www.wilsonparking.com.hk/en-us"}, "geometry": {"type": "Point", "coordinates": [114.13126587867737, 22.354265671396128]}},
{"type": "Feature", "id": "zTkw53URGMRiYjiupDABkWCN1UA=", "properties": {"ref": "315", "@spider": "wilsonparking_dac", "addr:full": "No. 361 Shau Kei Wan Road, Shau Kei Wan", "addr:city": "Hong Kong", "addr:state": "Shau Kei Wan", "addr:country": "China", "name": "Lancashire Centre", "website": "https://www.wilsonparking.com.hk/en-us"}, "geometry": {"type": "Point", "coordinates": [114.2275115, 22.2773942]}},
{"type": "Feature", "id": "_RPVwM8q2i92ST6l9oOooFzTqso=", "properties": {"ref": "157", "@spider": "wilsonparking_dac", "addr:full": "Lei Muk Shue Estate I, Tsuen Wan", "addr:city": "Hong Kong", "addr:state": "Tsuen Wan", "addr:country": "China", "name": "Lei Muk Shue (I) Estate ", "website": "https://www.wilsonparking.com.hk/en-us"}, "geometry": {"type": "Point", "coordinates": [114.13504779338837, 22.377628867169005]}},
{"type": "Feature", "id": "8n2rIVURxZc9x0rcq0W4SyTOXjk=", "properties": {"ref": "159", "@spider": "wilsonparking_dac", "addr:full": "Lei Muk Shue Estate II, Tsuen Wan", "addr:city": "Hong Kong", "addr:state": "Tsuen Wan", "addr:country": "China", "name": "Lei Muk Shue (II) Estate ", "website": "https://www.wilsonparking.com.hk/en-us"}, "geometry": {"type": "Point", "coordinates": [114.13547694683075, 22.378015781668726]}},
{"type": "Feature", "id": "FbEz2sx3cqhGdClWyn4BXcDpXXU=", "properties": {"ref": "97", "@spider": "wilsonparking_dac", "addr:full": "Lei Muk Shue Shopping Centre, Tsuen Wan", "addr:city": "Hong Kong", "addr:state": "Tsuen Wan", "addr:country": "China", "name": "Lei Muk Shue Shopping Centre", "website": "https://www.wilsonparking.com.hk/en-us"}, "geometry": {"type": "Point", "coordinates": [114.13700044155121, 22.377866968526906]}},
{"type": "Feature", "id": "750Le4fiPpR2ILz-A7U42bIzr_k=", "properties": {"ref": "355", "@spider": "wilsonparking_dac", "addr:full": "Lei On Court, Lam Tin", "addr:city": "Hong Kong", "addr:state": "Lam Tin", "addr:country": "China", "name": "Lei On Court Car Park", "website": "https://www.wilsonparking.com.hk/en-us"}, "geometry": {"type": "Point", "coordinates": [114.2316167, 22.3088874]}},
{"type": "Feature", "id": "26J00VHoJFMN4r3QwmTYH53dfNM=", "properties": {"ref": "356", "@spider": "wilsonparking_dac", "addr:full": "Lei Yue Mun Estate, Yau Tong", "addr:city": "Hong Kong", "addr:state": "Yau Tong", "addr:country": "China", "name": "Lei Yue Mun Estate Car Park", "website": "https://www.wilsonparking.com.hk/en-us"}, "geometry": {"type": "Point", "coordinates": [114.2407968, 22.2953175]}},
{"type": "Feature", "id": "W7nCD7feXq3U8RBDe0xqFmjWRGc=", "properties": {"ref": "388", "@spider": "wilsonparking_dac", "addr:full": "31 Tin King Road, Tuen Mun", "addr:city": "Hong Kong", "addr:state": "Tuen Mun", "addr:country": "China", "name": "Leung King Car Park", "website": "https://www.wilsonparking.com.hk/en-us"}, "geometry": {"type": "Point", "coordinates": [113.96245, 22.406161]}},
{"type": "Feature", "id": "wMwrP0VDzHqqvZqTskokE2BXxkc=", "properties": {"ref": "373", "@spider": "wilsonparking_dac", "addr:full": "Lok Nga Court, 50 Chun Wah Road, Ngau Tau Kwok", "addr:city": "Hong Kong", "addr:state": "Ngau Tau Kok", "addr:country": "China", "name": "Lok Nga Car Park", "website": "https://www.wilsonparking.com.hk/en-us"}, "geometry": {"type": "Point", "coordinates": [114.2209252, 22.3223462]}},
{"type": "Feature", "id": "94I-61j6ArzGHWs06TmHBe1GU-w=", "properties": {"ref": "374", "@spider": "wilsonparking_dac", "addr:full": "Lok Wah North Estate, 70 Chun Wah Road, Ngau Tau Kwok", "addr:city": "Hong Kong", "addr:state": "Ngau Tau Kok", "addr:country": "China", "name": "Lok Wah North Car Park", "website": "https://www.wilsonparking.com.hk/en-us"}, "geometry": {"type": "Point", "coordinates": [114.220269, 22.322313]}},
{"type": "Feature", "id": "BX984Z3XuE9ktvQQt1SYJyyoMSg=", "properties": {"ref": "375", "@spider": "wilsonparking_dac", "addr:full": "Lok Wah South Estate, 70 Chun Wah Road, Ngau Tau Kwok", "addr:city": "Hong Kong", "addr:state": "Ngau Tau Kok", "addr:country": "China", "name": "Lok Wah South Car Park ", "website": "https://www.wilsonparking.com.hk/en-us"}, "geometry": {"type": "Point", "coordinates": [114.2205583, 22.3205895]}},
{"type": "Feature", "id": "7ge-lyflwKTNe_B5zm7-PRBiQFk=", "properties": {"ref": "384", "@spider": "wilsonparking_dac", "addr:full": "Long Ping Estate, 1 Long Ping Road, Yuen Long", "addr:city": "Hong Kong", "addr:state": "Yuen Long", "addr:country": "China", "name": "Long Ping Car Park", "website": "https://www.wilsonparking.com.hk/en-us"}, "geometry": {"type": "Point", "coordinates": [114.0230066, 22.4508824]}},
{"type": "Feature", "id": "Up_9JQim6PMPGD0mtxiJTvU567A=", "properties": {"ref": "357", "@spider": "wilsonparking_dac", "addr:full": "Lower Ngau Tau Kok Estate, Ngau Tau Kok", "addr:city": "Hong Kong", "addr:state": "Ngau Tau Kok", "addr:country": "China", "name": "Lower Ngau Tau Kok Estate Car Park", "website": "https://www.wilsonparking.com.hk/en-us"}, "geometry": {"type": "Point", "coordinates": [114.2155315, 22.3203403]}},
{"type": "Feature", "id": "WHyhqsVLbtVhn58QhuXm88nVoJM=", "properties": {"ref": "176", "@spider": "wilsonparking_dac", "addr:full": "363 Des Voeux Road West, Sai Ying Pun", "addr:city": "Hong Kong", "addr:state": "Sai Ying Pun", "addr:country": "China", "name": "Lun Fung Court", "website": "https://www.wilsonparking.com.hk/en-us"}, "geometry": {"type": "Point", "coordinates": [114.1364049911499, 22.28698687323877]}},
{"type": "Feature", "id": "guk9msGqKqnxVJGTsDYSRk8g4rQ=", "properties": {"ref": "251", "@spider": "wilsonparking_dac", "addr:full": "Lung Poon Court, Diamond Hill", "addr:city": "Hong Kong", "addr:state": "Diamond Hill", "addr:country": "China", "name": "Lung Poon Court", "website": "https://www.wilsonparking.com.hk/en-us"}, "geometry": {"type": "Point", "coordinates": [114.20136272907257, 22.341789970489213]}},
{"type": "Feature", "id": "PN6IlAP9UEU9yISHt-bwlg2u00s=", "properties": {"ref": "64", "@spider": "wilsonparking_dac", "addr:full": "Ma Hang Estate, Stanley", "addr:city": "Hong Kong", "addr:state": "Stanley", "addr:country": "China", "name": "Ma Hang Car Park", "website": "https://www.wilsonparking.com.hk/en-us"}, "geometry": {"type": "Point", "coordinates": [114.2068538, 22.2197139]}},
{"type": "Feature", "id": "17wD1_jEi5HHIfBzkb-dcv65E3A=", "properties": {"ref": "123", "@spider": "wilsonparking_dac", "addr:full": "Ma Miu Road, Yuen Long", "addr:city": "Hong Kong", "addr:state": "Yuen Long", "addr:country": "China", "name": "Ma Miu Road", "website": "https://www.wilsonparking.com.hk/en-us"}, "geometry": {"type": "Point", "coordinates": [114.02214825153351, 22.44518864658339]}},
{"type": "Feature", "id": "kIa8hSrFuUEwWh-0z8PwUm2AYR8=", "properties": {"ref": "94", "@spider": "wilsonparking_dac", "addr:full": "Junction of Ma Sik Road and Tin Ping Road, Sheung Shui", "addr:city": "Hong Kong", "addr:state": "Sheung Shui", "addr:country": "China", "name": "Ma Sik Road", "website": "https://www.wilsonparking.com.hk/en-us"}, "geometry": {"type": "Point", "coordinates": [114.13624674081802, 22.50290057959972]}},
{"type": "Feature", "id": "hX6rhN-ADJgXfTEZOvmBCa5zah0=", "properties": {"ref": "401", "@spider": "wilsonparking_dac", "addr:full": "8 Heung Yip Road, Wong Chuk Hang", "addr:city": "Hong Kong", "addr:state": "Wong Chuk Hang", "addr:country": "China", "name": "Marina 8", "website": "https://www.wilsonparking.com.hk/en-us"}, "geometry": {"type": "Point", "coordinates": [114.16769237094246, 22.24861357325216]}},
{"type": "Feature", "id": "NscCzlK5ATU5YBCHdXPjgYxSK_4=", "properties": {"ref": "12", "@spider": "wilsonparking_dac", "addr:full": "No.8 Wang Kwong Road, Kowloon Bay", "addr:city": "Hong Kong", "addr:state": "Kowloon Bay", "addr:country": "China", "name": "Mega Cube", "website": "https://www.wilsonparking.com.hk/en-us"}, "geometry": {"type": "Point", "coordinates": [114.20684203414919, 22.32213240928335]}},
{"type": "Feature", "id": "Pwm65qZEWFE0HaEAKepNQWh8Vts=", "properties": {"ref": "15", "@spider": "wilsonparking_dac", "addr:full": "Stage 4 Mei Foo Sun Chuen, Lai Chi Kok", "addr:city": "Hong Kong", "addr:state": "Lai Chi Kok", "addr:country": "China", "name": "Mei Foo Sun Chuen Stage 4", "website": "https://www.wilsonparking.com.hk/en-us"}, "geometry": {"type": "Point", "coordinates": [114.14241927504361, 22.336438791241047]}},
{"type": "Feature", "id": "whIhLB3hT0jkENOn0hBHsmpmf5s=", "properties": {"ref": "16", "@spider": "wilsonparking_dac", "addr:full": "Stage 7, Mei Foo Sun Chuen, Lai Chi Kok", "addr:city": "Hong Kong", "addr:state": "Lai Chi Kok", "addr:country": "China", "name": "Mei Foo Sun Chuen Stage 7", "website": "https://www.wilsonparking.com.hk/en-us"}, "geometry": {"type": "Point", "coordinates": [114.13804593324483, 22.338036519078337]}},
{"type": "Feature", "id": "mfkgcVuHsT9FK3h_3m5JGwUx8Xw=", "properties": {"ref": "403", "@spider": "wilsonparking_dac", "addr:full": "Stage 8 Mei Foo Sun Chuen, Lai Chi Kok", "addr:city": "Hong Kong", "addr:state": "Lai Chi Kok", "addr:country": "China", "name": "Mei Foo Sun Chuen Stage 8", "website": "https://www.wilsonparking.com.hk/en-us"}, "geometry": {"type": "Point", "coordinates": [114.1411088, 22.3351346]}},
{"type": "Feature", "id": "2tvn_0_5102RtfKWNndTzXXOPJk=", "properties": {"ref": "398", "@spider": "wilsonparking_dac", "addr:full": "Mei Tung Estate, Kowloon City", "addr:city": "Hong Kong", "addr:state": "Kowloon City", "addr:country": "China", "name": "Mei Tak House & Mei Yan House", "website": "https://www.wilsonparking.com.hk/en-us"}, "geometry": {"type": "Point", "coordinates": [114.1873572, 22.3333605]}},
{"type": "Feature", "id": "S5B3Sj4smGWjHrcZE5A6-LtOQ4Y=", "properties": {"ref": "195", "@spider": "wilsonparking_dac", "addr:full": "8 Lung Wan Street, Sheung Shui", "addr:city": "Hong Kong", "addr:state": "Sheung Shui", "addr:country": "China", "name": "Metropolis Plaza", "website": "https://www.wilsonparking.com.hk/en-us"}, "geometry": {"type": "Point", "coordinates": [114.1293078660965, 22.50250410126431]}},
{"type": "Feature", "id": "OTGkkF1h2CVTAMgQCTfPFKVVa3c=", "properties": {"ref": "189", "@spider": "wilsonparking_dac", "addr:full": "388 Kwun Tong Road, Kwun Tong", "addr:city": "Hong Kong", "addr:state": "Kwun Tong", "addr:country": "China", "name": "Millennium City 1", "website": "https://www.wilsonparking.com.hk/en-us"}, "geometry": {"type": "Point", "coordinates": [114.22114670276642, 22.313257129489088]}},
{"type": "Feature", "id": "wB5McuStVKSK58v3SNl5hDYpNrE=", "properties": {"ref": "190", "@spider": "wilsonparking_dac", "addr:full": "370-378 Kwun Tong Road, Kwun Tong", "addr:city": "Hong Kong", "addr:state": "Kwun Tong", "addr:country": "China", "name": "Millennium City 2 & 3", "website": "https://www.wilsonparking.com.hk/en-us"}, "geometry": {"type": "Point", "coordinates": [114.21998530626297, 22.314162826705722]}},
{"type": "Feature", "id": "0KKcxfV4cezGQsCOjI7bFZkS-Ms=", "properties": {"ref": "191", "@spider": "wilsonparking_dac", "addr:full": "392 Kwun Tong Road, Kwun Tong", "addr:city": "Hong Kong", "addr:state": "Kwun Tong", "addr:country": "China", "name": "Millennium City 6", "website": "https://www.wilsonparking.com.hk/en-us"}, "geometry": {"type": "Point", "coordinates": [114.22213912010193, 22.312870035187796]}},
{"type": "Feature", "id": "c--yCDzE_KZXfuOI50pTad2inHs=", "properties": {"ref": "186", "@spider": "wilsonparking_dac", "addr:full": "56 Kwai Cheong Road, Kwai Chung", "addr:city": "Hong Kong", "addr:state": "Kwai Chung", "addr:country": "China", "name": "Millennium Trade Centre", "website": "https://www.wilsonparking.com.hk/en-us"}, "geometry": {"type": "Point", "coordinates": [114.1327831, 22.3633317]}},
{"type": "Feature", "id": "6CIBeCMLcGVJtp8Zk3ofIEjxgQw=", "properties": {"ref": "17", "@spider": "wilsonparking_dac", "addr:full": "No. 18 Lam Lok Street, Kowloon Bay", "addr:city": "Hong Kong", "addr:state": "Kowloon Bay", "addr:country": "China", "name": "Nan Fung Commercial Centre", "website": "https://www.wilsonparking.com.hk/en-us"}, "geometry": {"type": "Point", "coordinates": [114.2075936, 22.3232263]}},
{"type": "Feature", "id": "J3zCE3aPDwCLOly42yZ8k7BM7xU=", "properties": {"ref": "255", "@spider": "wilsonparking_dac", "addr:full": "14 Science Museum Road, Tsim Sha Tsui", "addr:city": "Hong Kong", "addr:state": "Tsim Sha Tsui", "addr:country": "China", "name": "New Mandarin Plaza", "website": "https://www.wilsonparking.com.hk/en-us"}, "geometry": {"type": "Point", "coordinates": [114.17892470955849, 22.300563102825183]}},
{"type": "Feature", "id": "gtyASMbl_URzCVOrPDIHxkHTRpE=", "properties": {"ref": "201", "@spider": "wilsonparking_dac", "addr:full": "34 Tai Yau Street, San Po Kong", "addr:city": "Hong Kong", "addr:state": "San Po Kong", "addr:country": "China", "name": "New Tech Plaza", "website": "https://www.wilsonparking.com.hk/en-us"}, "geometry": {"type": "Point", "coordinates": [114.19677078723907, 22.33685792791796]}},
{"type": "Feature", "id": "1P9gNrPWg4uzoS9wC_3wlRxwxsA=", "properties": {"ref": "27", "@spider": "wilsonparking_dac", "addr:full": "2 Tuen Lee Street, Tuen Mun", "addr:city": "Hong Kong", "addr:state": "Tuen Mun", "addr:country": "China", "name": "New Town Mansion", "website": "https://www.wilsonparking.com.hk/en-us"}, "geometry": {"type": "Point", "coordinates": [113.97817432789805, 22.39116869524617]}},
{"type": "Feature", "id": "l21k-tmi2L3gP-NJXrD-YgFaURk=", "properties": {"ref": "133", "@spider": "wilsonparking_dac", "addr:full": "Ning Fung Court, Kwai Chung", "addr:city": "Hong Kong", "addr:state": "Kwai Chung", "addr:country": "China", "name": "Ning Fung Car Park", "website": "https://www.wilsonparking.com.hk/en-us"}, "geometry": {"type": "Point", "coordinates": [114.13841933012009, 22.37166627950954]}},
{"type": "Feature", "id": "QgswUWCp83mv4fGtbkVxfDozmkA=", "properties": {"ref": "30", "@spider": "wilsonparking_dac", "addr:full": "No. 8 Observatory Road, Tsim Sha Tsui", "addr:city": "Hong Kong", "addr:state": "Tsim Sha Tsui", "addr:country": "China", "name": "No. 8 Observatory Road", "website": "https://www.wilsonparking.com.hk/en-us"}, "geometry": {"type": "Point", "coordinates": [114.17574852614405, 22.301007008324667]}},
{"type": "Feature", "id": "rZXmTa0ByPIlribx7i3Is-log6E=", "properties": {"ref": "61", "@spider": "wilsonparking_dac", "addr:full": "Oi Tung Estate, Shau Kei Wan", "addr:city": "Hong Kong", "addr:state": "Shau Kei Wan", "addr:country": "China", "name": "Oi Tung Car Park", "website": "https://www.wilsonparking.com.hk/en-us"}, "geometry": {"type": "Point", "coordinates": [114.22678470611572, 22.280295680720947]}},
{"type": "Feature", "id": "QpYkQRlsYHukedGt7kuXIbjCTc8=", "properties": {"ref": "358", "@spider": "wilsonparking_dac", "addr:full": "On Kay Court, Ngau Tau Kok", "addr:city": "Hong Kong", "addr:state": "Ngau Tau Kok", "addr:country": "China", "name": "On Kay Court Car Park", "website": "https://www.wilsonparking.com.hk/en-us"}, "geometry": {"type": "Point", "coordinates": [114.2168382, 22.3219124]}},
{"type": "Feature", "id": "Yq5X-4FaQ5V7zRzoRLdgcAH2biE=", "properties": {"ref": "24", "@spider": "wilsonparking_dac", "addr:full": "3 On Chui Street, Sau Mau Ping", "addr:city": "Hong Kong", "addr:state": "Sau Mau Ping", "addr:country": "China", "name": "On Tat Estate", "website": "https://www.wilsonparking.com.hk/en-us"}, "geometry": {"type": "Point", "coordinates": [114.2353844, 22.3206585]}},
{"type": "Feature", "id": "biQzS2sjr8kP077RN8fjpH0Reoc=", "properties": {"ref": "283", "@spider": "wilsonparking_dac", "addr:full": "3 Peace Avenue, Mongkok", "addr:city": "Hong Kong", "addr:state": "Mong Kok", "addr:country": "China", "name": "Onbury", "website": "https://www.wilsonparking.com.hk/en-us"}, "geometry": {"type": "Point", "coordinates": [114.17405247688293, 22.317959246989606]}},
{"type": "Feature", "id": "rxWyYxVcMbdOlQHNYDbIJeKTDwM=", "properties": {"ref": "116", "@spider": "wilsonparking_dac", "addr:full": "51 Hung To Road, Kwun Tong", "addr:city": "Hong Kong", "addr:state": "Kwun Tong", "addr:country": "China", "name": "Paul Y. Centre", "website": "https://www.wilsonparking.com.hk/en-us"}, "geometry": {"type": "Point", "coordinates": [114.22173544764519, 22.31126209352486]}},
{"type": "Feature", "id": "KLbs4_zZdnH2KWlR-3Upze-_kTo=", "properties": {"ref": "258", "@spider": "wilsonparking_dac", "addr:full": "18 Sung On Street, Hunghom", "addr:city": "Hong Kong", "addr:state": "Hunghom", "addr:country": "China", "name": "Peninsula Square", "website": "https://www.wilsonparking.com.hk/en-us"}, "geometry": {"type": "Point", "coordinates": [114.1894268989563, 22.311401052177374]}},
{"type": "Feature", "id": "f21haf0XK1jbv7HQ76yyISCUqMM=", "properties": {"ref": "188", "@spider": "wilsonparking_dac", "addr:full": "538 Castle Peak Road, Cheung Sha Wan", "addr:city": "Hong Kong", "addr:state": "Cheung Sha Wan", "addr:country": "China", "name": "Peninsula Tower", "website": "https://www.wilsonparking.com.hk/en-us"}, "geometry": {"type": "Point", "coordinates": [114.15080308914185, 22.339777976203138]}},
{"type": "Feature", "id": "4vxl9gGFO2q3IivhwsqHpmy3rlw=", "properties": {"ref": "359", "@spider": "wilsonparking_dac", "addr:full": "Ping Shek Estate, Choi Hung", "addr:city": "Hong Kong", "addr:state": "Choi Hung", "addr:country": "China", "name": "Ping Shek Estate Car Park", "website": "https://www.wilsonparking.com.hk/en-us"}, "geometry": {"type": "Point", "coordinates": [114.2093413, 22.3320125]}},
{"type": "Feature", "id": "B7wMUJIfrHX34scmqyMs6j2wnM4=", "properties": {"ref": "60", "@spider": "wilsonparking_dac", "addr:full": "Ping Tin Estate, Lam Tin", "addr:city": "Hong Kong", "addr:state": "Lam Tin", "addr:country": "China", "name": "Ping Tin Car Park", "website": "https://www.wilsonparking.com.hk/en-us"}, "geometry": {"type": "Point", "coordinates": [114.2375266, 22.3065056]}},
{"type": "Feature", "id": "_nzOlAJM3VMtKQFcoChUQGAEpv8=", "properties": {"ref": "59", "@spider": "wilsonparking_dac", "addr:full": "Po Lam Estate, Tseung Kwan O", "addr:city": "Hong Kong", "addr:state": "Tseung Kwan O", "addr:country": "China", "name": "Po Lam Car Park", "website": "https://www.wilsonparking.com.hk/en-us"}, "geometry": {"type": "Point", "coordinates": [114.25501227378845, 22.32697347045537]}},
{"type": "Feature", "id": "YZAUqdxK0tUK3YBVcyNV0roq1xE=", "properties": {"ref": "58", "@spider": "wilsonparking_dac", "addr:full": "Po Pui Court, Kwun Tong", "addr:city": "Hong Kong", "addr:state": "Kwun Tong", "addr:country": "China", "name": "Po Pui Car Park", "website": "https://www.wilsonparking.com.hk/en-us"}, "geometry": {"type": "Point", "coordinates": [114.22826528549194, 22.31671611681506]}},
{"type": "Feature", "id": "oysKla7GBTQYn4_qX5ekJzoyXSY=", "properties": {"ref": "291", "@spider": "wilsonparking_dac", "addr:full": "Lower G/F Po Sing Centre, 1-25 Ta Chuen Ping Street, Kwai Chung", "addr:city": "Hong Kong", "addr:state": "Kwai Chung", "addr:country": "China", "name": "Po Sing Centre", "website": "https://www.wilsonparking.com.hk/en-us"}, "geometry": {"type": "Point", "coordinates": [114.13594365119934, 22.366670803546118]}},
{"type": "Feature", "id": "4EFFLNGlNlUgtfVsPusVIIx-Nic=", "properties": {"ref": "326", "@spider": "wilsonparking_dac", "addr:full": "Po Tai Street, Ma On Shan, New Territories", "addr:city": "Hong Kong", "addr:state": "Ma On Shan", "addr:country": "China", "name": "Po Tai Street", "website": "https://www.wilsonparking.com.hk/en-us"}, "geometry": {"type": "Point", "coordinates": [114.2233624, 22.4135583]}},
{"type": "Feature", "id": "R8oQjETfku5Ii7gskvcEQL3NLuA=", "properties": {"ref": "55", "@spider": "wilsonparking_dac", "addr:full": "Po Tat Estate, Sau Mau Ping", "addr:city": "Hong Kong", "addr:state": "Sau Mau Ping", "addr:country": "China", "name": "Po Tat Car Park", "website": "https://www.wilsonparking.com.hk/en-us"}, "geometry": {"type": "Point", "coordinates": [114.23785418272018, 22.316869957876058]}},
{"type": "Feature", "id": "sFbnEnQxaB_umh2JmAbMT_huH2w=", "properties": {"ref": "317", "@spider": "wilsonparking_dac", "addr:full": "No. 33, Tseuk Luk Street, San Po Kong", "addr:city": "Hong Kong", "addr:state": "San Po Kong", "addr:country": "China", "name": "Port 33", "website": "https://www.wilsonparking.com.hk/en-us"}, "geometry": {"type": "Point", "coordinates": [114.197652, 22.335393]}},
{"type": "Feature", "id": "PEBgdrvSGPfnXHfBJaKppF_Sv-4=", "properties": {"ref": "235", "@spider": "wilsonparking_dac", "addr:full": "16 Chan Man Street, Sai Kung", "addr:city": "Hong Kong", "addr:state": "Sai Kung", "addr:country": "China", "name": "Sai Kung Garden", "website": "https://www.wilsonparking.com.hk/en-us"}, "geometry": {"type": "Point", "coordinates": [114.27147567272186, 22.38262394985941]}},
{"type": "Feature", "id": "Ftk1w5mrIgO8dfU7ui5HHG8pyc0=", "properties": {"ref": "257", "@spider": "wilsonparking_dac", "addr:full": "22-40 Fuk Man Road & Chan Man Street, Sai Kung", "addr:city": "Hong Kong", "addr:state": "Sai Kung", "addr:country": "China", "name": "Sai Kung Town Centre", "website": "https://www.wilsonparking.com.hk/en-us"}, "geometry": {"type": "Point", "coordinates": [114.27171170711517, 22.38253962522458]}},
{"type": "Feature", "id": "138TVdHmwoLt5VTQlj5iWd_S1h8=", "properties": {"ref": "389", "@spider": "wilsonparking_dac", "addr:full": "6 Sam Shing Street, Tuen Mun", "addr:city": "Hong Kong", "addr:state": "Tuen Mun", "addr:country": "China", "name": "Sam Shing Car Park", "website": "https://www.wilsonparking.com.hk/en-us"}, "geometry": {"type": "Point", "coordinates": [113.978191, 22.380722]}},
{"type": "Feature", "id": "-qQVFK7xym4VfZbnm0LRlPuQ49o=", "properties": {"ref": "193", "@spider": "wilsonparking_dac", "addr:full": "San Shing Avenue, Sheung Shui", "addr:city": "Hong Kong", "addr:state": "Sheung Shui", "addr:country": "China", "name": "San Shing Avenue", "website": "https://www.wilsonparking.com.hk/en-us"}, "geometry": {"type": "Point", "coordinates": [114.12774950265884, 22.506141747365298]}},
{"type": "Feature", "id": "0HdgOhNrm7fdE9yP5x-jyde03oM=", "properties": {"ref": "390", "@spider": "wilsonparking_dac", "addr:full": "23 Tin King Road, Tuen Mun", "addr:city": "Hong Kong", "addr:state": "Tuen Mun", "addr:country": "China", "name": "San Wai Car Park", "website": "https://www.wilsonparking.com.hk/en-us"}, "geometry": {"type": "Point", "coordinates": [113.963015, 22.404726]}},
{"type": "Feature", "id": "64k4gbGsFXLN2GMa2l4wtHtM4LQ=", "properties": {"ref": "54", "@spider": "wilsonparking_dac", "addr:full": "Sau Mau Ping (I) Estate", "addr:city": "Hong Kong", "addr:state": "Sau Mau Ping", "addr:country": "China", "name": "Sau Mau Ping Phase 1 Car Park", "website": "https://www.wilsonparking.com.hk/en-us"}, "geometry": {"type": "Point", "coordinates": [114.2331058, 22.3155684]}},
{"type": "Feature", "id": "UP7HaPSesvv80K5d4TGAM1vMSLs=", "properties": {"ref": "57", "@spider": "wilsonparking_dac", "addr:full": "Sau Ma Ping (III) Estate", "addr:city": "Hong Kong", "addr:state": "Sau Mau Ping", "addr:country": "China", "name": "Sau Mau Ping Phase 3 Car Park", "website": "https://www.wilsonparking.com.hk/en-us"}, "geometry": {"type": "Point", "coordinates": [114.23062831163406, 22.32177789498673]}},
{"type": "Feature", "id": "JRotP5bbnMBsKGTkHp42EULVepE=", "properties": {"ref": "56", "@spider": "wilsonparking_dac", "addr:full": "Sau Mau Ping Shopping Centre", "addr:city": "Hong Kong", "addr:state": "Sau Mau Ping", "addr:country": "China", "name": "Sau Mau Ping Shopping Centre Car Park", "website": "https://www.wilsonparking.com.hk/en-us"}, "geometry": {"type": "Point", "coordinates": [114.23243880271912, 22.32020975588607]}},
{"type": "Feature", "id": "bjC51yysXlpdPQ_gj4EtJtZOKfc=", "properties": {"ref": "3", "@spider": "wilsonparking_dac", "addr:full": "No. 88 Po Hong Road, Tseung Kwan O", "addr:city": "Hong Kong", "addr:state": "Tseung Kwan O", "addr:country": "China", "name": "Serenity Place", "website": "https://www.wilsonparking.com.hk/en-us"}, "geometry": {"type": "Point", "coordinates": [114.25326034336092, 22.32215225912157]}},
{"type": "Feature", "id": "GgCoXb5oNqzWU7MAkSGgg-zzng0=", "properties": {"ref": "166", "@spider": "wilsonparking_dac", "addr:full": "48-66 Hennessy Road, Wan Chai", "addr:city": "Hong Kong", "addr:state": "Wan Chai", "addr:country": "China", "name": "Shanghai Industrial Investment Building", "website": "https://www.wilsonparking.com.hk/en-us"}, "geometry": {"type": "Point", "coordinates": [114.17102627456188, 22.2773973468939]}},
{"type": "Feature", "id": "tTUDzaq0RVdy5HWSqoUgDyIs86o=", "properties": {"ref": "205", "@spider": "wilsonparking_dac", "addr:full": "8-12 Sha Kok Street, Shatin", "addr:city": "Hong Kong", "addr:state": "Shatin", "addr:country": "China", "name": "Shatin Park Stage 1", "website": "https://www.wilsonparking.com.hk/en-us"}, "geometry": {"type": "Point", "coordinates": [114.19780880212784, 22.379526226053223]}},
{"type": "Feature", "id": "88kS5Wq8jmbHYBEYJ5JEUaCdl1w=", "properties": {"ref": "207", "@spider": "wilsonparking_dac", "addr:full": "13-15 Kong Pui Street, Shatin", "addr:city": "Hong Kong", "addr:state": "Shatin", "addr:country": "China", "name": "Shatin Park Stage 3", "website": "https://www.wilsonparking.com.hk/en-us"}, "geometry": {"type": "Point", "coordinates": [114.1976498812437, 22.379749443044684]}},
{"type": "Feature", "id": "VuyOo8hoKm6gLq7bHNh4qhBiEq4=", "properties": {"ref": "160", "@spider": "wilsonparking_dac", "addr:full": "Shek Yam Estate Phase 5, Kwai Chung", "addr:city": "Hong Kong", "addr:state": "Kwai Chung", "addr:country": "China", "name": "Shek Yam (Phase 5) Estate", "website": "https://www.wilsonparking.com.hk/en-us"}, "geometry": {"type": "Point", "coordinates": [114.13976199834349, 22.370349859169497]}},
{"type": "Feature", "id": "pr1_TqPqcBhjCiuzUmUoN8h4C3I=", "properties": {"ref": "337", "@spider": "wilsonparking_dac", "addr:full": "No. 376 Sha Tsui Road, Tsuen Wan", "addr:city": "Hong Kong", "addr:state": "Tsuen Wan", "addr:country": "China", "name": "Sheung Chui Court", "website": "https://www.wilsonparking.com.hk/en-us"}, "geometry": {"type": "Point", "coordinates": [114.1200886657715, 22.367645305827462]}},
{"type": "Feature", "id": "63pt5EYWI9ss2CYIU3h5UqEhkaM=", "properties": {"ref": "371", "@spider": "wilsonparking_dac", "addr:full": "69 Texaco Road, Tsuen Wan", "addr:city": "Hong Kong", "addr:state": "Tsuen Wan", "addr:country": "China", "name": "Sheung Man Court", "website": "https://www.wilsonparking.com.hk/en-us"}, "geometry": {"type": "Point", "coordinates": [114.122254, 22.367951]}},
{"type": "Feature", "id": "N_2Zhh9rM6u9-ioUJN6EqucC--4=", "properties": {"ref": "208", "@spider": "wilsonparking_dac", "addr:full": "9 Chi Cheong Road, Sheung Shui", "addr:city": "Hong Kong", "addr:state": "Sheung Shui", "addr:country": "China", "name": "Sheung Shui Town Centre", "website": "https://www.wilsonparking.com.hk/en-us"}, "geometry": {"type": "Point", "coordinates": [114.13195252418518, 22.50126757715597]}},
{"type": "Feature", "id": "WE134fNu-f2VogNDoVhf7542efo=", "properties": {"ref": "360", "@spider": "wilsonparking_dac", "addr:full": "Shun Chi Court, Kwun Tong", "addr:city": "Hong Kong", "addr:state": "Kwun Tong", "addr:country": "China", "name": "Shun Chi Court Car Park", "website": "https://www.wilsonparking.com.hk/en-us"}, "geometry": {"type": "Point", "coordinates": [114.226655, 22.3323053]}},
{"type": "Feature", "id": "z-NwanXBBQWxmO_ozT09PnrJCB0=", "properties": {"ref": "52", "@spider": "wilsonparking_dac", "addr:full": "Shun Lee Estate, Sau Mau Ping", "addr:city": "Hong Kong", "addr:state": "Sau Mau Ping", "addr:country": "China", "name": "Shun Lee Car Park", "website": "https://www.wilsonparking.com.hk/en-us"}, "geometry": {"type": "Point", "coordinates": [114.22455310821533, 22.332997515347135]}},
{"type": "Feature", "id": "IPpPYS5PfJYs836cM2SkeQHThaQ=", "properties": {"ref": "51", "@spider": "wilsonparking_dac", "addr:full": "Shun On Estate, Sau Mau Ping", "addr:city": "Hong Kong", "addr:state": "Sau Mau Ping", "addr:country": "China", "name": "Shun On Car Park", "website": "https://www.wilsonparking.com.hk/en-us"}, "geometry": {"type": "Point", "coordinates": [114.2267096042633, 22.327995690797835]}},
{"type": "Feature", "id": "fngXChozRxTbWxcHzLWcdjB5myQ=", "properties": {"ref": "254", "@spider": "wilsonparking_dac", "addr:full": "188 Lockhart Road, Wan Chai", "addr:city": "Hong Kong", "addr:state": "Wan Chai", "addr:country": "China", "name": "Siu On Centre", "website": "https://www.wilsonparking.com.hk/en-us"}, "geometry": {"type": "Point", "coordinates": [114.17418256402016, 22.27818476144854]}},
{"type": "Feature", "id": "7ZGbb9nX0gqFCp-biDTyLtlyLzs=", "properties": {"ref": "49", "@spider": "wilsonparking_dac", "addr:full": "Siu Sai Wan Estate", "addr:city": "Hong Kong", "addr:state": "Siu Sai Wan", "addr:country": "China", "name": "Siu Sai Wan Car Park", "website": "https://www.wilsonparking.com.hk/en-us"}, "geometry": {"type": "Point", "coordinates": [114.2477260529995, 22.2647385376361]}},
{"type": "Feature", "id": "P63MhtsdEiMLWyi3cvPmjFkD-1c=", "properties": {"ref": "124", "@spider": "wilsonparking_dac", "addr:full": "88 Tai Ho Road, Tsuen Wan", "addr:city": "Hong Kong", "addr:state": "Tsuen Wan", "addr:country": "China", "name": "Skyline Plaza", "website": "https://www.wilsonparking.com.hk/en-us"}, "geometry": {"type": "Point", "coordinates": [114.11126732826233, 22.369875469114767]}},
{"type": "Feature", "id": "L-CYOCEGBt-Mogctj61nFK8oBuc=", "properties": {"ref": "104", "@spider": "wilsonparking_dac", "addr:full": "11-17A South Lane, Western District", "addr:city": "Hong Kong", "addr:state": "Shek Tong Tsui", "addr:country": "China", "name": "South Lane", "website": "https://www.wilsonparking.com.hk/en-us"}, "geometry": {"type": "Point", "coordinates": [114.134711176157, 22.285364362921268]}},
{"type": "Feature", "id": "p1G2uEfT2VNnbYVUtn6rwkSBqqE=", "properties": {"ref": "233", "@spider": "wilsonparking_dac", "addr:full": "3 Shum Wan Road, Aberdeen", "addr:city": "Hong Kong", "addr:state": "Aberdeen", "addr:country": "China", "name": "South Wave Court", "website": "https://www.wilsonparking.com.hk/en-us"}, "geometry": {"type": "Point", "coordinates": [114.16603535413742, 22.24512939520358]}},
{"type": "Feature", "id": "nRPlx0xryA7SKJVju0e5rBQQOa0=", "properties": {"ref": "247", "@spider": "wilsonparking_dac", "addr:full": "11 Yip Hing Street / Yip Kan Street, Aberdeen", "addr:city": "Hong Kong", "addr:state": "Aberdeen", "addr:country": "China", "name": "Southmark", "website": "https://www.wilsonparking.com.hk/en-us"}, "geometry": {"type": "Point", "coordinates": [114.16477739810944, 22.249312479048204]}},
{"type": "Feature", "id": "ao1iC_V-GEbh_pgAZLjiq9GSX0U=", "properties": {"ref": "347", "@spider": "wilsonparking_dac", "addr:full": "No. 53 Hung To Road, Kwun Tong", "addr:city": "Hong Kong", "addr:state": "Kwun Tong", "addr:country": "China", "name": "Spectrum Tower", "website": "https://www.wilsonparking.com.hk/en-us"}, "geometry": {"type": "Point", "coordinates": [114.2223215, 22.3111392]}},
{"type": "Feature", "id": "o2w8pFMzCJLV2e6vbROseWFo81E=", "properties": {"ref": "63", "@spider": "wilsonparking_dac", "addr:full": "Stanley Plaza, Stanley", "addr:city": "Hong Kong", "addr:state": "Stanley", "addr:country": "China", "name": "Stanley Plaza Car Park", "website": "https://www.wilsonparking.com.hk/en-us"}, "geometry": {"type": "Point", "coordinates": [114.2088, 22.2209091]}},
{"type": "Feature", "id": "DQ8gkdFJP7i5HJH9LZFK3qhusWo=", "properties": {"ref": "297", "@spider": "wilsonparking_dac", "addr:full": "9 Edinburgh Place, Central", "addr:city": "Hong Kong", "addr:state": "Central", "addr:country": "China", "name": "Star Ferry Car Park", "website": "https://www.wilsonparking.com.hk/en-us"}, "geometry": {"type": "Point", "coordinates": [114.160275, 22.2831833]}},
{"type": "Feature", "id": "3JVfK472Z12K5zEig8EDS_ttiCI=", "properties": {"ref": "194", "@spider": "wilsonparking_dac", "addr:full": "166-174 Hing Fong Road, Kwai Chung", "addr:city": "Hong Kong", "addr:state": "Kwai Chung", "addr:country": "China", "name": "Sun Kwai Hing Plaza", "website": "https://www.wilsonparking.com.hk/en-us"}, "geometry": {"type": "Point", "coordinates": [114.13142681121826, 22.36402913134557]}},
{"type": "Feature", "id": "v0-1osg6I8CWF6WQy_SWdThv5l0=", "properties": {"ref": "259", "@spider": "wilsonparking_dac", "addr:full": "989 King's Road, Quarry Bay", "addr:city": "Hong Kong", "addr:state": "Quarry Bay", "addr:country": "China", "name": "Sunway Gardens", "website": "https://www.wilsonparking.com.hk/en-us"}, "geometry": {"type": "Point", "coordinates": [114.21238660812378, 22.286157937241942]}},
{"type": "Feature", "id": "6do9BhBF52oyg44GvScz3dxvjr0=", "properties": {"ref": "383", "@spider": "wilsonparking_dac", "addr:full": "Tin Yuet Estate, 33 & 39 Tin Wah Road, Tin Shui Wai, Yuen Long", "addr:city": "Hong Kong", "addr:state": "Tin Shui Wai", "addr:country": "China", "name": "T Town North Car Park", "website": "https://www.wilsonparking.com.hk/en-us"}, "geometry": {"type": "Point", "coordinates": [113.9987704, 22.4620205]}},
{"type": "Feature", "id": "0q45mTV8if1E2r3EEmVy0-kbGkE=", "properties": {"ref": "394", "@spider": "wilsonparking_dac", "addr:full": "30 & 33 Tin Wah Road, Tin Shui Wai", "addr:city": "Hong Kong", "addr:state": "Tin Shui Wai", "addr:country": "China", "name": "T Town South Car Park", "website": "https://www.wilsonparking.com.hk/en-us"}, "geometry": {"type": "Point", "coordinates": [113.997209, 22.461041]}},
{"type": "Feature", "id": "Krg7702mrYMwct8xk8d-0JrBcRM=", "properties": {"ref": "391", "@spider": "wilsonparking_dac", "addr:full": "1 Tai Hing Street, Tuen Mun", "addr:city": "Hong Kong", "addr:state": "Tuen Mun", "addr:country": "China", "name": "Tai Hing Car Park", "website": "https://www.wilsonparking.com.hk/en-us"}, "geometry": {"type": "Point", "coordinates": [113.970168, 22.403108]}},
{"type": "Feature", "id": "kjMW8ijhNHcSFlZDG3IcwOqQwXY=", "properties": {"ref": "273", "@spider": "wilsonparking_dac", "addr:full": "Taikoo Shing Estate, Taikoo Shing", "addr:city": "Hong Kong", "addr:state": "Taikoo Shing", "addr:country": "China", "name": "Taikoo Shing", "website": "https://www.wilsonparking.com.hk/en-us"}, "geometry": {"type": "Point", "coordinates": [114.21908408403397, 22.287237538545355]}},
{"type": "Feature", "id": "JXtASZ8ibaFESRFUVY0rYQFgukM=", "properties": {"ref": "215", "@spider": "wilsonparking_dac", "addr:full": "3 Ngau Tau Kok Road, Ngau Tau Kok", "addr:city": "Hong Kong", "addr:state": "Ngau Tau Kok", "addr:country": "China", "name": "Tak Bo Garden", "website": "https://www.wilsonparking.com.hk/en-us"}, "geometry": {"type": "Point", "coordinates": [114.21437948942184, 22.327474657093255]}},
{"type": "Feature", "id": "aIUFwfOdni9cdiRaa11E-dvHVrQ=", "properties": {"ref": "150", "@spider": "wilsonparking_dac", "addr:full": "Tak Keung Court, Wang Tau Hom", "addr:city": "Hong Kong", "addr:state": "Wang Tau Hom", "addr:country": "China", "name": "Tak Keung Court", "website": "https://www.wilsonparking.com.hk/en-us"}, "geometry": {"type": "Point", "coordinates": [114.1864013671875, 22.339574542365593]}},
{"type": "Feature", "id": "bDtkjCjV1cwObSkUNfM4MqbKx5Y=", "properties": {"ref": "48", "@spider": "wilsonparking_dac", "addr:full": "Tak Tin Estate, Lam Tin", "addr:city": "Hong Kong", "addr:state": "Lam Tin", "addr:country": "China", "name": "Tak Tin Car Park", "website": "https://www.wilsonparking.com.hk/en-us"}, "geometry": {"type": "Point", "coordinates": [114.23898071050644, 22.30924221463957]}},
{"type": "Feature", "id": "ei5me7RcRxWv_myEZ_LbgZWJacQ=", "properties": {"ref": "198", "@spider": "wilsonparking_dac", "addr:full": "No. 69 Jervois Street, Sheung Wan", "addr:city": "Hong Kong", "addr:state": "Sheung Wan", "addr:country": "China", "name": "The Chelsea ", "website": "https://www.wilsonparking.com.hk/en-us"}, "geometry": {"type": "Point", "coordinates": [114.15122151374817, 22.28527935899353]}},
{"type": "Feature", "id": "7JflWrjQL4bxsUHh3lk76hrW6hw=", "properties": {"ref": "1", "@spider": "wilsonparking_dac", "addr:full": "No.30-34 Kwai Wing Road, Kwai Chung", "addr:city": "Hong Kong", "addr:state": "Kwai Chung", "addr:country": "China", "name": "The EDGE", "website": "https://www.wilsonparking.com.hk/en-us"}, "geometry": {"type": "Point", "coordinates": [114.13419708518984, 22.366886300596498]}},
{"type": "Feature", "id": "YO05VXSPdYnwNAH9j-SmJAAmTX0=", "properties": {"ref": "46", "@spider": "wilsonparking_dac", "addr:full": "100 Nathan Road, Tsim Sha Tsui", "addr:city": "Hong Kong", "addr:state": "Tsim Sha Tsui", "addr:country": "China", "name": "The ONE", "website": "https://www.wilsonparking.com.hk/en-us"}, "geometry": {"type": "Point", "coordinates": [114.17282, 22.299714]}},
{"type": "Feature", "id": "yX0yvPzRAxaqY1sUSkt56RS-KpE=", "properties": {"ref": "288", "@spider": "wilsonparking_dac", "addr:full": "310 Gloucester Road, Causeway Bay", "addr:city": "Hong Kong", "addr:state": "Causeway Bay", "addr:country": "China", "name": "The Park Lane", "website": "https://www.wilsonparking.com.hk/en-us"}, "geometry": {"type": "Point", "coordinates": [114.18625250458717, 22.28066797358348]}},
{"type": "Feature", "id": "YAKkvCqF9aeYIf2Ks6fhVK_qALY=", "properties": {"ref": "18", "@spider": "wilsonparking_dac", "addr:full": "No. 18 Tong Chun Street, Tseung Kwan O", "addr:city": "Hong Kong", "addr:state": "Tseung Kwan O", "addr:country": "China", "name": "The Parkside", "website": "https://www.wilsonparking.com.hk/en-us"}, "geometry": {"type": "Point", "coordinates": [114.2614355, 22.3054473]}},
{"type": "Feature", "id": "ZbNZ5XCid1Mr_TgLfZAOJfiOr84=", "properties": {"ref": "304", "@spider": "wilsonparking_dac", "addr:full": "No. 8 Wan Hang Road, Tsueng Kwan O", "addr:city": "Hong Kong", "addr:state": "Tseung Kwan O", "addr:country": "China", "name": "The Pinnacle", "website": "https://www.wilsonparking.com.hk/en-us"}, "geometry": {"type": "Point", "coordinates": [114.2584566, 22.3211662]}},
{"type": "Feature", "id": "w3D04_ROaXh2Umw5IxxogvszMEQ=", "properties": {"ref": "37", "@spider": "wilsonparking_dac", "addr:full": "28 Beach Road, Repulse Bay", "addr:city": "Hong Kong", "addr:state": "Repulse Bay", "addr:country": "China", "name": "The Pulse", "website": "https://www.wilsonparking.com.hk/en-us"}, "geometry": {"type": "Point", "coordinates": [114.1984909, 22.2354077]}},
{"type": "Feature", "id": "Ov3I0Z2scOtSXBq_Kwt248yjtKc=", "properties": {"ref": "281", "@spider": "wilsonparking_dac", "addr:full": "Kowloon Park Drive, Tsim Sha Tsui", "addr:city": "Hong Kong", "addr:state": "Tsim Sha Tsui", "addr:country": "China", "name": "The Sun Arcade", "website": "https://www.wilsonparking.com.hk/en-us"}, "geometry": {"type": "Point", "coordinates": [114.1700694, 22.2967958]}},
{"type": "Feature", "id": "6yo548K8W4OWnXmIjmbtGJkILD4=", "properties": {"ref": "197", "@spider": "wilsonparking_dac", "addr:full": "26-28 Sha Tsui Road, Tsuen Wan", "addr:city": "Hong Kong", "addr:state": "Tsuen Wan", "addr:country": "China", "name": "Thriving Industrial Centre", "website": "https://www.wilsonparking.com.hk/en-us"}, "geometry": {"type": "Point", "coordinates": [114.10882115364075, 22.37384895354824]}},
{"type": "Feature", "id": "MAXrwghk9KKfXqEGNiatM6Sq8t4=", "properties": {"ref": "393", "@spider": "wilsonparking_dac", "addr:full": "71, 73, 75 & 77 Tin Shui Road, Tin Shui Wai", "addr:city": "Hong Kong", "addr:state": "Tin Shui Wai", "addr:country": "China", "name": "Tin Chak Car Park", "website": "https://www.wilsonparking.com.hk/en-us"}, "geometry": {"type": "Point", "coordinates": [113.997836, 22.466884]}},
{"type": "Feature", "id": "PBgwUr_JZ_eEHQpaB-E42NPLwWI=", "properties": {"ref": "7", "@spider": "wilsonparking_dac", "addr:full": "Lau Sin Street & Electric Road, Tin Hau", "addr:city": "Hong Kong", "addr:state": "Tin Hau", "addr:country": "China", "name": "Tin Hau Car Park", "website": "https://www.wilsonparking.com.hk/en-us"}, "geometry": {"type": "Point", "coordinates": [114.1916625, 22.2830233]}},
{"type": "Feature", "id": "gqr6tDar3maPQP8zqXu9GtOYCd0=", "properties": {"ref": "392", "@spider": "wilsonparking_dac", "addr:full": "10 Tin King Road, Tuen Mun", "addr:city": "Hong Kong", "addr:state": "Tuen Mun", "addr:country": "China", "name": "Tin King Car Park", "website": "https://www.wilsonparking.com.hk/en-us"}, "geometry": {"type": "Point", "coordinates": [113.965094, 22.406761]}},
{"type": "Feature", "id": "NDNLqJgTWZEic2FTmTD-dYdJkIE=", "properties": {"ref": "395", "@spider": "wilsonparking_dac", "addr:full": "3 Tin Ching Street, Tin Shui Wai", "addr:city": "Hong Kong", "addr:state": "Tin Shui Wai", "addr:country": "China", "name": "Tin Shing Car Park", "website": "https://www.wilsonparking.com.hk/en-us"}, "geometry": {"type": "Point", "coordinates": [114.003128, 22.448334]}},
{"type": "Feature", "id": "5hz_cNkDdyw2tLGNNr513gAEIEc=", "properties": {"ref": "396", "@spider": "wilsonparking_dac", "addr:full": "9 Tin Shui Road, Tin Shui Wai", "addr:city": "Hong Kong", "addr:state": "Tin Shui Wai", "addr:country": "China", "name": "Tin Shui Car Park", "website": "https://www.wilsonparking.com.hk/en-us"}, "geometry": {"type": "Point", "coordinates": [113.997989, 22.457212]}},
{"type": "Feature", "id": "rSvJAF0dODwnYWpQtg9LxVv14mU=", "properties": {"ref": "377", "@spider": "wilsonparking_dac", "addr:full": "Tin Tsz Estate, 9 Tin Hei Street, Tin Shui Wai, Yuen Long", "addr:city": "Hong Kong", "addr:state": "Tin Shui Wai", "addr:country": "China", "name": "Tin Tsz Car Park ", "website": "https://www.wilsonparking.com.hk/en-us"}, "geometry": {"type": "Point", "coordinates": [114.0073485, 22.4538466]}},
{"type": "Feature", "id": "yTwQjA0uchTmdlpTN0FEVfRhNxs=", "properties": {"ref": "378", "@spider": "wilsonparking_dac", "addr:full": "Tin Wah Estate, 21 Tin Tan Street, Tin Shui Wai, Yuen Long", "addr:city": "Hong Kong", "addr:state": "Tin Shui Wai", "addr:country": "China", "name": "Tin Wah Car Park ", "website": "https://www.wilsonparking.com.hk/en-us"}, "geometry": {"type": "Point", "coordinates": [113.9952838, 22.4596726]}},
{"type": "Feature", "id": "u4oaiHXFllKfb_5B5qTQO-Y6Ck4=", "properties": {"ref": "379", "@spider": "wilsonparking_dac", "addr:full": "Tin Yat Estate, 76 Tin Shui Road, Tin Shui Wai, Yuen Long", "addr:city": "Hong Kong", "addr:state": "Tin Shui Wai", "addr:country": "China", "name": "Tin Yat Car Park ", "website": "https://www.wilsonparking.com.hk/en-us"}, "geometry": {"type": "Point", "coordinates": [113.9994412, 22.4659667]}},
{"type": "Feature", "id": "bVbGcToD7sbEPTN2Jp1E5F2QZq8=", "properties": {"ref": "380", "@spider": "wilsonparking_dac", "addr:full": "Tin Yau Court, 1 Tin Shing Road, Tin Shui Wai, Yuen Long", "addr:city": "Hong Kong", "addr:state": "Tin Shui Wai", "addr:country": "China", "name": "Tin Yau Car Park", "website": "https://www.wilsonparking.com.hk/en-us"}, "geometry": {"type": "Point", "coordinates": [114.0062584, 22.4522915]}},
{"type": "Feature", "id": "4mQV9ZE0CvKQT3psoCwImFpK0_8=", "properties": {"ref": "381", "@spider": "wilsonparking_dac", "addr:full": "Tin Yiu Estate, 2 Tin Wu Road, Tin Shui Wai, Yuen Long", "addr:city": "Hong Kong", "addr:state": "Tin Shui Wai", "addr:country": "China", "name": "Tin Yiu Car Park", "website": "https://www.wilsonparking.com.hk/en-us"}, "geometry": {"type": "Point", "coordinates": [114.0031667, 22.452194]}},
{"type": "Feature", "id": "y6F8tfeQeBUqFW4Kh2mDRekJKYY=", "properties": {"ref": "382", "@spider": "wilsonparking_dac", "addr:full": "Tin Yuet Estate, 33 & 39 Tin Wah Road, Tin Shui Wai, Yuen Long", "addr:city": "Hong Kong", "addr:state": "Tin Shui Wai", "addr:country": "China", "name": "Tin Yuet Car Park", "website": "https://www.wilsonparking.com.hk/en-us"}, "geometry": {"type": "Point", "coordinates": [113.9987704, 22.4620205]}},
{"type": "Feature", "id": "ksVqpK9MOZC2leaXe9L0ycNOiRs=", "properties": {"ref": "246", "@spider": "wilsonparking_dac", "addr:full": "75 Tsing King Road, Tsing Yi", "addr:city": "Hong Kong", "addr:state": "Tsing Yi", "addr:country": "China", "name": "Tivoli Garden", "website": "https://www.wilsonparking.com.hk/en-us"}, "geometry": {"type": "Point", "coordinates": [114.10735130310059, 22.354833736976516]}},
{"type": "Feature", "id": "66S96-A17e1VSGGMSpKXgmvEoWc=", "properties": {"ref": "87", "@spider": "wilsonparking_dac", "addr:full": "Hau Tak Estate, Tseung Kwan O", "addr:city": "Hong Kong", "addr:state": "Tseung Kwan O", "addr:country": "China", "name": "TKO Gateway Car Park", "website": "https://www.wilsonparking.com.hk/en-us"}, "geometry": {"type": "Point", "coordinates": [114.26731288433075, 22.317043649192787]}},
{"type": "Feature", "id": "fniRuAaKbommLEwG8-ume1p1NRM=", "properties": {"ref": "53", "@spider": "wilsonparking_dac", "addr:full": "Sheung Tak Estate, Tseung Kwan O", "addr:city": "Hong Kong", "addr:state": "Tseung Kwan O", "addr:country": "China", "name": "TKO Spot Car Park", "website": "https://www.wilsonparking.com.hk/en-us"}, "geometry": {"type": "Point", "coordinates": [114.25805926322937, 22.310383673128385]}},
{"type": "Feature", "id": "BWIZLnGv2gpLe9tY6Z6jLin8NI4=", "properties": {"ref": "91", "@spider": "wilsonparking_dac", "addr:full": "Tong Ming Court, Tseung Kwan O", "addr:city": "Hong Kong", "addr:state": "Tseung Kwan O", "addr:country": "China", "name": "Tong Ming Car Park", "website": "https://www.wilsonparking.com.hk/en-us"}, "geometry": {"type": "Point", "coordinates": [114.2570471, 22.3078585]}},
{"type": "Feature", "id": "UL_6KyUg2Orj5ZDilRk0uBginPc=", "properties": {"ref": "280", "@spider": "wilsonparking_dac", "addr:full": "2-6 Fung Cheung Road, Yuen Long", "addr:city": "Hong Kong", "addr:state": "Yuen Long", "addr:country": "China", "name": "Transport Plaza", "website": "https://www.wilsonparking.com.hk/en-us"}, "geometry": {"type": "Point", "coordinates": [114.03154268860817, 22.443904508897525]}},
{"type": "Feature", "id": "kq3flIy1NMxppr9lFrmlio_LepE=", "properties": {"ref": "99", "@spider": "wilsonparking_dac", "addr:full": "70 Waterloo Road, Mongkok", "addr:city": "Hong Kong", "addr:state": "Mong Kok", "addr:country": "China", "name": "Tsan Yung Mansion", "website": "https://www.wilsonparking.com.hk/en-us"}, "geometry": {"type": "Point", "coordinates": [114.17488396167755, 22.317073424825356]}},
{"type": "Feature", "id": "k3RbKPkFxyb0KY-Rcf3XT5lR7K8=", "properties": {"ref": "178", "@spider": "wilsonparking_dac", "addr:full": "328-338 Castle Peak Road, Tsuen Wan", "addr:city": "Hong Kong", "addr:state": "Tsuen Wan", "addr:country": "China", "name": "Tsuen Kam Centre", "website": "https://www.wilsonparking.com.hk/en-us"}, "geometry": {"type": "Point", "coordinates": [114.11600477993488, 22.37426006133371]}},
{"type": "Feature", "id": "_URF23f4MyW88FPAWL366oSdsWQ=", "properties": {"ref": "42", "@spider": "wilsonparking_dac", "addr:full": "Tsuen King Circuit, Tsuen Wan", "addr:city": "Hong Kong", "addr:state": "Tsuen Wan", "addr:country": "China", "name": "Tsuen King Circuit", "website": "https://www.wilsonparking.com.hk/en-us"}, "geometry": {"type": "Point", "coordinates": [114.10600170402529, 22.379982281127624]}},
{"type": "Feature", "id": "GnHajIzALWgUUMLj4XxYsf3Xrpc=", "properties": {"ref": "8", "@spider": "wilsonparking_dac", "addr:full": "174-208 Castle Peak Road, Tsuen Wan", "addr:city": "Hong Kong", "addr:state": "Tsuen Wan", "addr:country": "China", "name": "Tsuen Wan Car Park", "website": "https://www.wilsonparking.com.hk/en-us"}, "geometry": {"type": "Point", "coordinates": [114.1187254, 22.373]}},
{"type": "Feature", "id": "ELU_2Kah7JggwkI19O0M2vpHv9U=", "properties": {"ref": "179", "@spider": "wilsonparking_dac", "addr:full": "87-105 Tsuen King Circuit, Tsuen Wan", "addr:city": "Hong Kong", "addr:state": "Tsuen Wan", "addr:country": "China", "name": "Tsuen Wan Centre Phase l & ll", "website": "https://www.wilsonparking.com.hk/en-us"}, "geometry": {"type": "Point", "coordinates": [114.10899147391319, 22.378498183176056]}},
{"type": "Feature", "id": "cwDz2x8SZC8JfUHC1N3YpwaRz0M=", "properties": {"ref": "267", "@spider": "wilsonparking_dac", "addr:full": "4-30 Tai Pa Street, Tsuen Wan", "addr:city": "Hong Kong", "addr:state": "Tsuen Wan", "addr:country": "China", "name": "Tsuen Wan Plaza", "website": "https://www.wilsonparking.com.hk/en-us"}, "geometry": {"type": "Point", "coordinates": [114.1118007, 22.3711416]}},
{"type": "Feature", "id": "TcSttE51IsIqO6XRxRz4C_9DGNk=", "properties": {"ref": "345", "@spider": "wilsonparking_dac", "addr:full": "Level B1 & B2 of Ocean Supreme, No. 100 Tai Ho Road, Tsuen Wan", "addr:city": "Hong Kong", "addr:state": "Tsuen Wan", "addr:country": "China", "name": "Tsuen Wan West Station", "website": "https://www.wilsonparking.com.hk/en-us"}, "geometry": {"type": "Point", "coordinates": [114.1083287, 22.3699094]}},
{"type": "Feature", "id": "H4qr69x98O5EsRYLNHTI4RUO1qk=", "properties": {"ref": "90", "@spider": "wilsonparking_dac", "addr:full": "Tsui Ping North Estate, Kwun Tong", "addr:city": "Hong Kong", "addr:state": "Kwun Tong", "addr:country": "China", "name": "Tsui Ping North Car Park", "website": "https://www.wilsonparking.com.hk/en-us"}, "geometry": {"type": "Point", "coordinates": [114.2292719, 22.3168923]}},
{"type": "Feature", "id": "E-FQ2R7ChI2s6ENxiwY7cQ2yWiI=", "properties": {"ref": "89", "@spider": "wilsonparking_dac", "addr:full": "Tsui Ping South Estate, Kwun Tong", "addr:city": "Hong Kong", "addr:state": "Kwun Tong", "addr:country": "China", "name": "Tsui Ping South Car Park", "website": "https://www.wilsonparking.com.hk/en-us"}, "geometry": {"type": "Point", "coordinates": [114.2297568, 22.3132874]}},
{"type": "Feature", "id": "JqOtzQzMY0swvjfNZNDlB5vA-UI=", "properties": {"ref": "88", "@spider": "wilsonparking_dac", "addr:full": "Tsui Wan Estate, Chai Wan", "addr:city": "Hong Kong", "addr:state": "Chai Wan", "addr:country": "China", "name": "Tsui Wan Car Park", "website": "https://www.wilsonparking.com.hk/en-us"}, "geometry": {"type": "Point", "coordinates": [114.23963516950607, 22.267100981761416]}},
{"type": "Feature", "id": "toMHB0TwrCfrYVreM_ziMcqUcEg=", "properties": {"ref": "161", "@spider": "wilsonparking_dac", "addr:full": "Tsui Yiu Court, Kwai Chung", "addr:city": "Hong Kong", "addr:state": "Lai King", "addr:country": "China", "name": "Tsui Yiu Court", "website": "https://www.wilsonparking.com.hk/en-us"}, "geometry": {"type": "Point", "coordinates": [114.13138926029205, 22.350462797185514]}},
{"type": "Feature", "id": "ciMKzWeFaUi98LtqP_dJuJOGhGo=", "properties": {"ref": "244", "@spider": "wilsonparking_dac", "addr:full": "338 King's Road, North Point", "addr:city": "Hong Kong", "addr:state": "North Point", "addr:country": "China", "name": "Two Chinachem Exchange Square", "website": "https://www.wilsonparking.com.hk/en-us"}, "geometry": {"type": "Point", "coordinates": [114.19721268117428, 22.29039563471761]}},
{"type": "Feature", "id": "l9AlNboM_W3IGn9_XXDa9Gyyoy4=", "properties": {"ref": "376", "@spider": "wilsonparking_dac", "addr:full": "Upper Ngau Tau Kok Estate, 15 On Tak Road, Ngau Tau Kwok", "addr:city": "Hong Kong", "addr:state": "Ngau Tau Kok", "addr:country": "China", "name": "Upper Ngau Tau Kok Car Park", "website": "https://www.wilsonparking.com.hk/en-us"}, "geometry": {"type": "Point", "coordinates": [114.217965, 22.318664]}},
{"type": "Feature", "id": "zKVaQmoy7nJZ2Z6DtoijFRO4tVY=", "properties": {"ref": "105", "@spider": "wilsonparking_dac", "addr:full": "No. 1 Po Wing Road, Sheung Shui", "addr:city": "Hong Kong", "addr:state": "Sheung Shui", "addr:country": "China", "name": "Venice Garden", "website": "https://www.wilsonparking.com.hk/en-us"}, "geometry": {"type": "Point", "coordinates": [114.127416908741, 22.497959387168255]}},
{"type": "Feature", "id": "llP0CarVjhXvcyGcIHOFCVTnF1I=", "properties": {"ref": "302", "@spider": "wilsonparking_dac", "addr:full": "No. 8 Mau Tai Road, Tseung Kwan O", "addr:city": "Hong Kong", "addr:state": "Tseung Kwan O", "addr:country": "China", "name": "Verbena Heights", "website": "https://www.wilsonparking.com.hk/en-us"}, "geometry": {"type": "Point", "coordinates": [114.2565317, 22.3219316]}},
{"type": "Feature", "id": "NtKbpHuVLguP9xkHtEL5GHQaC9s=", "properties": {"ref": "294", "@spider": "wilsonparking_dac", "addr:full": "15 Watson Road, North Point", "addr:city": "Hong Kong", "addr:state": "North Point", "addr:country": "China", "name": "Victoria Centre", "website": "https://www.wilsonparking.com.hk/en-us"}, "geometry": {"type": "Point", "coordinates": [114.19047832489014, 22.287395134819835]}},
{"type": "Feature", "id": "qUnpJK4bKJ_gf5Hv_Be1rwnTosI=", "properties": {"ref": "290", "@spider": "wilsonparking_dac", "addr:full": "40-42 Hing Fat Street, Tin Hau", "addr:city": "Hong Kong", "addr:state": "Tin Hau", "addr:country": "China", "name": "Viking Gardens", "website": "https://www.wilsonparking.com.hk/en-us"}, "geometry": {"type": "Point", "coordinates": [114.19170677661896, 22.283915566283856]}},
{"type": "Feature", "id": "t6-g4NzWLwoZpMyv9rUCw3YMfnc=", "properties": {"ref": "47", "@spider": "wilsonparking_dac", "addr:full": "Wah Lai Estate, Lai King", "addr:city": "Hong Kong", "addr:state": "Lai King", "addr:country": "China", "name": "Wah Lai Car Park", "website": "https://www.wilsonparking.com.hk/en-us"}, "geometry": {"type": "Point", "coordinates": [114.13800358772278, 22.343050243118444]}},
{"type": "Feature", "id": "_35Ml9UFxxTEhSeUzukq8ZfOC2s=", "properties": {"ref": "222", "@spider": "wilsonparking_dac", "addr:full": "11-17 Sha Tin Centre Street, Shatin", "addr:city": "Hong Kong", "addr:state": "Shatin", "addr:country": "China", "name": "Wai Wah Centre", "website": "https://www.wilsonparking.com.hk/en-us"}, "geometry": {"type": "Point", "coordinates": [114.18779745697975, 22.381337993625298]}},
{"type": "Feature", "id": "w00neGNPOAlO7JUJBb0yL86lOZQ=", "properties": {"ref": "82", "@spider": "wilsonparking_dac", "addr:full": "Wan Tsui Estate, Chai Wan", "addr:city": "Hong Kong", "addr:state": "Chai Wan", "addr:country": "China", "name": "Wan Tsui Car Park", "website": "https://www.wilsonparking.com.hk/en-us"}, "geometry": {"type": "Point", "coordinates": [114.2365713, 22.2617324]}},
{"type": "Feature", "id": "AYvvoJfcLpe7bfrzfYRzE-hLn4c=", "properties": {"ref": "31", "@spider": "wilsonparking_dac", "addr:full": "Wang Kwong Road, Kowloon Bay", "addr:city": "Hong Kong", "addr:state": "Kowloon Bay", "addr:country": "China", "name": "Wang Kwong Road", "website": "https://www.wilsonparking.com.hk/en-us"}, "geometry": {"type": "Point", "coordinates": [114.2056663, 22.3285047]}},
{"type": "Feature", "id": "5-myGXXd6_CUZ5GZACHJ_sgo11M=", "properties": {"ref": "175", "@spider": "wilsonparking_dac", "addr:full": "1-27 Tsuen Kwai Street, Tsuen Wan", "addr:city": "Hong Kong", "addr:state": "Tsuen Wan", "addr:country": "China", "name": "Wealthy Garden", "website": "https://www.wilsonparking.com.hk/en-us"}, "geometry": {"type": "Point", "coordinates": [114.12235625088215, 22.369315526095523]}},
{"type": "Feature", "id": "oblXRCHSMZg0hroYfaEEZxvnCP0=", "properties": {"ref": "41", "@spider": "wilsonparking_dac", "addr:full": "No. 13-19 Wing Lung Street, Cheung Sha Wan", "addr:city": "Hong Kong", "addr:state": "Cheung Sha Wan", "addr:country": "China", "name": "Wing Lung Street", "website": "https://www.wilsonparking.com.hk/en-us"}, "geometry": {"type": "Point", "coordinates": [114.1586217, 22.338117]}},
{"type": "Feature", "id": "K7u9_Kf5e5jaHP5ct0PhlZzUhDY=", "properties": {"ref": "361", "@spider": "wilsonparking_dac", "addr:full": "Wo Lok Estate, Kwun Tong", "addr:city": "Hong Kong", "addr:state": "Kwun Tong", "addr:country": "China", "name": "Wo Lok Estate Car Park", "website": "https://www.wilsonparking.com.hk/en-us"}, "geometry": {"type": "Point", "coordinates": [114.227392, 22.315868]}},
{"type": "Feature", "id": "TOynX16kVSRhLdkaCR7CoyMxzlY=", "properties": {"ref": "80", "@spider": "wilsonparking_dac", "addr:full": "Wo Ming Court, Tseung Kwan O", "addr:city": "Hong Kong", "addr:state": "Tseung Kwan O", "addr:country": "China", "name": "Wo Ming Car Park", "website": "https://www.wilsonparking.com.hk/en-us"}, "geometry": {"type": "Point", "coordinates": [114.26772594451904, 22.316011423336256]}},
{"type": "Feature", "id": "bBYcyrE_O7dRf3OJpWGfLN8cvE8=", "properties": {"ref": "168", "@spider": "wilsonparking_dac", "addr:full": "9 Wah King Hill Road, Lai King", "addr:city": "Hong Kong", "addr:state": "Lai King", "addr:country": "China", "name": "Wonderland Villas", "website": "https://www.wilsonparking.com.hk/en-us"}, "geometry": {"type": "Point", "coordinates": [114.1361153125763, 22.35340488638664]}},
{"type": "Feature", "id": "Depqq58Xs1uOp6QkZROVIxZrO3M=", "properties": {"ref": "298", "@spider": "wilsonparking_dac", "addr:full": "280 Gloucester Road, Causeway Bay", "addr:city": "Hong Kong", "addr:state": "Causeway Bay", "addr:country": "China", "name": "World Trade Centre", "website": "https://www.wilsonparking.com.hk/en-us"}, "geometry": {"type": "Point", "coordinates": [114.1837498, 22.2820783]}},
{"type": "Feature", "id": "EPzQoEBGwbSEd8OyyRVMbqGpjI4=", "properties": {"ref": "44", "@spider": "wilsonparking_dac", "addr:full": "Wu Shan Road, Tuen Mun", "addr:city": "Hong Kong", "addr:state": "Tuen Mun", "addr:country": "China", "name": "Wu Shan Road", "website": "https://www.wilsonparking.com.hk/en-us"}, "geometry": {"type": "Point", "coordinates": [113.96926268844607, 22.375145840907408]}},
{"type": "Feature", "id": "KG5AaNjLx-BEjOTodZc79I7gIDE=", "properties": {"ref": "79", "@spider": "wilsonparking_dac", "addr:full": "Yan Ming Court, Tseung Kwan O", "addr:city": "Hong Kong", "addr:state": "Tseung Kwan O", "addr:country": "China", "name": "Yan Ming Car Park", "website": "https://www.wilsonparking.com.hk/en-us"}, "geometry": {"type": "Point", "coordinates": [114.25885319709778, 22.3236288719458]}},
{"type": "Feature", "id": "B-iguWkDxA60_gx1dfqOq4Bq2a0=", "properties": {"ref": "275", "@spider": "wilsonparking_dac", "addr:full": "Yat Tung Estate, Tung Chung", "addr:city": "Hong Kong", "addr:state": "Tung Chung", "addr:country": "China", "name": "Yat Tung Car Park", "website": "https://www.wilsonparking.com.hk/en-us"}, "geometry": {"type": "Point", "coordinates": [113.93626928329468, 22.281715352186588]}},
{"type": "Feature", "id": "584lntGeI2Pm80eICo2Ud_m7V3I=", "properties": {"ref": "362", "@spider": "wilsonparking_dac", "addr:full": "Yau Chui Court, Yau Tong", "addr:city": "Hong Kong", "addr:state": "Yau Tong", "addr:country": "China", "name": "Yau Chui Court Car Park", "website": "https://www.wilsonparking.com.hk/en-us"}, "geometry": {"type": "Point", "coordinates": [114.2361198, 22.3008917]}},
{"type": "Feature", "id": "_qgx0N7M_3G8LPm528pyq__lxTc=", "properties": {"ref": "363", "@spider": "wilsonparking_dac", "addr:full": "Yau Lai Estate, Yau Tong", "addr:city": "Hong Kong", "addr:state": "Yau Tong", "addr:country": "China", "name": "Yau Lai Estate Car Park", "website": "https://www.wilsonparking.com.hk/en-us"}, "geometry": {"type": "Point", "coordinates": [114.235489, 22.3004406]}},
{"type": "Feature", "id": "3EKa9a2VAvnbBK8waIXzoCkKmiY=", "properties": {"ref": "364", "@spider": "wilsonparking_dac", "addr:full": "Yau Mei Court, Yau Tong", "addr:city": "Hong Kong", "addr:state": "Yau Tong", "addr:country": "China", "name": "Yau Mei Court Car Park", "website": "https://www.wilsonparking.com.hk/en-us"}, "geometry": {"type": "Point", "coordinates": [114.2389534, 22.2987086]}},
{"type": "Feature", "id": "lpWMDeyuJ_zOT1h7LgPiL6U8Ows=", "properties": {"ref": "276", "@spider": "wilsonparking_dac", "addr:full": "26-28 Tat Chee Road, Yau Yat Chuen", "addr:city": "Hong Kong", "addr:state": "Yau Yat Chuen", "addr:country": "China", "name": "Yau Yat House (Service Suspension)", "website": "https://www.wilsonparking.com.hk/en-us"}, "geometry": {"type": "Point", "coordinates": [114.17533457279205, 22.331270715238702]}},
{"type": "Feature", "id": "K5TmfLr1x8ejTcjRooTdTUI0Zio=", "properties": {"ref": "162", "@spider": "wilsonparking_dac", "addr:full": "Yi Fung Court, Kwai Chung", "addr:city": "Hong Kong", "addr:state": "Kwai Chung", "addr:country": "China", "name": "Yi Fung Court", "website": "https://www.wilsonparking.com.hk/en-us"}, "geometry": {"type": "Point", "coordinates": [114.13900673389435, 22.361714836490428]}},
{"type": "Feature", "id": "yef9WQev-qNNMgvM7Nq6m1bgLuw=", "properties": {"ref": "140", "@spider": "wilsonparking_dac", "addr:full": "Yin Lai Court, Kwai Chung", "addr:city": "Hong Kong", "addr:state": "Lai King", "addr:country": "China", "name": "Yin Lai Car Park", "website": "https://www.wilsonparking.com.hk/en-us"}, "geometry": {"type": "Point", "coordinates": [114.12683486938477, 22.349366319722495]}},
{"type": "Feature", "id": "1lKqLR5NzA-XUCnmMxTY1HR4F0Q=", "properties": {"ref": "78", "@spider": "wilsonparking_dac", "addr:full": "Ying Ming Court, Tseung Kwan O", "addr:city": "Hong Kong", "addr:state": "Tseung Kwan O", "addr:country": "China", "name": "Ying Ming Car Park", "website": "https://www.wilsonparking.com.hk/en-us"}, "geometry": {"type": "Point", "coordinates": [114.2568687, 22.3269176]}},
{"type": "Feature", "id": "eAYXedyWErdAdcpONsgrAO1kMSI=", "properties": {"ref": "77", "@spider": "wilsonparking_dac", "addr:full": "Yiu Tung Estate, Shau Kei Wan", "addr:city": "Hong Kong", "addr:state": "Shau Kei Wan", "addr:country": "China", "name": "Yiu Tung Car Park", "website": "https://www.wilsonparking.com.hk/en-us"}, "geometry": {"type": "Point", "coordinates": [114.22364115715027, 22.277314820132464]}},
{"type": "Feature", "id": "QLLbx1D6PeG8gY73AJ-XbvWhwSo=", "properties": {"ref": "400", "@spider": "wilsonparking_dac", "addr:full": "No. 26 Aberdeen Reservoir Road, Aberdeen", "addr:city": "Hong Kong", "addr:state": "Aberdeen", "addr:country": "China", "name": "Yue Kwong Chuen", "website": "https://www.wilsonparking.com.hk/en-us"}, "geometry": {"type": "Point", "coordinates": [114.1567901, 22.2516167]}},
{"type": "Feature", "id": "hOoZUb3h0A3eKVaG3K-xbiHrEmo=", "properties": {"ref": "76", "@spider": "wilsonparking_dac", "addr:full": "Yue On Court, Ap Lei Chau", "addr:city": "Hong Kong", "addr:state": "Ap Lei Chau", "addr:country": "China", "name": "Yue On Car Park", "website": "https://www.wilsonparking.com.hk/en-us"}, "geometry": {"type": "Point", "coordinates": [114.15777951478958, 22.242289295569464]}},
{"type": "Feature", "id": "lFgzCRsLIXdd2nvqdQc71H5odzA=", "properties": {"ref": "245", "@spider": "wilsonparking_dac", "addr:full": "19-27 Tai Tong Road, Yuen Long", "addr:city": "Hong Kong", "addr:state": "Yuen Long", "addr:country": "China", "name": "Yuen Long Hop Yick Plaza", "website": "https://www.wilsonparking.com.hk/en-us"}, "geometry": {"type": "Point", "coordinates": [114.0293884268284, 22.443066291109822]}},
{"type": "Feature", "id": "WV6Bjhyht2MknnTNoZBvWIbcCH8=", "properties": {"ref": "196", "@spider": "wilsonparking_dac", "addr:full": "251 Castle Peak Road, Yuen Long", "addr:city": "Hong Kong", "addr:state": "Yuen Long", "addr:country": "China", "name": "Yuen Long Plaza", "website": "https://www.wilsonparking.com.hk/en-us"}, "geometry": {"type": "Point", "coordinates": [114.0238930284977, 22.445176251488796]}},
{"type": "Feature", "id": "hY_RuRFztg9OKnpADR3_Brbvd1M=", "properties": {"ref": "163", "@spider": "wilsonparking_dac", "addr:full": "Yuet Lai Court, Kwai Chung", "addr:city": "Hong Kong", "addr:state": "Lai King", "addr:country": "China", "name": "Yuet Lai Court", "website": "https://www.wilsonparking.com.hk/en-us"}, "geometry": {"type": "Point", "coordinates": [114.1274893283844, 22.347701741292493]}}]}